"STATION","DATE","REPORT_TYPE","SOURCE","AWND","BackupDirection","BackupDistance","BackupDistanceUnit","BackupElements","BackupElevation","BackupElevationUnit","BackupEquipment","BackupLatitude","BackupLongitude","BackupName","CDSD","CLDD","DSNW","DailyAverageDewPointTemperature","DailyAverageDryBulbTemperature","DailyAverageRelativeHumidity","DailyAverageSeaLevelPressure","DailyAverageStationPressure","DailyAverageWetBulbTemperature","DailyAverageWindSpeed","DailyCoolingDegreeDays","DailyDepartureFromNormalAverageTemperature","DailyHeatingDegreeDays","DailyMaximumDryBulbTemperature","DailyMinimumDryBulbTemperature","DailyPeakWindDirection","DailyPeakWindSpeed","DailyPrecipitation","DailySnowDepth","DailySnowfall","DailySustainedWindDirection","DailySustainedWindSpeed","DailyWeather","HDSD","HTDD","HeavyFog","HourlyAltimeterSetting","HourlyDewPointTemperature","HourlyDryBulbTemperature","HourlyPrecipitation","HourlyPresentWeatherType","HourlyPressureChange","HourlyPressureTendency","HourlyRelativeHumidity","HourlySeaLevelPressure","HourlySkyConditions","HourlyStationPressure","HourlyVisibility","HourlyWetBulbTemperature","HourlyWindDirection","HourlyWindGustSpeed","HourlyWindSpeed","MonthlyAverageRH","MonthlyDaysWithGT001Precip","MonthlyDaysWithGT010Precip","MonthlyDaysWithGT32Temp","MonthlyDaysWithGT90Temp","MonthlyDaysWithLT0Temp","MonthlyDaysWithLT32Temp","MonthlyDepartureFromNormalAverageTemperature","MonthlyDepartureFromNormalCoolingDegreeDays","MonthlyDepartureFromNormalHeatingDegreeDays","MonthlyDepartureFromNormalMaximumTemperature","MonthlyDepartureFromNormalMinimumTemperature","MonthlyDepartureFromNormalPrecipitation","MonthlyDewpointTemperature","MonthlyGreatestPrecip","MonthlyGreatestPrecipDate","MonthlyGreatestSnowDepth","MonthlyGreatestSnowDepthDate","MonthlyGreatestSnowfall","MonthlyGreatestSnowfallDate","MonthlyMaxSeaLevelPressureValue","MonthlyMaxSeaLevelPressureValueDate","MonthlyMaxSeaLevelPressureValueTime","MonthlyMaximumTemperature","MonthlyMeanTemperature","MonthlyMinSeaLevelPressureValue","MonthlyMinSeaLevelPressureValueDate","MonthlyMinSeaLevelPressureValueTime","MonthlyMinimumTemperature","MonthlySeaLevelPressure","MonthlyStationPressure","MonthlyTotalLiquidPrecipitation","MonthlyTotalSnowfall","MonthlyWetBulb","NormalsCoolingDegreeDay","NormalsHeatingDegreeDay","REM","REPORT_TYPE","SOURCE","ShortDurationEndDate005","ShortDurationEndDate010","ShortDurationEndDate015","ShortDurationEndDate020","ShortDurationEndDate030","ShortDurationEndDate045","ShortDurationEndDate060","ShortDurationEndDate080","ShortDurationEndDate100","ShortDurationEndDate120","ShortDurationEndDate150","ShortDurationEndDate180","ShortDurationPrecipitationValue005","ShortDurationPrecipitationValue010","ShortDurationPrecipitationValue015","ShortDurationPrecipitationValue020","ShortDurationPrecipitationValue030","ShortDurationPrecipitationValue045","ShortDurationPrecipitationValue060","ShortDurationPrecipitationValue080","ShortDurationPrecipitationValue100","ShortDurationPrecipitationValue120","ShortDurationPrecipitationValue150","ShortDurationPrecipitationValue180","Sunrise","Sunset","TStorms","WindEquipmentChangeDate"
"72306013722","2019-09-01T00:51:00","FM-15","7",,,,,,,,,,,,,,,,,,,,,,,,,,,,,,,,,,,,,,"30.20","62","67","0.00",,"-0.02","1","84","30.19","FEW:02 250","29.73","10.00","64","000",,"0",,,,,,,,,,,,,,,,,,,,,,,,,,,,,,,,,,,,,"MET11709/01/19 00:51:02 METAR KRDU 010551Z 00000KT 10SM FEW250 19/17 A3020 RMK AO2 SLP223 T01940167 10272 20194 51006 (SMK)","FM-15","7",,,,,,,,,,,,,,,,,,,,,,,,,,,,"2009-07-08"
"72306013722","2019-09-01T01:00:00","FM-12","4",,,,,,,,,,,,,,,,,,,,,,,,,,,,,,,,,,,,,,,"62","67",,,"-0.02","1","84","30.19",,"29.74","9.94","64","000",,"0",,,,,,,,,,,,,,,,,,,,,,,,,,,,,,,,,,,,,"SYN08072306 32966 20000 10194 20167 30070 40223 51006 90551 333 10306 20194 555 90106=","FM-12","4",,,,,,,,,,,,,,,,,,,,,,,,,,,,"2009-07-08"
"72306013722","2019-09-01T01:51:00","FM-15","7",,,,,,,,,,,,,,,,,,,,,,,,,,,,,,,,,,,,,,"30.20","63","67","0.00",,,,"87","30.18","FEW:02 250","29.73","10.00","65","000",,"0",,,,,,,,,,,,,,,,,,,,,,,,,,,,,,,,,,,,,"MET09909/01/19 01:51:02 METAR KRDU 010651Z 00000KT 10SM FEW250 19/17 A3020 RMK AO2 SLP221 T01940172 (SMK)","FM-15","7",,,,,,,,,,,,,,,,,,,,,,,,,,,,"2009-07-08"
"72306013722","2019-09-01T02:51:00","FM-15","7",,,,,,,,,,,,,,,,,,,,,,,,,,,,,,,,,,,,,,"30.19","63","65","0.00",,,,"93","30.17","FEW:02 250","29.72","10.00","64","000",,"0",,,,,,,,,,,,,,,,,,,,,,,,,,,,,,,,,,,,,"MET09909/01/19 02:51:02 METAR KRDU 010751Z 00000KT 10SM FEW250 18/17 A3019 RMK AO2 SLP218 T01830172 (SMK)","FM-15","7",,,,,,,,,,,,,,,,,,,,,,,,,,,,"2009-07-08"
"72306013722","2019-09-01T03:51:00","FM-15","7",,,,,,,,,,,,,,,,,,,,,,,,,,,,,,,,,,,,,,"30.18","61","63","0.00",,"+0.02","7","93","30.17","FEW:02 250","29.71","10.00","62","040",,"3",,,,,,,,,,,,,,,,,,,,,,,,,,,,,,,,,,,,,"MET10509/01/19 03:51:02 METAR KRDU 010851Z 04003KT 10SM FEW250 17/16 A3018 RMK AO2 SLP216 T01720161 57006 (SMK)","FM-15","7",,,,,,,,,,,,,,,,,,,,,,,,,,,,"2009-07-08"
"72306013722","2019-09-01T04:51:00","FM-15","7",,,,,,,,,,,,,,,,,,,,,,,,,,,,,,,,,,,,,,"30.19","62","64","0.00",,,,"93","30.17","FEW:02 250","29.72","10.00","63","060",,"5",,,,,,,,,,,,,,,,,,,,,,,,,,,,,,,,,,,,,"MET09909/01/19 04:51:02 METAR KRDU 010951Z 06004KT 10SM FEW250 18/17 A3019 RMK AO2 SLP218 T01780167 (SMK)","FM-15","7",,,,,,,,,,,,,,,,,,,,,,,,,,,,"2009-07-08"
"72306013722","2019-09-01T05:51:00","FM-15","7",,,,,,,,,,,,,,,,,,,,,,,,,,,,,,,,,,,,,,"30.20","63","64","0.00",,,,"96","30.19","FEW:02 40 FEW:02 250","29.73","10.00","63","060",,"5",,,,,,,,,,,,,,,,,,,,,,,,,,,,,,,,,,,,,"MET10609/01/19 05:51:02 METAR KRDU 011051Z 06004KT 10SM FEW040 FEW250 18/17 A3020 RMK AO2 SLP222 T01780172 (SMK)","FM-15","7",,,,,,,,,,,,,,,,,,,,,,,,,,,,"2009-07-08"
"72306013722","2019-09-01T06:51:00","FM-15","7",,,,,,,,,,,,,,,,,,,,,,,,,,,,,,,,,,,,,,"30.21","65","68","0.00",,"-0.02","3","90","30.19","FEW:02 250","29.74","10.00","66","070",,"8",,,,,,,,,,,,,,,,,,,,,,,,,,,,,,,,,,,,,"MET11609/01/19 06:51:02 METAR KRDU 011151Z 07007KT 10SM FEW250 20/18 A3021 RMK AO2 SLP225 T02000183 10200 20172 53008 (RP)","FM-15","7",,,,,,,,,,,,,,,,,,,,,,,,,,,,"2009-07-08"
"72306013722","2019-09-01T07:00:00","FM-12","4",,,,,,,,,,,,,,,,,,,,,,,,,,,,,,,,,,,,,,,"65","68",,,"-0.02","3","90","30.19",,"29.75","9.94","66","070",,"8",,,,,,,,,,,,,,,,,,,,,,,,,,,,,,,,,,,,,"SYN08072306 32966 20707 10200 20183 30073 40225 53008 91151 333 10317 20172 555 90112=","FM-12","4",,,,,,,,,,,,,,,,,,,,,,,,,,,,"2009-07-08"
"72306013722","2019-09-01T07:51:00","FM-15","7",,,,,,,,,,,,,,,,,,,,,,,,,,,,,,,,,,,,,,"30.21","67","72","0.00",,,,"84","30.19","FEW:02 250","29.74","10.00","69","070",,"9",,,,,,,,,,,,,,,,,,,,,,,,,,,,,,,,,,,,,"MET09809/01/19 07:51:02 METAR KRDU 011251Z 07008KT 10SM FEW250 22/19 A3021 RMK AO2 SLP225 T02220194 (RP)","FM-15","7",,,,,,,,,,,,,,,,,,,,,,,,,,,,"2009-07-08"
"72306013722","2019-09-01T08:51:00","FM-15","7",,,,,,,,,,,,,,,,,,,,,,,,,,,,,,,,,,,,,,"30.22","67","76","0.00",,,,"74","30.21","SCT:04 20 SCT:04 250","29.75","10.00","70","070",,"8",,,,,,,,,,,,,,,,,,,,,,,,,,,,,,,,,,,,,"MET10509/01/19 08:51:02 METAR KRDU 011351Z 07007KT 10SM SCT020 SCT250 24/19 A3022 RMK AO2 SLP229 T02440194 (RP)","FM-15","7",,,,,,,,,,,,,,,,,,,,,,,,,,,,"2009-07-08"
"72306013722","2019-09-01T09:10:00","FM-16","7",,,,,,,,,,,,,,,,,,,,,,,,,,,,,,,,,,,,,,"30.23","66","76",,,,,"72",,"BKN:07 24 BKN:07 250","29.76","10.00","70","100","17","13",,,,,,,,,,,,,,,,,,,,,,,,,,,,,,,,,,,,,"MET10109/01/19 09:10:02 SPECI KRDU 011410Z 10011G15KT 10SM BKN024 BKN250 24/19 A3023 RMK AO2 T02440189 (RP)","FM-16","7",,,,,,,,,,,,,,,,,,,,,,,,,,,,"2009-07-08"
"72306013722","2019-09-01T09:51:00","FM-15","7",,,,,,,,,,,,,,,,,,,,,,,,,,,,,,,,,,,,,,"30.23","66","78","0.00",,"-0.02","3","67","30.22","BKN:07 27 BKN:07 250","29.76","10.00","70","VRB",,"8",,,,,,,,,,,,,,,,,,,,,,,,,,,,,,,,,,,,,"MET11109/01/19 09:51:02 METAR KRDU 011451Z 06007KT 10SM BKN027 BKN250 26/19 A3023 RMK AO2 SLP232 T02560189 53006 (RP)","FM-15","7",,,,,,,,,,,,,,,,,,,,,,,,,,,,"2009-07-08"
"72306013722","2019-09-01T10:51:00","FM-15","7",,,,,,,,,,,,,,,,,,,,,,,,,,,,,,,,,,,,,,"30.22","63","81","0.00",,,,"54","30.21","SCT:04 35 SCT:04 250","29.75","10.00","69","120",,"9",,,,,,,,,,,,,,,,,,,,,,,,,,,,,,,,,,,,,"MET10509/01/19 10:51:02 METAR KRDU 011551Z 12008KT 10SM SCT035 SCT250 27/17 A3022 RMK AO2 SLP230 T02720172 (RP)","FM-15","7",,,,,,,,,,,,,,,,,,,,,,,,,,,,"2009-07-08"
"72306013722","2019-09-01T11:51:00","FM-15","7",,,,,,,,,,,,,,,,,,,,,,,,,,,,,,,,,,,,,,"30.21","64","82","0.00",,,,"55","30.19","SCT:04 42 SCT:04 250","29.74","10.00","70","080",,"8",,,,,,,,,,,,,,,,,,,,,,,,,,,,,,,,,,,,,"MET10509/01/19 11:51:02 METAR KRDU 011651Z 08007KT 10SM SCT042 SCT250 28/18 A3021 RMK AO2 SLP225 T02780178 (RP)","FM-15","7",,,,,,,,,,,,,,,,,,,,,,,,,,,,"2009-07-08"
"72306013722","2019-09-01T12:51:00","FM-15","7",,,,,,,,,,,,,,,,,,,,,,,,,,,,,,,,,,,,,,"30.19","62","84","0.00",,"+0.04","8","48","30.18","BKN:07 45 BKN:07 250","29.72","10.00","70","080",,"9",,,,,,,,,,,,,,,,,,,,,,,,,,,,,,,,,,,,,"MET12309/01/19 12:51:02 METAR KRDU 011751Z 08008KT 10SM BKN045 BKN250 29/17 A3019 RMK AO2 SLP220 T02890167 10289 20200 58012 (RP)","FM-15","7",,,,,,,,,,,,,,,,,,,,,,,,,,,,"2009-07-08"
"72306013722","2019-09-01T13:00:00","FM-12","4",,,,,,,,,,,,,,,,,,,,,,,,,,,,,,,,,,,,,,,"62","84",,,"+0.04","8","48","30.18","41","29.73","9.94","70","080",,"9",,,,,,,,,,,,,,,,,,,,,,,,,,,,,,,,,,,,,"SYN08072306 32666 60808 10289 20167 30067 40220 58012 91751 333 10289 20200 555 90118=","FM-12","4",,,,,,,,,,,,,,,,,,,,,,,,,,,,"2009-07-08"
"72306013722","2019-09-01T13:51:00","FM-15","7",,,,,,,,,,,,,,,,,,,,,,,,,,,,,,,,,,,,,,"30.16","64","85","0.00",,,,"50","30.15","BKN:07 50 BKN:07 250","29.69","10.00","71","090",,"9",,,,,,,,,,,,,,,,,,,,,,,,,,,,,,,,,,,,,"MET10509/01/19 13:51:02 METAR KRDU 011851Z 09008KT 10SM BKN050 BKN250 29/18 A3016 RMK AO2 SLP209 T02940178 (RP)","FM-15","7",,,,,,,,,,,,,,,,,,,,,,,,,,,,"2009-07-08"
"72306013722","2019-09-01T14:51:00","FM-15","7",,,,,,,,,,,,,,,,,,,,,,,,,,,,,,,,,,,,,,"30.14","64","85","0.00",,,,"50","30.13","SCT:04 50 BKN:07 250","29.67","10.00","71","050",,"6",,,,,,,,,,,,,,,,,,,,,,,,,,,,,,,,,,,,,"MET10009/01/19 14:51:02 METAR KRDU 011951Z 05005KT 10SM SCT050 BKN250 29/18 A3014 RMK AO2 SLP203 T02940178","FM-15","7",,,,,,,,,,,,,,,,,,,,,,,,,,,,"2009-07-08"
"72306013722","2019-09-01T15:51:00","FM-15","7",,,,,,,,,,,,,,,,,,,,,,,,,,,,,,,,,,,,,,"30.14","65","85","0.00",,"+0.06","6","51","30.12","SCT:04 55 BKN:07 250","29.67","10.00","72","060",,"10",,,,,,,,,,,,,,,,,,,,,,,,,,,,,,,,,,,,,"MET11109/01/19 15:51:02 METAR KRDU 012051Z 06009KT 10SM SCT055 BKN250 29/18 A3014 RMK AO2 SLP201 T02940183 56019 (HA)","FM-15","7",,,,,,,,,,,,,,,,,,,,,,,,,,,,"2009-07-08"
"72306013722","2019-09-01T16:51:00","FM-15","7",,,,,,,,,,,,,,,,,,,,,,,,,,,,,,,,,,,,,,"30.14","66","85","0.00",,,,"53","30.12","SCT:04 50 BKN:07 250","29.67","10.00","72","060",,"10",,,,,,,,,,,,,,,,,,,,,,,,,,,,,,,,,,,,,"MET11909/01/19 16:51:02 METAR KRDU 012151Z 06009KT 10SM SCT050 BKN250 29/19 A3014 RMK AO2 SLP201 TCU DSNT E-SE T02940189 (HA)","FM-15","7",,,,,,,,,,,,,,,,,,,,,,,,,,,,"2009-07-08"
"72306013722","2019-09-01T17:51:00","FM-15","7",,,,,,,,,,,,,,,,,,,,,,,,,,,,,,,,,,,,,,"30.14","66","82","0.00",,,,"58","30.12","SCT:04 50 BKN:07 65 BKN:07 250","29.67","10.00","71","070",,"8",,,,,,,,,,,,,,,,,,,,,,,,,,,,,,,,,,,,,"MET12609/01/19 17:51:02 METAR KRDU 012251Z 07007KT 10SM SCT050 BKN065 BKN250 28/19 A3014 RMK AO2 SLP201 TCU DSNT SE-S T02780189 (HA)","FM-15","7",,,,,,,,,,,,,,,,,,,,,,,,,,,,"2009-07-08"
"72306013722","2019-09-01T18:51:00","FM-15","7",,,,,,,,,,,,,,,,,,,,,,,,,,,,,,,,,,,,,,"30.14","69","76","0.00",,"-0.00","3","79","30.13","SCT:04 50 SCT:04 90 BKN:07 250","29.67","10.00","71","160",,"7",,,,,,,,,,,,,,,,,,,,,,,,,,,,,,,,,,,,,"MET13709/01/19 18:51:02 METAR KRDU 012351Z 16006KT 10SM SCT050 SCT090 BKN250 24/21 A3014 RMK AO2 SLP203 VCSH E T02440206 10300 20244 53001 (HA)","FM-15","7",,,,,,,,,,,,,,,,,,,,,,,,,,,,"2009-07-08"
"72306013722","2019-09-01T19:00:00","FM-12","4",,,,,,,,,,,,,,,,,,,,,,,,,,,,,,,,,,,,,,,"69","76",,,"-0.00","3","79","30.13","57","29.68","9.94","71","160",,"7",,,,,,,,,,,,,,,,,,,,,,,,,,,,,,,,,,,,,"SYN08072306 32766 61606 10244 20206 30050 40203 53001 92351 333 10300 20172 555 90200=","FM-12","4",,,,,,,,,,,,,,,,,,,,,,,,,,,,"2009-07-08"
"72306013722","2019-09-01T19:51:00","FM-15","7",,,,,,,,,,,,,,,,,,,,,,,,,,,,,,,,,,,,,,"30.14","69","75","0.00",,,,"82","30.13","SCT:04 39 BKN:07 120 BKN:07 250","29.67","10.00","71","090",,"8",,,,,,,,,,,,,,,,,,,,,,,,,,,,,,,,,,,,,"MET10709/01/19 19:51:01 METAR KRDU 020051Z 09007KT 10SM SCT039 BKN120 BKN250 24/21 A3014 RMK AO2 SLP202 T02390206","FM-15","7",,,,,,,,,,,,,,,,,,,,,,,,,,,,"2009-07-08"
"72306013722","2019-09-01T20:51:00","FM-15","7",,,,,,,,,,,,,,,,,,,,,,,,,,,,,,,,,,,,,,"30.15","69","75","0.00",,,,"82","30.13","BKN:07 38 BKN:07 250","29.68","10.00","71","000",,"0",,,,,,,,,,,,,,,,,,,,,,,,,,,,,,,,,,,,,"MET10009/01/19 20:51:01 METAR KRDU 020151Z 00000KT 10SM BKN038 BKN250 24/21 A3015 RMK AO2 SLP204 T02390206","FM-15","7",,,,,,,,,,,,,,,,,,,,,,,,,,,,"2009-07-08"
"72306013722","2019-09-01T21:51:00","FM-15","7",,,,,,,,,,,,,,,,,,,,,,,,,,,,,,,,,,,,,,"30.16","69","75","0.00",,"-0.02","3","82","30.14","SCT:04 42 BKN:07 250","29.69","10.00","71","120",,"3",,,,,,,,,,,,,,,,,,,,,,,,,,,,,,,,,,,,,"MET10609/01/19 21:51:01 METAR KRDU 020251Z 12003KT 10SM SCT042 BKN250 24/21 A3016 RMK AO2 SLP208 T02390206 53006","FM-15","7",,,,,,,,,,,,,,,,,,,,,,,,,,,,"2009-07-08"
"72306013722","2019-09-01T22:51:00","FM-15","7",,,,,,,,,,,,,,,,,,,,,,,,,,,,,,,,,,,,,,"30.15","70","73","0.00",,,,"90","30.14","SCT:04 65 SCT:04 120","29.68","10.00","71","000",,"0",,,,,,,,,,,,,,,,,,,,,,,,,,,,,,,,,,,,,"MET10009/01/19 22:51:02 METAR KRDU 020351Z 00000KT 10SM SCT065 SCT120 23/21 A3015 RMK AO2 SLP205 T02280211","FM-15","7",,,,,,,,,,,,,,,,,,,,,,,,,,,,"2009-07-08"
"72306013722","2019-09-01T23:51:00","FM-15","7",,,,,,,,,,,,,,,,,,,,,,,,,,,,,,,,,,,,,,"30.13","69","73","0.00",,,,"87","30.12","OVC:08 70","29.66","10.00","70","000",,"0",,,,,,,,,,,,,,,,,,,,,,,,,,,,,,,,,,,,,"MET10309/01/19 23:51:02 METAR KRDU 020451Z 00000KT 10SM OVC070 23/21 A3013 RMK AO2 SLP199 T02280206 403000172","FM-15","7",,,,,,,,,,,,,,,,,,,,,,,,,,,,"2009-07-08"
"72306013722","2019-09-01T23:59:00","SOD  ","6",,,,,,,,,,,,,,,"65","75","74","30.16","29.71","69","5.6","10","-1.5","0","86","63","100","19","0.00","0","0.0","080","14",,,,,,,,,,,,,,,,,,,,,,,,,,,,,,,,,,,,,,,,,,,,,,,,,,,,,,,,,"SOD73924 HR PRECIPITATION (IN): 0.00 SNOW DEPTH (IN):0     24 HR SNOWFALL (IN):0.0  24 HR MAX TEMP (F): 8624 HR MIN TEMP (F): 63AVERAGE STATION PRESSURE:29.710 MINIMUM SEA LEVEL PRESSURE:30.12 TIME OF OCCURRENCE:2359 PEAK WIND SPEED (MPH): 19 PEAK WIND DIR (DEG):100 PEAK WIND TIME (LST):      FASTEST 2MIN SPEED (MPH): 14FASTEST 2MIN DIR (DEG): 80 FASTEST 2MIN TIME (LST):     AVERAGE WIND SPEED (MPH): 5.6 24 HR AVG TEMP (F): 75DEPART FROM NORMAL: -1  HEATING DEGREE DAYS:  0 COOLING DEGREE DAYS: 10 LATEST DAY MAX TEMP (0700-1900 LST):86  LATEST NIGHT MIN TEMP(1900-0800 LST):63 HOURLY INCREMENTAL PRECIPITATION VALUES (IN):.00 0.00 0.00 0.00 0.00 0.00 0.00 0.00 0.00 0.00 0.00 0.00 0.00 0.00 0.00 0.00 0.00 0.00 0.00 0.00 0.00 0.00 0.00 0.00","SOD  ","6",,,,,,,,,,,,,,,,,,,,,,,,,"0547","1843",,"2009-07-08"
"72306013722","2019-09-02T00:51:00","FM-15","7",,,,,,,,,,,,,,,,,,,,,,,,,,,,,,,,,,,,,,"30.12","69","72","0.00",,"+0.04","8","91","30.11","FEW:02 70","29.65","10.00","70","090",,"3",,,,,,,,,,,,,,,,,,,,,,,,,,,,,,,,,,,,,"MET11609/02/19 00:51:02 METAR KRDU 020551Z 09003KT 10SM FEW070 22/21 A3012 RMK AO2 SLP195 T02220206 10244 20217 58013 (VD)","FM-15","7",,,,,,,,,,,,,,,,,,,,,,,,,,,,"2009-07-08"
"72306013722","2019-09-02T01:00:00","FM-12","4",,,,,,,,,,,,,,,,,,,,,,,,,,,,,,,,,,,,,,,"69","72",,,"+0.04","8","91","30.11","74","29.66","9.94","70","090",,"3",,,,,,,,,,,,,,,,,,,,,,,,,,,,,,,,,,,,,"SYN08072306 32866 20903 10222 20206 30043 40195 58013 90551 333 10244 20172 555 90206=","FM-12","4",,,,,,,,,,,,,,,,,,,,,,,,,,,,"2009-07-08"
"72306013722","2019-09-02T01:51:00","FM-15","7",,,,,,,,,,,,,,,,,,,,,,,,,,,,,,,,,,,,,,"30.10","69","71","0.00",,,,"94","30.09","FEW:02 70 SCT:04 120","29.63","9.00","70","050",,"3",,,,,,,,,,,,,,,,,,,,,,,,,,,,,,,,,,,,,"MET10409/02/19 01:51:02 METAR KRDU 020651Z 05003KT 9SM FEW070 SCT120 22/21 A3010 RMK AO2 SLP188 T02170206 (VD)","FM-15","7",,,,,,,,,,,,,,,,,,,,,,,,,,,,"2009-07-08"
"72306013722","2019-09-02T02:51:00","FM-15","7",,,,,,,,,,,,,,,,,,,,,,,,,,,,,,,,,,,,,,"30.09","69","71","0.00",,,,"94","30.07","BKN:07 150","29.62","10.00","70","040",,"3",,,,,,,,,,,,,,,,,,,,,,,,,,,,,,,,,,,,,"MET09809/02/19 02:51:02 METAR KRDU 020751Z 04003KT 10SM BKN150 22/21 A3009 RMK AO2 SLP184 T02170206 (VD)","FM-15","7",,,,,,,,,,,,,,,,,,,,,,,,,,,,"2009-07-08"
"72306013722","2019-09-02T03:51:00","FM-15","7",,,,,,,,,,,,,,,,,,,,,,,,,,,,,,,,,,,,,,"30.10","69","70","0.00",,"+0.02","5","97","30.08","BKN:07 150","29.63","9.00","69","040",,"3",,,,,,,,,,,,,,,,,,,,,,,,,,,,,,,,,,,,,"MET10309/02/19 03:51:02 METAR KRDU 020851Z 04003KT 9SM BKN150 21/21 A3010 RMK AO2 SLP187 T02110206 55008 (VD)","FM-15","7",,,,,,,,,,,,,,,,,,,,,,,,,,,,"2009-07-08"
"72306013722","2019-09-02T04:51:00","FM-15","7",,,,,,,,,,,,,,,,,,,,,,,,,,,,,,,,,,,,,,"30.10","69","70","0.00",,,,"97","30.09","BKN:07 65","29.63","10.00","69","010",,"5",,,,,,,,,,,,,,,,,,,,,,,,,,,,,,,,,,,,,"MET09809/02/19 04:51:02 METAR KRDU 020951Z 01004KT 10SM BKN065 21/21 A3010 RMK AO2 SLP189 T02110206 (VD)","FM-15","7",,,,,,,,,,,,,,,,,,,,,,,,,,,,"2009-07-08"
"72306013722","2019-09-02T05:51:00","FM-15","7",,,,,,,,,,,,,,,,,,,,,,,,,,,,,,,,,,,,,,"30.11","69","70","0.00",,,,"97","30.09","BKN:07 60 BKN:07 90","29.64","10.00","69","020",,"3",,,,,,,,,,,,,,,,,,,,,,,,,,,,,,,,,,,,,"MET10509/02/19 05:51:02 METAR KRDU 021051Z 02003KT 10SM BKN060 BKN090 21/21 A3011 RMK AO2 SLP190 T02110206 (VD)","FM-15","7",,,,,,,,,,,,,,,,,,,,,,,,,,,,"2009-07-08"
"72306013722","2019-09-02T06:51:00","FM-15","7",,,,,,,,,,,,,,,,,,,,,,,,,,,,,,,,,,,,,,"30.11","69","72","0.00",,"-0.01","3","91","30.10","FEW:02 8 SCT:04 38 SCT:04 60","29.64","10.00","70","020",,"5",,,,,,,,,,,,,,,,,,,,,,,,,,,,,,,,,,,,,"MET13109/02/19 06:51:02 METAR KRDU 021151Z 02004KT 10SM FEW008 SCT038 SCT060 22/21 A3011 RMK AO2 SLP192 T02220206 10222 20211 53005 (KAH)","FM-15","7",,,,,,,,,,,,,,,,,,,,,,,,,,,,"2009-07-08"
"72306013722","2019-09-02T07:00:00","FM-12","4",,,,,,,,,,,,,,,,,,,,,,,,,,,,,,,,,,,,,,,"69","72",,,"-0.01","3","91","30.10","8","29.65","9.94","70","020",,"5",,,,,,,,,,,,,,,,,,,,,,,,,,,,,,,,,,,,,"SYN08072306 32366 40204 10222 20206 30040 40192 53005 91151 333 10300 20211 555 90212=","FM-12","4",,,,,,,,,,,,,,,,,,,,,,,,,,,,"2009-07-08"
"72306013722","2019-09-02T07:51:00","FM-15","7",,,,,,,,,,,,,,,,,,,,,,,,,,,,,,,,,,,,,,"30.11","70","76","0.00",,,,"82","30.10","FEW:02 38 SCT:04 60 SCT:04 250","29.64","10.00","72","030",,"5",,,,,,,,,,,,,,,,,,,,,,,,,,,,,,,,,,,,,"MET11309/02/19 07:51:02 METAR KRDU 021251Z 03004KT 10SM FEW038 SCT060 SCT250 24/21 A3011 RMK AO2 SLP193 T02440211 (KAH)","FM-15","7",,,,,,,,,,,,,,,,,,,,,,,,,,,,"2009-07-08"
"72306013722","2019-09-02T08:51:00","FM-15","7",,,,,,,,,,,,,,,,,,,,,,,,,,,,,,,,,,,,,,"30.11","70","79","0.00",,,,"74","30.09","FEW:02 20 FEW:02 40 SCT:04 60","29.64","10.00","73","070",,"5",,,,,,,,,,,,,,,,,,,,,,,,,,,,,,,,,,,,,"MET11309/02/19 08:51:02 METAR KRDU 021351Z 07004KT 10SM FEW020 FEW040 SCT060 26/21 A3011 RMK AO2 SLP190 T02610211 (KAH)","FM-15","7",,,,,,,,,,,,,,,,,,,,,,,,,,,,"2009-07-08"
"72306013722","2019-09-02T09:51:00","FM-15","7",,,,,,,,,,,,,,,,,,,,,,,,,,,,,,,,,,,,,,"30.10","70","82","0.00",,"+0.01","8","67","30.08","BKN:07 25 BKN:07 60 BKN:07 250","29.63","10.00","74","060",,"7",,,,,,,,,,,,,,,,,,,,,,,,,,,,,,,,,,,,,"MET11909/02/19 09:51:02 METAR KRDU 021451Z 06006KT 10SM BKN025 BKN060 BKN250 28/21 A3010 RMK AO2 SLP187 T02780211 58004 (KAH)","FM-15","7",,,,,,,,,,,,,,,,,,,,,,,,,,,,"2009-07-08"
"72306013722","2019-09-02T10:51:00","FM-15","7",,,,,,,,,,,,,,,,,,,,,,,,,,,,,,,,,,,,,,"30.09","69","82","0.00",,,,"65","30.08","SCT:04 30 BKN:07 55 BKN:07 250","29.62","10.00","73","050",,"7",,,,,,,,,,,,,,,,,,,,,,,,,,,,,,,,,,,,,"MET12609/02/19 10:51:02 METAR KRDU 021551Z 05006KT 10SM SCT030TCU BKN055 BKN250 28/21 A3009 RMK AO2 SLP186 TCU ALQDS T02780206 (KAH)","FM-15","7",,,,,,,,,,,,,,,,,,,,,,,,,,,,"2009-07-08"
"72306013722","2019-09-02T11:51:00","FM-15","7",,,,,,,,,,,,,,,,,,,,,,,,,,,,,,,,,,,,,,"30.07","68","85","0.00",,,,"57","30.05","SCT:04 35 SCT:04 70","29.60","10.00","74","050",,"5",,,,,,,,,,,,,,,,,,,,,,,,,,,,,,,,,,,,,"MET11909/02/19 11:51:02 METAR KRDU 021651Z 05004KT 10SM SCT035TCU SCT070 29/20 A3007 RMK AO2 SLP176 TCU ALQDS T02940200 (KAH)","FM-15","7",,,,,,,,,,,,,,,,,,,,,,,,,,,,"2009-07-08"
"72306013722","2019-09-02T12:51:00","FM-15","7",,,,,,,,,,,,,,,,,,,,,,,,,,,,,,,,,,,,,,"30.05","68","87","0.00",,"+0.06","8","53","30.03","SCT:04 42 SCT:04 80","29.58","10.00","74","VRB",,"6",,,,,,,,,,,,,,,,,,,,,,,,,,,,,,,,,,,,,"MET13709/02/19 12:51:02 METAR KRDU 021751Z VRB05KT 10SM SCT042TCU SCT080 31/20 A3005 RMK AO2 SLP168 TCU ALQDS T03060200 10311 20222 58019 (KAH)","FM-15","7",,,,,,,,,,,,,,,,,,,,,,,,,,,,"2009-07-08"
"72306013722","2019-09-02T13:00:00","FM-12","4",,,,,,,,,,,,,,,,,,,,,,,,,,,,,,,,,,,,,,,"68","87",,,"+0.06","8","53","30.03","41","29.59","9.94","74",,,"6",,,,,,,,,,,,,,,,,,,,,,,,,,,,,,,,,,,,,"SYN08072306 32666 4//05 10306 20200 30020 40168 58019 91751 333 10311 20222 555 90218=","FM-12","4",,,,,,,,,,,,,,,,,,,,,,,,,,,,"2009-07-08"
"72306013722","2019-09-02T13:51:00","FM-15","7",,,,,,,,,,,,,,,,,,,,,,,,,,,,,,,,,,,,,,"30.02","67","88","0.00",,,,"50","30.00","SCT:04 45 SCT:04 80","29.55","10.00","74","070",,"5",,,,,,,,,,,,,,,,,,,,,,,,,,,,,,,,,,,,,"MET11909/02/19 13:51:02 METAR KRDU 021851Z 07004KT 10SM SCT045TCU SCT080 31/19 A3002 RMK AO2 SLP159 TCU ALQDS T03110194 (KAH)","FM-15","7",,,,,,,,,,,,,,,,,,,,,,,,,,,,"2009-07-08"
"72306013722","2019-09-02T14:51:00","FM-15","7",,,,,,,,,,,,,,,,,,,,,,,,,,,,,,,,,,,,,,"30.00","64","87","0.00",,,,"46","29.98","SCT:04 45 SCT:04 250","29.53","10.00","72","310",,"3",,,,,,,,,,,,,,,,,,,,,,,,,,,,,,,,,,,,,"MET11909/02/19 14:51:02 METAR KRDU 021951Z 31003KT 10SM SCT045TCU SCT250 31/18 A3000 RMK AO2 SLP152 TCU ALQDS T03060178 (JBA)","FM-15","7",,,,,,,,,,,,,,,,,,,,,,,,,,,,"2009-07-08"
"72306013722","2019-09-02T15:51:00","FM-15","7",,,,,,,,,,,,,,,,,,,,,,,,,,,,,,,,,,,,,,"29.98","65","89","0.00",,"+0.06","6","45","29.97","SCT:04 45 SCT:04 250","29.51","10.00","73","VRB",,"9",,,,,,,,,,,,,,,,,,,,,,,,,,,,,,,,,,,,,"MET13509/02/19 15:51:02 METAR KRDU 022051Z 06008KT 10SM SCT045TCU SCT250 32/18 A2998 RMK AO2 SLP148 CB DSNT E TCU E-S-W T03170183 56020 (JBA)","FM-15","7",,,,,,,,,,,,,,,,,,,,,,,,,,,,"2009-07-08"
"72306013722","2019-09-02T16:51:00","FM-15","7",,,,,,,,,,,,,,,,,,,,,,,,,,,,,,,,,,,,,,"29.98","64","88","0.00",,,,"45","29.96","SCT:04 45 SCT:04 250","29.51","10.00","72","000",,"0",,,,,,,,,,,,,,,,,,,,,,,,,,,,,,,,,,,,,"MET13309/02/19 16:51:02 METAR KRDU 022151Z 00000KT 10SM SCT045TCU SCT250 31/18 A2998 RMK AO2 SLP146 CB DSNT NW TCU NE-SE-SW T03110178 (JBA)","FM-15","7",,,,,,,,,,,,,,,,,,,,,,,,,,,,"2009-07-08"
"72306013722","2019-09-02T17:51:00","FM-15","7",,,,,,,,,,,,,,,,,,,,,,,,,,,,,,,,,,,,,,"29.99","70","83","0.00",,,,"65","29.97","FEW:02 45 SCT:04 250","29.52","10.00","74","170",,"6",,,,,,,,,,,,,,,,,,,,,,,,,,,,,,,,,,,,,"MET10609/02/19 17:51:02 METAR KRDU 022251Z 17005KT 10SM FEW045 SCT250 28/21 A2999 RMK AO2 SLP149 T02830211 (JBA)","FM-15","7",,,,,,,,,,,,,,,,,,,,,,,,,,,,"2009-07-08"
"72306013722","2019-09-02T18:51:00","FM-15","7",,,,,,,,,,,,,,,,,,,,,,,,,,,,,,,,,,,,,,"29.99","70","80","0.00",,"-0.01","3","71","29.98","FEW:02 45 SCT:04 250","29.52","10.00","73","170",,"5",,,,,,,,,,,,,,,,,,,,,,,,,,,,,,,,,,,,,"MET12409/02/19 18:51:02 METAR KRDU 022351Z 17004KT 10SM FEW045 SCT250 27/21 A2999 RMK AO2 SLP152 T02670211 10322 20267 53003 (JBA)","FM-15","7",,,,,,,,,,,,,,,,,,,,,,,,,,,,"2009-07-08"
"72306013722","2019-09-02T19:00:00","FM-12","4",,,,,,,,,,,,,,,,,,,,,,,,,,,,,,,,,,,,,,,"70","80",,,"-0.01","3","71","29.98","41","29.53","9.94","73","170",,"5",,,,,,,,,,,,,,,,,,,,,,,,,,,,,,,,,,,,,"SYN08072306 32666 41704 10267 20211 30000 40152 53003 92351 333 10322 20211 555 90300=","FM-12","4",,,,,,,,,,,,,,,,,,,,,,,,,,,,"2009-07-08"
"72306013722","2019-09-02T19:51:00","FM-15","7",,,,,,,,,,,,,,,,,,,,,,,,,,,,,,,,,,,,,,"29.99","71","77","0.00",,,,"82","29.98","FEW:02 250","29.52","10.00","73","180",,"5",,,,,,,,,,,,,,,,,,,,,,,,,,,,,,,,,,,,,"MET09309/02/19 19:51:01 METAR KRDU 030051Z 18004KT 10SM FEW250 25/22 A2999 RMK AO2 SLP152 T02500217","FM-15","7",,,,,,,,,,,,,,,,,,,,,,,,,,,,"2009-07-08"
"72306013722","2019-09-02T20:51:00","FM-15","7",,,,,,,,,,,,,,,,,,,,,,,,,,,,,,,,,,,,,,"30.01","71","74","0.00",,,,"91","29.99","FEW:02 250","29.54","10.00","72","000",,"0",,,,,,,,,,,,,,,,,,,,,,,,,,,,,,,,,,,,,"MET09309/02/19 20:51:01 METAR KRDU 030151Z 00000KT 10SM FEW250 23/22 A3001 RMK AO2 SLP156 T02330217","FM-15","7",,,,,,,,,,,,,,,,,,,,,,,,,,,,"2009-07-08"
"72306013722","2019-09-02T21:51:00","FM-15","7",,,,,,,,,,,,,,,,,,,,,,,,,,,,,,,,,,,,,,"30.02","70","73","0.00",,"-0.02","3","90","30.00","FEW:02 250","29.55","10.00","71","000",,"0",,,,,,,,,,,,,,,,,,,,,,,,,,,,,,,,,,,,,"MET09909/02/19 21:51:01 METAR KRDU 030251Z 00000KT 10SM FEW250 23/21 A3002 RMK AO2 SLP160 T02280211 53008","FM-15","7",,,,,,,,,,,,,,,,,,,,,,,,,,,,"2009-07-08"
"72306013722","2019-09-02T22:51:00","FM-15","7",,,,,,,,,,,,,,,,,,,,,,,,,,,,,,,,,,,,,,"30.02","70","73","0.00",,,,"90","30.01","CLR:00","29.55","10.00","71","000",,"0",,,,,,,,,,,,,,,,,,,,,,,,,,,,,,,,,,,,,"MET09009/02/19 22:51:02 METAR KRDU 030351Z 00000KT 10SM CLR 23/21 A3002 RMK AO2 SLP161 T02280211","FM-15","7",,,,,,,,,,,,,,,,,,,,,,,,,,,,"2009-07-08"
"72306013722","2019-09-02T23:51:00","FM-15","7",,,,,,,,,,,,,,,,,,,,,,,,,,,,,,,,,,,,,,"30.02","69","70","0.00",,,,"97","30.00","CLR:00","29.55","10.00","69","000",,"0",,,,,,,,,,,,,,,,,,,,,,,,,,,,,,,,,,,,,"MET10009/02/19 23:51:02 METAR KRDU 030451Z 00000KT 10SM CLR 21/21 A3002 RMK AO2 SLP160 T02110206 403220211","FM-15","7",,,,,,,,,,,,,,,,,,,,,,,,,,,,"2009-07-08"
"72306013722","2019-09-02T23:59:00","SOD  ","6",,,,,,,,,,,,,,,"69","80","76","30.04","29.59","72","3.8","15","3.7","0","90","70","150","25","0.00","0","0.0","140","13",,,,,,,,,,,,,,,,,,,,,,,,,,,,,,,,,,,,,,,,,,,,,,,,,,,,,,,,,"SOD73924 HR PRECIPITATION (IN): 0.00 SNOW DEPTH (IN):0     24 HR SNOWFALL (IN):0.0  24 HR MAX TEMP (F): 9024 HR MIN TEMP (F): 70AVERAGE STATION PRESSURE:29.590 MINIMUM SEA LEVEL PRESSURE:29.96 TIME OF OCCURRENCE:1721 PEAK WIND SPEED (MPH): 25 PEAK WIND DIR (DEG):150 PEAK WIND TIME (LST):      FASTEST 2MIN SPEED (MPH): 13FASTEST 2MIN DIR (DEG):140 FASTEST 2MIN TIME (LST):     AVERAGE WIND SPEED (MPH): 3.8 24 HR AVG TEMP (F): 80DEPART FROM NORMAL:  4  HEATING DEGREE DAYS:  0 COOLING DEGREE DAYS: 15 LATEST DAY MAX TEMP (0700-1900 LST):90  LATEST NIGHT MIN TEMP(1900-0800 LST):70 HOURLY INCREMENTAL PRECIPITATION VALUES (IN):.00 0.00 0.00 0.00 0.00 0.00 0.00 0.00 0.00 0.00 0.00 0.00 0.00 0.00 0.00 0.00 0.00 0.00 0.00 0.00 0.00 0.00 0.00 0.00","SOD  ","6",,,,,,,,,,,,,,,,,,,,,,,,,"0547","1842",,"2009-07-08"
"72306013722","2019-09-03T00:51:00","FM-15","7",,,,,,,,,,,,,,,,,,,,,,,,,,,,,,,,,,,,,,"30.01","69","70","0.00",,"+0.00","8","97","30.00","FEW:02 65","29.54","10.00","69","000",,"0",,,,,,,,,,,,,,,,,,,,,,,,,,,,,,,,,,,,,"MET11709/03/19 00:51:02 METAR KRDU 030551Z 00000KT 10SM FEW065 21/21 A3001 RMK AO2 SLP158 T02110206 10267 20211 58001 (AWB)","FM-15","7",,,,,,,,,,,,,,,,,,,,,,,,,,,,"2009-07-08"
"72306013722","2019-09-03T01:00:00","FM-12","4",,,,,,,,,,,,,,,,,,,,,,,,,,,,,,,,,,,,,,,"69","70",,,"+0.00","8","97","30.00","57","29.55","9.94","69","000",,"0",,,,,,,,,,,,,,,,,,,,,,,,,,,,,,,,,,,,,"SYN08072306 32766 20000 10211 20206 30007 40158 58001 90551 333 10267 20211 555 90306=","FM-12","4",,,,,,,,,,,,,,,,,,,,,,,,,,,,"2009-07-08"
"72306013722","2019-09-03T01:51:00","FM-15","7",,,,,,,,,,,,,,,,,,,,,,,,,,,,,,,,,,,,,,"30.00","69","70","0.00",,,,"97","29.98","FEW:02 75","29.53","10.00","69","000",,"0",,,,,,,,,,,,,,,,,,,,,,,,,,,,,,,,,,,,,"MET09909/03/19 01:51:02 METAR KRDU 030651Z 00000KT 10SM FEW075 21/21 A3000 RMK AO2 SLP154 T02110206 (AWB)","FM-15","7",,,,,,,,,,,,,,,,,,,,,,,,,,,,"2009-07-08"
"72306013722","2019-09-03T02:51:00","FM-15","7",,,,,,,,,,,,,,,,,,,,,,,,,,,,,,,,,,,,,,"29.99","69","70","0.00",,,,"97","29.98","FEW:02 65","29.52","10.00","69","000",,"0",,,,,,,,,,,,,,,,,,,,,,,,,,,,,,,,,,,,,"MET09909/03/19 02:51:02 METAR KRDU 030751Z 00000KT 10SM FEW065 21/21 A2999 RMK AO2 SLP151 T02110206 (AWB)","FM-15","7",,,,,,,,,,,,,,,,,,,,,,,,,,,,"2009-07-08"
"72306013722","2019-09-03T03:51:00","FM-15","7",,,,,,,,,,,,,,,,,,,,,,,,,,,,,,,,,,,,,,"29.99","68","69","0.00",,"+0.03","6","96","29.97","FEW:02 65","29.52","10.00","68","000",,"0",,,,,,,,,,,,,,,,,,,,,,,,,,,,,,,,,,,,,"MET10509/03/19 03:51:02 METAR KRDU 030851Z 00000KT 10SM FEW065 21/20 A2999 RMK AO2 SLP149 T02060200 56009 (AWB)","FM-15","7",,,,,,,,,,,,,,,,,,,,,,,,,,,,"2009-07-08"
"72306013722","2019-09-03T04:51:00","FM-15","7",,,,,,,,,,,,,,,,,,,,,,,,,,,,,,,,,,,,,,"30.00","68","69","0.00",,,,"96","29.98","FEW:02 65","29.53","10.00","68","000",,"0",,,,,,,,,,,,,,,,,,,,,,,,,,,,,,,,,,,,,"MET09909/03/19 04:51:02 METAR KRDU 030951Z 00000KT 10SM FEW065 21/20 A3000 RMK AO2 SLP153 T02060200 (AWB)","FM-15","7",,,,,,,,,,,,,,,,,,,,,,,,,,,,"2009-07-08"
"72306013722","2019-09-03T05:51:00","FM-15","7",,,,,,,,,,,,,,,,,,,,,,,,,,,,,,,,,,,,,,"30.02","68","68","0.00",,,,"100","30.00","FEW:02 65","29.55","8.00","68","000",,"0",,,,,,,,,,,,,,,,,,,,,,,,,,,,,,,,,,,,,"MET09809/03/19 05:51:02 METAR KRDU 031051Z 00000KT 8SM FEW065 20/20 A3002 RMK AO2 SLP160 T02000200 (AWB)","FM-15","7",,,,,,,,,,,,,,,,,,,,,,,,,,,,"2009-07-08"
"72306013722","2019-09-03T06:51:00","FM-15","7",,,,,,,,,,,,,,,,,,,,,,,,,,,,,,,,,,,,,,"30.03","70","72","0.00",,"-0.05","3","94","30.02","CLR:00","29.56","10.00","71","000",,"0",,,,,,,,,,,,,,,,,,,,,,,,,,,,,,,,,,,,,"MET11409/03/19 06:51:02 METAR KRDU 031151Z 00000KT 10SM CLR 22/21 A3003 RMK AO2 SLP166 T02220211 10222 20200 53016 (KAH)","FM-15","7",,,,,,,,,,,,,,,,,,,,,,,,,,,,"2009-07-08"
"72306013722","2019-09-03T07:00:00","FM-12","4",,,,,,,,,,,,,,,,,,,,,,,,,,,,,,,,,,,,,,,"70","72",,,"-0.05","3","94","30.02",,"29.57","9.94","71","000",,"0",,,,,,,,,,,,,,,,,,,,,,,,,,,,,,,,,,,,,"SYN08072306 32966 00000 10222 20211 30013 40166 53016 91151 333 10322 20200 555 90312=","FM-12","4",,,,,,,,,,,,,,,,,,,,,,,,,,,,"2009-07-08"
"72306013722","2019-09-03T07:51:00","FM-15","7",,,,,,,,,,,,,,,,,,,,,,,,,,,,,,,,,,,,,,"30.04","71","77","0.00",,,,"82","30.03","FEW:02 12","29.57","10.00","73","330",,"5",,,,,,,,,,,,,,,,,,,,,,,,,,,,,,,,,,,,,"MET09909/03/19 07:51:02 METAR KRDU 031251Z 33004KT 10SM FEW012 25/22 A3004 RMK AO2 SLP168 T02500217 (KAH)","FM-15","7",,,,,,,,,,,,,,,,,,,,,,,,,,,,"2009-07-08"
"72306013722","2019-09-03T08:51:00","FM-15","7",,,,,,,,,,,,,,,,,,,,,,,,,,,,,,,,,,,,,,"30.05","71","80","0.00",,,,"74","30.03","FEW:02 18","29.58","10.00","74","030",,"8",,,,,,,,,,,,,,,,,,,,,,,,,,,,,,,,,,,,,"MET09909/03/19 08:51:02 METAR KRDU 031351Z 03007KT 10SM FEW018 27/22 A3005 RMK AO2 SLP170 T02670217 (KAH)","FM-15","7",,,,,,,,,,,,,,,,,,,,,,,,,,,,"2009-07-08"
"72306013722","2019-09-03T09:51:00","FM-15","7",,,,,,,,,,,,,,,,,,,,,,,,,,,,,,,,,,,,,,"30.05","70","83","0.00",,"-0.01","1","65","30.03","FEW:02 30","29.58","10.00","74","VRB",,"5",,,,,,,,,,,,,,,,,,,,,,,,,,,,,,,,,,,,,"MET10509/03/19 09:51:02 METAR KRDU 031451Z VRB04KT 10SM FEW030 28/21 A3005 RMK AO2 SLP171 T02830211 51005 (KAH)","FM-15","7",,,,,,,,,,,,,,,,,,,,,,,,,,,,"2009-07-08"
"72306013722","2019-09-03T10:51:00","FM-15","7",,,,,,,,,,,,,,,,,,,,,,,,,,,,,,,,,,,,,,"30.04","69","85","0.00",,,,"59","30.02","SCT:04 35","29.57","10.00","74","VRB",,"3",,,,,,,,,,,,,,,,,,,,,,,,,,,,,,,,,,,,,"MET09909/03/19 10:51:02 METAR KRDU 031551Z VRB03KT 10SM SCT035 29/21 A3004 RMK AO2 SLP166 T02940206 (KAH)","FM-15","7",,,,,,,,,,,,,,,,,,,,,,,,,,,,"2009-07-08"
"72306013722","2019-09-03T11:51:00","FM-15","7",,,,,,,,,,,,,,,,,,,,,,,,,,,,,,,,,,,,,,"30.03","69","86","0.00",,,,"57","30.01","SCT:04 37","29.56","10.00","74","VRB",,"6",,,,,,,,,,,,,,,,,,,,,,,,,,,,,,,,,,,,,"MET09909/03/19 11:51:02 METAR KRDU 031651Z VRB05KT 10SM SCT037 30/21 A3003 RMK AO2 SLP163 T03000206 (KAH)","FM-15","7",,,,,,,,,,,,,,,,,,,,,,,,,,,,"2009-07-08"
"72306013722","2019-09-03T12:51:00","FM-15","7",,,,,,,,,,,,,,,,,,,,,,,,,,,,,,,,,,,,,,"30.02","69","87","0.00",,"+0.03","6","55","30.00","SCT:04 40","29.55","10.00","75","060",,"6",,,,,,,,,,,,,,,,,,,,,,,,,,,,,,,,,,,,,"MET13009/03/19 12:51:02 METAR KRDU 031751Z 06005KT 10SM SCT040TCU 31/21 A3002 RMK AO2 SLP160 TCU SE-SW T03060206 10311 20222 56009 (KAH)","FM-15","7",,,,,,,,,,,,,,,,,,,,,,,,,,,,"2009-07-08"
"72306013722","2019-09-03T13:00:00","FM-12","4",,,,,,,,,,,,,,,,,,,,,,,,,,,,,,,,,,,,,,,"69","87",,,"+0.03","6","55","30.00","41","29.56","9.94","75","060",,"6",,,,,,,,,,,,,,,,,,,,,,,,,,,,,,,,,,,,,"SYN08072306 32666 40605 10306 20206 30010 40160 56009 91751 333 10311 20222 555 90318=","FM-12","4",,,,,,,,,,,,,,,,,,,,,,,,,,,,"2009-07-08"
"72306013722","2019-09-03T13:51:00","FM-15","7",,,,,,,,,,,,,,,,,,,,,,,,,,,,,,,,,,,,,,"30.01","67","89","0.00",,,,"48","29.99","SCT:04 45","29.54","10.00","74","VRB",,"5",,,,,,,,,,,,,,,,,,,,,,,,,,,,,,,,,,,,,"MET11209/03/19 13:51:02 METAR KRDU 031851Z VRB04KT 10SM SCT045TCU 32/19 A3001 RMK AO2 SLP156 TCU ALQDS T03170194 (KAH)","FM-15","7",,,,,,,,,,,,,,,,,,,,,,,,,,,,"2009-07-08"
"72306013722","2019-09-03T14:51:00","FM-15","7",,,,,,,,,,,,,,,,,,,,,,,,,,,,,,,,,,,,,,"29.99","66","89","0.00",,,,"47","29.97","SCT:04 45","29.52","10.00","73","000",,"0",,,,,,,,,,,,,,,,,,,,,,,,,,,,,,,,,,,,,"MET11209/03/19 14:51:02 METAR KRDU 031951Z 00000KT 10SM SCT045TCU 32/19 A2999 RMK AO2 SLP150 TCU ALQDS T03170189 (JBA)","FM-15","7",,,,,,,,,,,,,,,,,,,,,,,,,,,,"2009-07-08"
"72306013722","2019-09-03T15:51:00","FM-15","7",,,,,,,,,,,,,,,,,,,,,,,,,,,,,,,,,,,,,,"29.99","65","88","0.00",,"+0.04","6","46","29.97","SCT:04 45","29.52","10.00","73","080",,"5",,,,,,,,,,,,,,,,,,,,,,,,,,,,,,,,,,,,,"MET11809/03/19 15:51:02 METAR KRDU 032051Z 08004KT 10SM SCT045TCU 31/18 A2999 RMK AO2 SLP148 TCU ALQDS T03110183 56012 (JBA)","FM-15","7",,,,,,,,,,,,,,,,,,,,,,,,,,,,"2009-07-08"
"72306013722","2019-09-03T16:51:00","FM-15","7",,,,,,,,,,,,,,,,,,,,,,,,,,,,,,,,,,,,,,"29.98","67","87","0.00",,,,"51","29.97","FEW:02 45 SCT:04 250","29.51","10.00","73","090",,"8",,,,,,,,,,,,,,,,,,,,,,,,,,,,,,,,,,,,,"MET11509/03/19 16:51:02 METAR KRDU 032151Z 09007KT 10SM FEW045TCU SCT250 31/19 A2998 RMK AO2 SLP148 TCU W T03060194 (JBA)","FM-15","7",,,,,,,,,,,,,,,,,,,,,,,,,,,,"2009-07-08"
"72306013722","2019-09-03T17:51:00","FM-15","7",,,,,,,,,,,,,,,,,,,,,,,,,,,,,,,,,,,,,,"29.98","68","86","0.00",,,,"55","29.97","FEW:02 45 SCT:04 250","29.51","10.00","74","060",,"5",,,,,,,,,,,,,,,,,,,,,,,,,,,,,,,,,,,,,"MET10609/03/19 17:51:02 METAR KRDU 032251Z 06004KT 10SM FEW045 SCT250 30/20 A2998 RMK AO2 SLP149 T03000200 (JBA)","FM-15","7",,,,,,,,,,,,,,,,,,,,,,,,,,,,"2009-07-08"
"72306013722","2019-09-03T18:51:00","FM-15","7",,,,,,,,,,,,,,,,,,,,,,,,,,,,,,,,,,,,,,"29.99","69","83","0.00",,"-0.01","3","63","29.98","FEW:02 45 SCT:04 250","29.52","10.00","74","090",,"3",,,,,,,,,,,,,,,,,,,,,,,,,,,,,,,,,,,,,"MET12409/03/19 18:51:02 METAR KRDU 032351Z 09003KT 10SM FEW045 SCT250 28/21 A2999 RMK AO2 SLP152 T02830206 10328 20278 53002 (JBA)","FM-15","7",,,,,,,,,,,,,,,,,,,,,,,,,,,,"2009-07-08"
"72306013722","2019-09-03T19:00:00","FM-12","4",,,,,,,,,,,,,,,,,,,,,,,,,,,,,,,,,,,,,,,"69","83",,,"-0.01","3","63","29.98","41","29.53","9.94","74","090",,"3",,,,,,,,,,,,,,,,,,,,,,,,,,,,,,,,,,,,,"SYN08072306 32666 40903 10283 20206 30000 40152 53002 92351 333 10328 20200 555 90400=","FM-12","4",,,,,,,,,,,,,,,,,,,,,,,,,,,,"2009-07-08"
"72306013722","2019-09-03T19:51:00","FM-15","7",,,,,,,,,,,,,,,,,,,,,,,,,,,,,,,,,,,,,,"30.00","69","80","0.00",,,,"69","29.98","FEW:02 45 SCT:04 250","29.53","10.00","73","100",,"5",,,,,,,,,,,,,,,,,,,,,,,,,,,,,,,,,,,,,"MET10009/03/19 19:51:01 METAR KRDU 040051Z 10004KT 10SM FEW045 SCT250 27/21 A3000 RMK AO2 SLP154 T02670206","FM-15","7",,,,,,,,,,,,,,,,,,,,,,,,,,,,"2009-07-08"
"72306013722","2019-09-03T20:51:00","FM-15","7",,,,,,,,,,,,,,,,,,,,,,,,,,,,,,,,,,,,,,"30.01","69","78","0.00",,,,"74","29.99","SCT:04 250","29.54","10.00","72","000",,"0",,,,,,,,,,,,,,,,,,,,,,,,,,,,,,,,,,,,,"MET09309/03/19 20:51:01 METAR KRDU 040151Z 00000KT 10SM SCT250 26/21 A3001 RMK AO2 SLP157 T02560206","FM-15","7",,,,,,,,,,,,,,,,,,,,,,,,,,,,"2009-07-08"
"72306013722","2019-09-03T21:51:00","FM-15","7",,,,,,,,,,,,,,,,,,,,,,,,,,,,,,,,,,,,,,"30.00","69","76","0.00",,"-0.01","0","79","29.98","SCT:04 250","29.53","10.00","71","130",,"5",,,,,,,,,,,,,,,,,,,,,,,,,,,,,,,,,,,,,"MET09909/03/19 21:51:01 METAR KRDU 040251Z 13004KT 10SM SCT250 24/21 A3000 RMK AO2 SLP153 T02440206 50002","FM-15","7",,,,,,,,,,,,,,,,,,,,,,,,,,,,"2009-07-08"
"72306013722","2019-09-03T22:51:00","FM-15","7",,,,,,,,,,,,,,,,,,,,,,,,,,,,,,,,,,,,,,"30.00","69","73","0.00",,,,"87","29.98","SCT:04 250","29.53","10.00","70","120",,"3",,,,,,,,,,,,,,,,,,,,,,,,,,,,,,,,,,,,,"MET09309/03/19 22:51:02 METAR KRDU 040351Z 12003KT 10SM SCT250 23/21 A3000 RMK AO2 SLP154 T02280206","FM-15","7",,,,,,,,,,,,,,,,,,,,,,,,,,,,"2009-07-08"
"72306013722","2019-09-03T23:51:00","FM-15","7",,,,,,,,,,,,,,,,,,,,,,,,,,,,,,,,,,,,,,"30.01","70","75","0.00",,,,"84","29.99","SCT:04 250","29.54","10.00","72","150",,"6",,,,,,,,,,,,,,,,,,,,,,,,,,,,,,,,,,,,,"MET10309/03/19 23:51:02 METAR KRDU 040451Z 15005KT 10SM SCT250 24/21 A3001 RMK AO2 SLP155 T02390211 403280200","FM-15","7",,,,,,,,,,,,,,,,,,,,,,,,,,,,"2009-07-08"
"72306013722","2019-09-03T23:59:00","SOD  ","6",,,,,,,,,,,,,,,"69","80","73","29.99","29.54","72","3.2","15","3.9","0","91","68","040","16","0.00","0","0.0","050","10",,,,,,,,,,,,,,,,,,,,,,,,,,,,,,,,,,,,,,,,,,,,,,,,,,,,,,,,,"SOD73924 HR PRECIPITATION (IN): 0.00 SNOW DEPTH (IN):0     24 HR SNOWFALL (IN):0.0  24 HR MAX TEMP (F): 9124 HR MIN TEMP (F): 68AVERAGE STATION PRESSURE:29.540 MINIMUM SEA LEVEL PRESSURE:29.96 TIME OF OCCURRENCE:1655 PEAK WIND SPEED (MPH): 16 PEAK WIND DIR (DEG): 40 PEAK WIND TIME (LST):      FASTEST 2MIN SPEED (MPH): 10FASTEST 2MIN DIR (DEG): 50 FASTEST 2MIN TIME (LST):     AVERAGE WIND SPEED (MPH): 3.2 24 HR AVG TEMP (F): 80DEPART FROM NORMAL:  4  HEATING DEGREE DAYS:  0 COOLING DEGREE DAYS: 15 LATEST DAY MAX TEMP (0700-1900 LST):91  LATEST NIGHT MIN TEMP(1900-0800 LST):68 HOURLY INCREMENTAL PRECIPITATION VALUES (IN):.00 0.00 0.00 0.00 0.00 0.00 0.00 0.00 0.00 0.00 0.00 0.00 0.00 0.00 0.00 0.00 0.00 0.00 0.00 0.00 0.00 0.00 0.00 0.00","SOD  ","6",,,,,,,,,,,,,,,,,,,,,,,,,"0548","1840",,"2009-07-08"
"72306013722","2019-09-04T00:51:00","FM-15","7",,,,,,,,,,,,,,,,,,,,,,,,,,,,,,,,,,,,,,"30.01","69","73","0.00",,"-0.01","2","87","29.99","BKN:07 250","29.54","10.00","70","000",,"0",,,,,,,,,,,,,,,,,,,,,,,,,,,,,,,,,,,,,"MET11709/04/19 00:51:02 METAR KRDU 040551Z 00000KT 10SM BKN250 23/21 A3001 RMK AO2 SLP157 T02280206 10283 20228 52004 (AWB)","FM-15","7",,,,,,,,,,,,,,,,,,,,,,,,,,,,"2009-07-08"
"72306013722","2019-09-04T01:00:00","FM-12","4",,,,,,,,,,,,,,,,,,,,,,,,,,,,,,,,,,,,,,,"69","73",,,"-0.01","2","87","29.99",,"29.55","9.94","70","000",,"0",,,,,,,,,,,,,,,,,,,,,,,,,,,,,,,,,,,,,"SYN08072306 32966 60000 10228 20206 30007 40157 52004 90551 333 10283 20200 555 90406=","FM-12","4",,,,,,,,,,,,,,,,,,,,,,,,,,,,"2009-07-08"
"72306013722","2019-09-04T01:51:00","FM-15","7",,,,,,,,,,,,,,,,,,,,,,,,,,,,,,,,,,,,,,"30.01","69","72","0.00",,,,"91","29.99","BKN:07 250","29.54","10.00","70","000",,"0",,,,,,,,,,,,,,,,,,,,,,,,,,,,,,,,,,,,,"MET09909/04/19 01:51:02 METAR KRDU 040651Z 00000KT 10SM BKN250 22/21 A3001 RMK AO2 SLP156 T02220206 (AWB)","FM-15","7",,,,,,,,,,,,,,,,,,,,,,,,,,,,"2009-07-08"
"72306013722","2019-09-04T02:51:00","FM-15","7",,,,,,,,,,,,,,,,,,,,,,,,,,,,,,,,,,,,,,"30.01","70","73","0.00",,,,"90","29.99","BKN:07 250","29.54","10.00","71","170",,"3",,,,,,,,,,,,,,,,,,,,,,,,,,,,,,,,,,,,,"MET09909/04/19 02:51:02 METAR KRDU 040751Z 17003KT 10SM BKN250 23/21 A3001 RMK AO2 SLP156 T02280211 (AWB)","FM-15","7",,,,,,,,,,,,,,,,,,,,,,,,,,,,"2009-07-08"
"72306013722","2019-09-04T03:51:00","FM-15","7",,,,,,,,,,,,,,,,,,,,,,,,,,,,,,,,,,,,,,"30.01","69","72","0.00",,"+0.00","6","91","29.99","SCT:04 250","29.54","10.00","70","160",,"3",,,,,,,,,,,,,,,,,,,,,,,,,,,,,,,,,,,,,"MET10509/04/19 03:51:02 METAR KRDU 040851Z 16003KT 10SM SCT250 22/21 A3001 RMK AO2 SLP156 T02220206 56001 (AWB)","FM-15","7",,,,,,,,,,,,,,,,,,,,,,,,,,,,"2009-07-08"
"72306013722","2019-09-04T04:51:00","FM-15","7",,,,,,,,,,,,,,,,,,,,,,,,,,,,,,,,,,,,,,"30.03","69","71","0.00",,,,"94","30.01","FEW:02 5 SCT:04 250","29.56","10.00","70","000",,"0",,,,,,,,,,,,,,,,,,,,,,,,,,,,,,,,,,,,,"MET10609/04/19 04:51:02 METAR KRDU 040951Z 00000KT 10SM FEW005 SCT250 22/21 A3003 RMK AO2 SLP162 T02170206 (AWB)","FM-15","7",,,,,,,,,,,,,,,,,,,,,,,,,,,,"2009-07-08"
"72306013722","2019-09-04T05:03:00","FM-16","7",,,,,,,,,,,,,,,,,,,,,,,,,,,,,,,,,,,,,,"30.04","69","71",,,,,"94",,"BKN:07 7 BKN:07 250","29.57","10.00","70","350",,"3",,,,,,,,,,,,,,,,,,,,,,,,,,,,,,,,,,,,,"MET09909/04/19 05:03:02 SPECI KRDU 041003Z 35003KT 10SM BKN007 BKN250 22/21 A3004 RMK AO2 T02170206 (AWB)","FM-16","7",,,,,,,,,,,,,,,,,,,,,,,,,,,,"2009-07-08"
"72306013722","2019-09-04T05:20:00","FM-16","7",,,,,,,,,,,,,,,,,,,,,,,,,,,,,,,,,,,,,,"30.04","69","71",,,,,"94",,"SCT:04 7 BKN:07 250","29.57","10.00","70","000",,"0",,,,,,,,,,,,,,,,,,,,,,,,,,,,,,,,,,,,,"MET09909/04/19 05:20:02 SPECI KRDU 041020Z 00000KT 10SM SCT007 BKN250 22/21 A3004 RMK AO2 T02170206 (AWB)","FM-16","7",,,,,,,,,,,,,,,,,,,,,,,,,,,,"2009-07-08"
"72306013722","2019-09-04T05:51:00","FM-15","7",,,,,,,,,,,,,,,,,,,,,,,,,,,,,,,,,,,,,,"30.06","69","71","0.00",,,,"94","30.04","OVC:08 7","29.59","10.00","70","000",,"0",,,,,,,,,,,,,,,,,,,,,,,,,,,,,,,,,,,,,"MET09909/04/19 05:51:02 METAR KRDU 041051Z 00000KT 10SM OVC007 22/21 A3006 RMK AO2 SLP174 T02170206 (AWB)","FM-15","7",,,,,,,,,,,,,,,,,,,,,,,,,,,,"2009-07-08"
"72306013722","2019-09-04T06:40:00","FM-16","7",,,,,,,,,,,,,,,,,,,,,,,,,,,,,,,,,,,,,,"30.06","71","73",,,,,"94",,"BKN:07 4 BKN:07 250","29.59","8.00","72","000",,"0",,,,,,,,,,,,,,,,,,,,,,,,,,,,,,,,,,,,,"MET09809/04/19 06:40:02 SPECI KRDU 041140Z 00000KT 8SM BKN004 BKN250 23/22 A3006 RMK AO2 T02280217 (KAH)","FM-16","7",,,,,,,,,,,,,,,,,,,,,,,,,,,,"2009-07-08"
"72306013722","2019-09-04T06:46:00","FM-16","7",,,,,,,,,,,,,,,,,,,,,,,,,,,,,,,,,,,,,,"30.06","72","73",,"BR:1 ||",,,"94",,"BKN:07 3 BKN:07 250","29.59","2.00","72","090",,"3",,,,,,,,,,,,,,,,,,,,,,,,,,,,,,,,,,,,,"MET10109/04/19 06:46:02 SPECI KRDU 041146Z 09003KT 2SM BR BKN003 BKN250 23/22 A3006 RMK AO2 SFC VIS 3 (KAH)","FM-16","7",,,,,,,,,,,,,,,,,,,,,,,,,,,,"2009-07-08"
"72306013722","2019-09-04T06:49:00","FM-16","6",,,,,,,,,,,,,,,,,,,,,,,,,,,,,,,,,,,,,,"30.06","72","73",,"BR:1 |s |",,,"94",,"BKN:07 3 BKN:07 250","29.59","0.25","72",,,,,,,,,,,,,,,,,,,,,,,,,,,,,,,,,,,,,,,,"MET10809/04/19 06:49:02 SPECI KRDU 041149Z      KT 1/4SM BR BKN003 BKN250 23/22 A3006 RMK AO2 SFC VIS 3 FIBI (KAH)","FM-16","6",,,,,,,,,,,,,,,,,,,,,,,,,,,,"2009-07-08"
"72306013722","2019-09-04T06:51:00","FM-15","7",,,,,,,,,,,,,,,,,,,,,,,,,,,,,,,,,,,,,,"30.06","72","73","0.00",,"0.04","9","96","30.05",,,"0.25",,"090",,"3",,,,,,,,,,,,,,,,,,,,,,,,,,,,,,,,,,,,,"MET06009/04/19 06:51:02 METAR KRDU 041151Z 09003KT 1/4SM RVRNO RMK","FM-15","7",,,,,,,,,,,,,,,,,,,,,,,,,,,,"2009-07-08"
"72306013722","2019-09-04T07:00:00","FM-12","4",,,,,,,,,,,,,,,,,,,,,,,,,,,,,,,,,,,,,,,"72","73",,,"-0.04","1","96","30.05","1","29.60","0.25","72","090",,"3",,,,,,,,,,,,,,,,,,,,,,,,,,,,,,,,,,,,,"SYN08672306 31004 60903 10228 20222 30023 40175 51012 710// 91151 333 10328 20211 555 90412=","FM-12","4",,,,,,,,,,,,,,,,,,,,,,,,,,,,"2009-07-08"
"72306013722","2019-09-04T07:49:00","FM-16","7",,,,,,,,,,,,,,,,,,,,,,,,,,,,,,,,,,,,,,"30.07","72","73",,"BR:1 ||",,,"94",,"BKN:07 2 OVC:08 250","29.60","1.00","72","000",,"0",,,,,,,,,,,,,,,,,,,,,,,,,,,,,,,,,,,,,"MET10109/04/19 07:49:02 SPECI KRDU 041249Z 00000KT 1SM BR BKN002 OVC250 23/22 A3007 RMK AO2 SFC VIS 2 (KAH)","FM-16","7",,,,,,,,,,,,,,,,,,,,,,,,,,,,"2009-07-08"
"72306013722","2019-09-04T07:51:00","FM-15","7",,,,,,,,,,,,,,,,,,,,,,,,,,,,,,,,,,,,,,"30.08","72","73","0.00","BR:1 ||",,,"96","30.06","BKN:07 2 OVC:08 250","29.61","1.00","72","000",,"0",,,,,,,,,,,,,,,,,,,,,,,,,,,,,,,,,,,,,"MET11809/04/19 07:51:02 METAR KRDU 041251Z 00000KT 1SM BR BKN002 OVC250 23/22 A3008 RMK AO2 SFC VIS 2 SLP179 T02280222 (KAH)","FM-15","7",,,,,,,,,,,,,,,,,,,,,,,,,,,,"2009-07-08"
"72306013722","2019-09-04T08:16:00","FM-16","7",,,,,,,,,,,,,,,,,,,,,,,,,,,,,,,,,,,,,,"30.07","73","75",,"BR:1 ||",,,"94",,"BKN:07 4 OVC:08 250","29.60","2.00","74","000",,"0",,,,,,,,,,,,,,,,,,,,,,,,,,,,,,,,,,,,,"MET11109/04/19 08:16:02 SPECI KRDU 041316Z 00000KT 2SM BR BKN004 OVC250 24/23 A3007 RMK AO2 SFC VIS 4 T02390228 (KAH)","FM-16","7",,,,,,,,,,,,,,,,,,,,,,,,,,,,"2009-07-08"
"72306013722","2019-09-04T08:24:00","FM-16","7",,,,,,,,,,,,,,,,,,,,,,,,,,,,,,,,,,,,,,"30.07","73","76",,"BR:1 ||",,,"91",,"BKN:07 5 BKN:07 250","29.60","6.00","74","000",,"0",,,,,,,,,,,,,,,,,,,,,,,,,,,,,,,,,,,,,"MET10109/04/19 08:24:02 SPECI KRDU 041324Z 00000KT 6SM BR BKN005 BKN250 24/23 A3007 RMK AO2 T02440228 (KAH)","FM-16","7",,,,,,,,,,,,,,,,,,,,,,,,,,,,"2009-07-08"
"72306013722","2019-09-04T08:34:00","FM-16","7",,,,,,,,,,,,,,,,,,,,,,,,,,,,,,,,,,,,,,"30.06","73","77",,,,,"88",,"SCT:04 7 BKN:07 250","29.59","10.00","74","000",,"0",,,,,,,,,,,,,,,,,,,,,,,,,,,,,,,,,,,,,"MET09909/04/19 08:34:02 SPECI KRDU 041334Z 00000KT 10SM SCT007 BKN250 25/23 A3006 RMK AO2 T02500228 (KAH)","FM-16","7",,,,,,,,,,,,,,,,,,,,,,,,,,,,"2009-07-08"
"72306013722","2019-09-04T08:51:00","FM-15","7",,,,,,,,,,,,,,,,,,,,,,,,,,,,,,,,,,,,,,"30.06","73","78","0.00",,,,"85","30.04","FEW:02 10 BKN:07 250","29.59","10.00","75","000",,"0",,,,,,,,,,,,,,,,,,,,,,,,,,,,,,,,,,,,,"MET10609/04/19 08:51:02 METAR KRDU 041351Z 00000KT 10SM FEW010 BKN250 26/23 A3006 RMK AO2 SLP173 T02560228 (KAH)","FM-15","7",,,,,,,,,,,,,,,,,,,,,,,,,,,,"2009-07-08"
"72306013722","2019-09-04T09:51:00","FM-15","7",,,,,,,,,,,,,,,,,,,,,,,,,,,,,,,,,,,,,,"30.06","73","81","0.00",,"+0.01","8","77","30.04","FEW:02 18 FEW:02 200 BKN:07 250","29.59","10.00","75","150",,"6",,,,,,,,,,,,,,,,,,,,,,,,,,,,,,,,,,,,,"MET11909/04/19 09:51:02 METAR KRDU 041451Z 15005KT 10SM FEW018 FEW200 BKN250 27/23 A3006 RMK AO2 SLP172 T02720228 58002 (KAH)","FM-15","7",,,,,,,,,,,,,,,,,,,,,,,,,,,,"2009-07-08"
"72306013722","2019-09-04T10:51:00","FM-15","7",,,,,,,,,,,,,,,,,,,,,,,,,,,,,,,,,,,,,,"30.04","70","84","0.00",,,,"63","30.03","FEW:02 30 FEW:02 200 BKN:07 250","29.57","10.00","74","VRB",,"6",,,,,,,,,,,,,,,,,,,,,,,,,,,,,,,,,,,,,"MET11309/04/19 10:51:02 METAR KRDU 041551Z VRB05KT 10SM FEW030 FEW200 BKN250 29/21 A3004 RMK AO2 SLP168 T02890211 (KAH)","FM-15","7",,,,,,,,,,,,,,,,,,,,,,,,,,,,"2009-07-08"
"72306013722","2019-09-04T11:51:00","FM-15","7",,,,,,,,,,,,,,,,,,,,,,,,,,,,,,,,,,,,,,"30.02","69","87","0.00",,,,"55","30.00","FEW:02 35 FEW:02 200 BKN:07 250","29.55","10.00","75","130",,"5",,,,,,,,,,,,,,,,,,,,,,,,,,,,,,,,,,,,,"MET11309/04/19 11:51:02 METAR KRDU 041651Z 13004KT 10SM FEW035 FEW200 BKN250 31/21 A3002 RMK AO2 SLP158 T03060206 (KAH)","FM-15","7",,,,,,,,,,,,,,,,,,,,,,,,,,,,"2009-07-08"
"72306013722","2019-09-04T12:51:00","FM-15","7",,,,,,,,,,,,,,,,,,,,,,,,,,,,,,,,,,,,,,"30.00","69","88","0.00",,"+0.05","8","54","29.98","FEW:02 40 FEW:02 200 BKN:07 250","29.53","10.00","75","180",,"6",,,,,,,,,,,,,,,,,,,,,,,,,,,,,,,,,,,,,"MET13109/04/19 12:51:02 METAR KRDU 041751Z 18005KT 10SM FEW040 FEW200 BKN250 31/21 A3000 RMK AO2 SLP154 T03110206 10311 20222 58017 (KAH)","FM-15","7",,,,,,,,,,,,,,,,,,,,,,,,,,,,"2009-07-08"
"72306013722","2019-09-04T13:00:00","FM-12","4",,,,,,,,,,,,,,,,,,,,,,,,,,,,,,,,,,,,,,,"69","88",,,"+0.05","8","54","29.98","41","29.54","9.94","75","180",,"6",,,,,,,,,,,,,,,,,,,,,,,,,,,,,,,,,,,,,"SYN08072306 32666 61805 10311 20206 30003 40154 58017 91751 333 10311 20222 555 90418=","FM-12","4",,,,,,,,,,,,,,,,,,,,,,,,,,,,"2009-07-08"
"72306013722","2019-09-04T13:51:00","FM-15","7",,,,,,,,,,,,,,,,,,,,,,,,,,,,,,,,,,,,,,"29.99","68","88","0.00",,,,"52","29.97","FEW:02 42 FEW:02 200 BKN:07 250","29.52","10.00","74","150",,"7",,,,,,,,,,,,,,,,,,,,,,,,,,,,,,,,,,,,,"MET11309/04/19 13:51:02 METAR KRDU 041851Z 15006KT 10SM FEW042 FEW200 BKN250 31/20 A2999 RMK AO2 SLP149 T03110200 (KAH)","FM-15","7",,,,,,,,,,,,,,,,,,,,,,,,,,,,"2009-07-08"
"72306013722","2019-09-04T14:51:00","FM-15","7",,,,,,,,,,,,,,,,,,,,,,,,,,,,,,,,,,,,,,"29.97","67","87","0.00",,,,"51","29.96","FEW:02 42 BKN:07 250","29.50","10.00","73","150",,"7",,,,,,,,,,,,,,,,,,,,,,,,,,,,,,,,,,,,,"MET12009/04/19 14:51:02 METAR KRDU 041951Z 15006KT 10SM FEW042 BKN250 31/19 A2997 RMK AO2 SLP144 TCU DSNT SE-S T03060194 (JBA)","FM-15","7",,,,,,,,,,,,,,,,,,,,,,,,,,,,"2009-07-08"
"72306013722","2019-09-04T15:51:00","FM-15","7",,,,,,,,,,,,,,,,,,,,,,,,,,,,,,,,,,,,,,"29.97","71","86","0.00",,"+0.03","5","61","29.96","FEW:02 42 BKN:07 250","29.50","10.00","76","150",,"8",,,,,,,,,,,,,,,,,,,,,,,,,,,,,,,,,,,,,"MET12609/04/19 15:51:02 METAR KRDU 042051Z 15007KT 10SM FEW042 BKN250 30/22 A2997 RMK AO2 SLP144 TCU DSNT SE-S T03000217 55010 (JBA)","FM-15","7",,,,,,,,,,,,,,,,,,,,,,,,,,,,"2009-07-08"
"72306013722","2019-09-04T16:51:00","FM-15","7",,,,,,,,,,,,,,,,,,,,,,,,,,,,,,,,,,,,,,"29.97","71","86","0.00",,,,"61","29.95","FEW:02 42 BKN:07 250","29.50","10.00","76","150",,"5",,,,,,,,,,,,,,,,,,,,,,,,,,,,,,,,,,,,,"MET12009/04/19 16:51:02 METAR KRDU 042151Z 15004KT 10SM FEW042 BKN250 30/22 A2997 RMK AO2 SLP142 TCU DSNT SE-S T03000217 (JBA)","FM-15","7",,,,,,,,,,,,,,,,,,,,,,,,,,,,"2009-07-08"
"72306013722","2019-09-04T17:51:00","FM-15","7",,,,,,,,,,,,,,,,,,,,,,,,,,,,,,,,,,,,,,"29.96","72","85","0.00",,,,"65","29.95","FEW:02 42 OVC:08 250","29.49","10.00","76","200",,"3",,,,,,,,,,,,,,,,,,,,,,,,,,,,,,,,,,,,,"MET10609/04/19 17:51:02 METAR KRDU 042251Z 20003KT 10SM FEW042 OVC250 29/22 A2996 RMK AO2 SLP141 T02940222 (JBA)","FM-15","7",,,,,,,,,,,,,,,,,,,,,,,,,,,,"2009-07-08"
"72306013722","2019-09-04T18:51:00","FM-15","7",,,,,,,,,,,,,,,,,,,,,,,,,,,,,,,,,,,,,,"29.97","73","83","0.00",,"+0.01","5","72","29.95","SCT:04 35 OVC:08 250","29.50","10.00","76","160",,"5",,,,,,,,,,,,,,,,,,,,,,,,,,,,,,,,,,,,,"MET12409/04/19 18:51:02 METAR KRDU 042351Z 16004KT 10SM SCT035 OVC250 28/23 A2997 RMK AO2 SLP142 T02830228 10311 20283 55003 (JBA)","FM-15","7",,,,,,,,,,,,,,,,,,,,,,,,,,,,"2009-07-08"
"72306013722","2019-09-04T19:00:00","FM-12","4",,,,,,,,,,,,,,,,,,,,,,,,,,,,,,,,,,,,,,,"73","83",,,"+0.01","5","72","29.95","41","29.51","9.94","76","160",,"5",,,,,,,,,,,,,,,,,,,,,,,,,,,,,,,,,,,,,"SYN08072306 32666 81604 10283 20228 39993 40142 55003 92351 333 10311 20211 555 90500=","FM-12","4",,,,,,,,,,,,,,,,,,,,,,,,,,,,"2009-07-08"
"72306013722","2019-09-04T19:51:00","FM-15","7",,,,,,,,,,,,,,,,,,,,,,,,,,,,,,,,,,,,,,"29.97","73","80","0.00",,,,"79","29.95","FEW:02 35 OVC:08 250","29.50","10.00","75","140",,"5",,,,,,,,,,,,,,,,,,,,,,,,,,,,,,,,,,,,,"MET10009/04/19 19:51:01 METAR KRDU 050051Z 14004KT 10SM FEW035 OVC250 27/23 A2997 RMK AO2 SLP143 T02670228","FM-15","7",,,,,,,,,,,,,,,,,,,,,,,,,,,,"2009-07-08"
"72306013722","2019-09-04T20:51:00","FM-15","7",,,,,,,,,,,,,,,,,,,,,,,,,,,,,,,,,,,,,,"29.97","73","79","0.00",,,,"82","29.95","OVC:08 250","29.50","10.00","75","150",,"6",,,,,,,,,,,,,,,,,,,,,,,,,,,,,,,,,,,,,"MET09309/04/19 20:51:01 METAR KRDU 050151Z 15005KT 10SM OVC250 26/23 A2997 RMK AO2 SLP141 T02610228","FM-15","7",,,,,,,,,,,,,,,,,,,,,,,,,,,,"2009-07-08"
"72306013722","2019-09-04T21:51:00","FM-15","7",,,,,,,,,,,,,,,,,,,,,,,,,,,,,,,,,,,,,,"29.95","73","78","0.00",,"+0.01","8","85","29.93","OVC:08 250","29.48","10.00","75","150",,"6",,,,,,,,,,,,,,,,,,,,,,,,,,,,,,,,,,,,,"MET09909/04/19 21:51:01 METAR KRDU 050251Z 15005KT 10SM OVC250 26/23 A2995 RMK AO2 SLP137 T02560228 58004","FM-15","7",,,,,,,,,,,,,,,,,,,,,,,,,,,,"2009-07-08"
"72306013722","2019-09-04T22:51:00","FM-15","7",,,,,,,,,,,,,,,,,,,,,,,,,,,,,,,,,,,,,,"29.96","73","77","0.00",,,,"88","29.94","OVC:08 250","29.49","10.00","74","170",,"5",,,,,,,,,,,,,,,,,,,,,,,,,,,,,,,,,,,,,"MET09309/04/19 22:51:02 METAR KRDU 050351Z 17004KT 10SM OVC250 25/23 A2996 RMK AO2 SLP140 T02500228","FM-15","7",,,,,,,,,,,,,,,,,,,,,,,,,,,,"2009-07-08"
"72306013722","2019-09-04T23:51:00","FM-15","7",,,,,,,,,,,,,,,,,,,,,,,,,,,,,,,,,,,,,,"29.96","73","76","0.00",,,,"91","29.94","OVC:08 250","29.49","10.00","74","000",,"0",,,,,,,,,,,,,,,,,,,,,,,,,,,,,,,,,,,,,"MET10309/04/19 23:51:02 METAR KRDU 050451Z 00000KT 10SM OVC250 24/23 A2996 RMK AO2 SLP140 T02440228 403110211","FM-15","7",,,,,,,,,,,,,,,,,,,,,,,,,,,,"2009-07-08"
"72306013722","2019-09-04T23:59:00","SOD  ","6",,,,,,,,,,,,,,,"71","79","77","29.98","29.54","73","3.6","14","3.2","0","88","70","150","14","0.00","0","0.0","170","10","BR",,,,,,,,,,,,,,,,,,,,,,,,,,,,,,,,,,,,,,,,,,,,,,,,,,,,,,,,"SOD75724 HR PRECIPITATION (IN): 0.00 SNOW DEPTH (IN):0     24 HR SNOWFALL (IN):0.0  WEATHER(CODE):12  24 HR MAX TEMP (F): 8824 HR MIN TEMP (F): 70AVERAGE STATION PRESSURE:29.535 MINIMUM SEA LEVEL PRESSURE:29.93 TIME OF OCCURRENCE:2153 PEAK WIND SPEED (MPH): 14 PEAK WIND DIR (DEG):150 PEAK WIND TIME (LST):      FASTEST 2MIN SPEED (MPH): 10FASTEST 2MIN DIR (DEG):170 FASTEST 2MIN TIME (LST):     AVERAGE WIND SPEED (MPH): 3.6 24 HR AVG TEMP (F): 79DEPART FROM NORMAL:  3  HEATING DEGREE DAYS:  0 COOLING DEGREE DAYS: 14 LATEST DAY MAX TEMP (0700-1900 LST):88  LATEST NIGHT MIN TEMP(1900-0800 LST):70 HOURLY INCREMENTAL PRECIPITATION VALUES (IN):.00 0.00 0.00 0.00 0.00 0.00 0.00 0.00 0.00 0.00 0.00 0.00 0.00 0.00 0.00 0.00 0.00 0.00 0.00 0.00 0.00 0.00 0.00 0.00","SOD  ","6",,,,,,,,,,,,,,,,,,,,,,,,,"0549","1839",,"2009-07-08"
"72306013722","2019-09-05T00:51:00","FM-15","7",,,,,,,,,,,,,,,,,,,,,,,,,,,,,,,,,,,,,,"29.96","73","74","0.00",,"-0.00","0","97","29.94","OVC:08 250","29.49","10.00","73","000",,"0",,,,,,,,,,,,,,,,,,,,,,,,,,,,,,,,,,,,,"MET11109/05/19 00:51:02 METAR KRDU 050551Z 00000KT 10SM OVC250 23/23 A2996 RMK AO2 SLP139 T02330228 10283 20233 50001","FM-15","7",,,,,,,,,,,,,,,,,,,,,,,,,,,,"2009-07-08"
"72306013722","2019-09-05T01:00:00","FM-12","4",,,,,,,,,,,,,,,,,,,,,,,,,,,,,,,,,,,,,,,"73","74",,,"0.00","9","97","29.94",,"29.50","9.94","73","000",,"0",,,,,,,,,,,,,,,,,,,,,,,,,,,,,,,,,,,,,"SYN08072306 32966 80000 10233 20228 39990 40139 50001 90551 333 10283 20211 555 90506=","FM-12","4",,,,,,,,,,,,,,,,,,,,,,,,,,,,"2009-07-08"
"72306013722","2019-09-05T01:51:00","FM-15","7",,,,,,,,,,,,,,,,,,,,,,,,,,,,,,,,,,,,,,"29.94","72","73","0.00",,,,"96","29.93","OVC:08 250","29.47","10.00","72","050",,"5",,,,,,,,,,,,,,,,,,,,,,,,,,,,,,,,,,,,,"MET09309/05/19 01:51:02 METAR KRDU 050651Z 05004KT 10SM OVC250 23/22 A2994 RMK AO2 SLP134 T02280222","FM-15","7",,,,,,,,,,,,,,,,,,,,,,,,,,,,"2009-07-08"
"72306013722","2019-09-05T02:51:00","FM-15","7",,,,,,,,,,,,,,,,,,,,,,,,,,,,,,,,,,,,,,"29.93","73","74","0.00",,,,"97","29.91","OVC:08 240","29.46","10.00","73","030",,"6",,,,,,,,,,,,,,,,,,,,,,,,,,,,,,,,,,,,,"MET09309/05/19 02:51:02 METAR KRDU 050751Z 03005KT 10SM OVC240 23/23 A2993 RMK AO2 SLP130 T02330228","FM-15","7",,,,,,,,,,,,,,,,,,,,,,,,,,,,"2009-07-08"
"72306013722","2019-09-05T03:51:00","FM-15","7",,,,,,,,,,,,,,,,,,,,,,,,,,,,,,,,,,,,,,"29.92","72","74","0.00",,"+0.04","6","94","29.90","FEW:02 110 OVC:08 230","29.45","10.00","73","040",,"7",,,,,,,,,,,,,,,,,,,,,,,,,,,,,,,,,,,,,"MET10609/05/19 03:51:02 METAR KRDU 050851Z 04006KT 10SM FEW110 OVC230 23/22 A2992 RMK AO2 SLP126 T02330222 56012","FM-15","7",,,,,,,,,,,,,,,,,,,,,,,,,,,,"2009-07-08"
"72306013722","2019-09-05T04:51:00","FM-15","7",,,,,,,,,,,,,,,,,,,,,,,,,,,,,,,,,,,,,,"29.92","71","74","0.00",,,,"91","29.90","FEW:02 90 OVC:08 210","29.45","10.00","72","040",,"8",,,,,,,,,,,,,,,,,,,,,,,,,,,,,,,,,,,,,"MET10009/05/19 04:51:02 METAR KRDU 050951Z 04007KT 10SM FEW090 OVC210 23/22 A2992 RMK AO2 SLP125 T02330217","FM-15","7",,,,,,,,,,,,,,,,,,,,,,,,,,,,"2009-07-08"
"72306013722","2019-09-05T05:51:00","FM-15","7",,,,,,,,,,,,,,,,,,,,,,,,,,,,,,,,,,,,,,"29.92","70","75","0.00",,,,"84","29.91","FEW:02 80 OVC:08 200","29.45","10.00","72","070",,"7",,,,,,,,,,,,,,,,,,,,,,,,,,,,,,,,,,,,,"MET10009/05/19 05:51:02 METAR KRDU 051051Z 07006KT 10SM FEW080 OVC200 24/21 A2992 RMK AO2 SLP127 T02390211","FM-15","7",,,,,,,,,,,,,,,,,,,,,,,,,,,,"2009-07-08"
"72306013722","2019-09-05T06:51:00","FM-15","7",,,,,,,,,,,,,,,,,,,,,,,,,,,,,,,,,,,,,,"29.93","70","75","0.00",,"-0.00","3","84","29.91","FEW:02 35 SCT:04 70 BKN:07 85","29.46","10.00","72","060",,"7",,,,,,,,,,,,,,,,,,,,,,,,,,,,,,,,,,,,,"MET12509/05/19 06:51:02 METAR KRDU 051151Z 06006KT 10SM FEW035 SCT070 BKN085 24/21 A2993 RMK AO2 SLP128 T02390211 10239 20228 53001","FM-15","7",,,,,,,,,,,,,,,,,,,,,,,,,,,,"2009-07-08"
"72306013722","2019-09-05T07:00:00","FM-12","4",,,,,,,,,,,,,,,,,,,,,,,,,,,,,,,,,,,,,,,"70","75",,,"-0.00","3","84","29.91","41","29.47","9.94","72","060",,"7",,,,,,,,,,,,,,,,,,,,,,,,,,,,,,,,,,,,,"SYN08072306 32666 80606 10239 20211 39980 40128 53001 91151 333 10311 20228 555 90512=","FM-12","4",,,,,,,,,,,,,,,,,,,,,,,,,,,,"2009-07-08"
"72306013722","2019-09-05T07:51:00","FM-15","7",,,,,,,,,,,,,,,,,,,,,,,,,,,,,,,,,,,,,,"29.92","71","76","0.00",,,,"85","29.91","FEW:02 12 SCT:04 32 BKN:07 48","29.45","10.00","73","030",,"10",,,,,,,,,,,,,,,,,,,,,,,,,,,,,,,,,,,,,"MET10709/05/19 07:51:02 METAR KRDU 051251Z 03009KT 10SM FEW012 SCT032 BKN048 24/22 A2992 RMK AO2 SLP127 T02440217","FM-15","7",,,,,,,,,,,,,,,,,,,,,,,,,,,,"2009-07-08"
"72306013722","2019-09-05T08:26:00","FM-16","7",,,,,,,,,,,,,,,,,,,,,,,,,,,,,,,,,,,,,,"29.91","71","76",,,,,"85",,"SCT:04 15 BKN:07 28 BKN:07 50","29.44","10.00","73","040",,"10",,,,,,,,,,,,,,,,,,,,,,,,,,,,,,,,,,,,,"MET10009/05/19 08:26:02 SPECI KRDU 051326Z 04009KT 10SM SCT015 BKN028 BKN050 24/22 A2991 RMK AO2 T02440217","FM-16","7",,,,,,,,,,,,,,,,,,,,,,,,,,,,"2009-07-08"
"72306013722","2019-09-05T08:51:00","FM-15","7",,,,,,,,,,,,,,,,,,,,,,,,,,,,,,,,,,,,,,"29.90","72","76","0.00",,,,"88","29.88","SCT:04 15 BKN:07 26 BKN:07 80","29.43","10.00","73","040",,"10",,,,,,,,,,,,,,,,,,,,,,,,,,,,,,,,,,,,,"MET10709/05/19 08:51:02 METAR KRDU 051351Z 04009KT 10SM SCT015 BKN026 BKN080 24/22 A2990 RMK AO2 SLP120 T02440222","FM-15","7",,,,,,,,,,,,,,,,,,,,,,,,,,,,"2009-07-08"
"72306013722","2019-09-05T09:51:00","FM-15","7",,,,,,,,,,,,,,,,,,,,,,,,,,,,,,,,,,,,,,"29.90","72","77","T","-RA:02 |RA |RA","+0.03","6","85","29.88","BKN:07 15 BKN:07 25 OVC:08 80","29.43","10.00","74","050","22","11",,,,,,,,,,,,,,,,,,,,,,,,,,,,,,,,,,,,,"MET13809/05/19 09:51:02 METAR KRDU 051451Z 05010G19KT 10SM -RA BKN015 BKN025 OVC080 25/22 A2990 RMK AO2 RAB49 SLP119 P0000 60000 T02500222 56010","FM-15","7",,,,,,,,,,,,,,,,,,,,,,,,,,,,"2009-07-08"
"72306013722","2019-09-05T10:51:00","FM-15","7",,,,,,,,,,,,,,,,,,,,,,,,,,,,,,,,,,,,,,"29.88","72","79","T",,,,"79","29.86","SCT:04 15 BKN:07 24 BKN:07 75","29.41","10.00","74","050","20","14",,,,,,,,,,,,,,,,,,,,,,,,,,,,,,,,,,,,,"MET12209/05/19 10:51:02 METAR KRDU 051551Z 05012G17KT 10SM SCT015 BKN024 BKN075 26/22 A2988 RMK AO2 RAE00 SLP113 P0000 T02610222","FM-15","7",,,,,,,,,,,,,,,,,,,,,,,,,,,,"2009-07-08"
"72306013722","2019-09-05T11:51:00","FM-15","7",,,,,,,,,,,,,,,,,,,,,,,,,,,,,,,,,,,,,,"29.88","73","77","0.04","-RA:02 BR:1 |RA |RA",,,"88","29.86","FEW:02 12 BKN:07 20 OVC:08 60","29.41","3.00","74","050","23","17",,,,,,,,,,,,,,,,,,,,,,,,,,,,,,,,,,,,,"MET13809/05/19 11:51:02 METAR KRDU 051651Z 05015G20KT 3SM -RA BR FEW012 BKN020 OVC060 25/23 A2988 RMK AO2 SFC VIS 4 RAB17 SLP112 P0000 T02500228","FM-15","7",,,,,,,,,,,,,,,,,,,,,,,,,,,,"2009-07-08"
"72306013722","2019-09-05T12:32:00","FM-16","7",,,,,,,,,,,,,,,,,,,,,,,,,,,,,,,,,,,,,,"29.88","73","75","0.10","|RA |RA",,,"94",,"SCT:04 15 SCT:04 75 BKN:07 110","29.41","3.00","74","050","23","13",,,,,,,,,,,,,,,,,,,,,,,,,,,,,,,,,,,,,"MET12509/05/19 12:32:02 SPECI KRDU 051732Z 05011G20KT 3SM -RA BR SCT015 SCT075 BKN110 24/23 A2988 RMK AO2 SFC VIS 5 P0010 T02390228","FM-16","7",,,,,,,,,,,,,,,,,,,,,,,,,,,,"2009-07-08"
"72306013722","2019-09-05T12:51:00","FM-15","7",,,,,,,,,,,,,,,,,,,,,,,,,,,,,,,,,,,,,,"29.87","73","75","0.10","|RA |RA","+0.03","6","94","29.85","SCT:04 10 SCT:04 75 BKN:07 110","29.40","3.00","74","040","23","13",,,,,,,,,,,,,,,,,,,,,,,,,,,,,,,,,,,,,"MET15609/05/19 12:51:02 METAR KRDU 051751Z 04011G20KT 3SM -RA BR SCT010 SCT075 BKN110 24/23 A2987 RMK AO2 SFC VIS 5 SLP108 P0013 60013 T02390228 10261 20239 56010","FM-15","7",,,,,,,,,,,,,,,,,,,,,,,,,,,,"2009-07-08"
"72306013722","2019-09-05T13:00:00","FM-12","4",,,,,,,,,,,,,,,,,,,,,,,,,,,,,,,,,,,,,,,"73","75",,"||RA","+0.03","6","94","29.85","15","29.41","2.98","74","040",,"13",,,,,,,,,,,,,,,,,,,,,,,,,,,,,,,,,,,,,"SYN10472306 11448 80411 10239 20228 39960 40108 56010 60031 761// 91751 333 10261 20239 91020 96010 555 90518=","FM-12","4",,,,,,,,,,,,,,,,,,,,,,,,,,,,"2009-07-08"
"72306013722","2019-09-05T13:51:00","FM-15","7",,,,,,,,,,,,,,,,,,,,,,,,,,,,,,,,,,,,,,"29.84","73","75","0.06","|RA |RA",,,"94","29.83","FEW:02 10 SCT:04 30 BKN:07 85","29.37","3.00","74","040",,"13",,,,,,,,,,,,,,,,,,,,,,,,,,,,,,,,,,,,,"MET12909/05/19 13:51:02 METAR KRDU 051851Z 04011KT 3SM -RA BR FEW010 SCT030 BKN085 24/23 A2984 RMK AO2 SFC VIS 6 SLP100 P0006 T02390228","FM-15","7",,,,,,,,,,,,,,,,,,,,,,,,,,,,"2009-07-08"
"72306013722","2019-09-05T14:51:00","FM-15","7",,,,,,,,,,,,,,,,,,,,,,,,,,,,,,,,,,,,,,"29.81","73","75","0.06","|RA |RA",,,"94","29.79","FEW:02 10 SCT:04 30 BKN:07 85","29.34","3.00","74","030",,"13",,,,,,,,,,,,,,,,,,,,,,,,,,,,,,,,,,,,,"MET12909/05/19 14:51:02 METAR KRDU 051951Z 03011KT 3SM -RA BR FEW010 SCT030 BKN085 24/23 A2981 RMK AO2 SFC VIS 4 SLP089 P0006 T02390228","FM-15","7",,,,,,,,,,,,,,,,,,,,,,,,,,,,"2009-07-08"
"72306013722","2019-09-05T15:51:00","FM-15","7",,,,,,,,,,,,,,,,,,,,,,,,,,,,,,,,,,,,,,"29.81","73","75","0.14","|RA |RA","+0.06","6","94","29.79","FEW:02 10 SCT:04 55 BKN:07 90","29.34","3.00","74","040",,"15",,,,,,,,,,,,,,,,,,,,,,,,,,,,,,,,,,,,,"MET13109/05/19 15:51:02 METAR KRDU 052051Z 04013KT 3SM -RA BR FEW010 SCT055 BKN090 24/23 A2981 RMK AO2 SLP089 P0011 60023 T02390228 56019","FM-15","7",,,,,,,,,,,,,,,,,,,,,,,,,,,,"2009-07-08"
"72306013722","2019-09-05T15:57:00","FM-16","7",,,,,,,,,,,,,,,,,,,,,,,,,,,,,,,,,,,,,,"29.81","73","75","0.03","|RA |RA",,,"94",,"FEW:02 10 SCT:04 55 BKN:07 90","29.34","2.50","74","040","25","16",,,,,,,,,,,,,,,,,,,,,,,,,,,,,,,,,,,,,"MET12809/05/19 15:57:02 SPECI KRDU 052057Z 04014G22KT 2 1/2SM RA BR FEW010 SCT055 BKN090 24/23 A2981 RMK AO2 TWR VIS 3 P0003 T02390228","FM-16","7",,,,,,,,,,,,,,,,,,,,,,,,,,,,"2009-07-08"
"72306013722","2019-09-05T16:05:00","FM-16","7",,,,,,,,,,,,,,,,,,,,,,,,,,,,,,,,,,,,,,"29.81","73","75","0.09","RA:02 BR:1 |RA |RA",,,"94",,"FEW:02 10 BKN:07 42 OVC:08 110","29.34","1.00","74","030","25","14",,,,,,,,,,,,,,,,,,,,,,,,,,,,,,,,,,,,,"MET12809/05/19 16:05:02 SPECI KRDU 052105Z 03012G22KT 1SM RA BR FEW010 BKN042 OVC110 24/23 A2981 RMK AO2 SFC VIS 1 3/4 P0009 T02390228","FM-16","7",,,,,,,,,,,,,,,,,,,,,,,,,,,,"2009-07-08"
"72306013722","2019-09-05T16:31:00","FM-16","7",,,,,,,,,,,,,,,,,,,,,,,,,,,,,,,,,,,,,,"29.79","73","74","0.17","RA:02 BR:1 |RA |RA",,,"97",,"FEW:02 10 BKN:07 42 OVC:08 110","29.32","1.00","73","030","22","15",,,,,,,,,,,,,,,,,,,,,,,,,,,,,,,,,,,,,"MET12409/05/19 16:31:02 SPECI KRDU 052131Z 03013G19KT 1SM RA BR FEW010 BKN042 OVC110 23/23 A2979 RMK AO2 SFC VIS 3 P0017 T02330228","FM-16","7",,,,,,,,,,,,,,,,,,,,,,,,,,,,"2009-07-08"
"72306013722","2019-09-05T16:39:00","FM-16","7",,,,,,,,,,,,,,,,,,,,,,,,,,,,,,,,,,,,,,"29.79","73","75","0.19","-RA:02 BR:1 |RA |RA",,,"94",,"FEW:02 10 BKN:07 42 OVC:08 110","29.32","3.00","74","040","23","15",,,,,,,,,,,,,,,,,,,,,,,,,,,,,,,,,,,,,"MET11509/05/19 16:39:02 SPECI KRDU 052139Z 04013G20KT 3SM -RA BR FEW010 BKN042 OVC110 24/23 A2979 RMK AO2 P0019 T02390228","FM-16","7",,,,,,,,,,,,,,,,,,,,,,,,,,,,"2009-07-08"
"72306013722","2019-09-05T16:51:00","FM-15","7",,,,,,,,,,,,,,,,,,,,,,,,,,,,,,,,,,,,,,"29.79","73","74","0.17","-RA:02 BR:1 |RA |RA",,,"97","29.77","FEW:02 10 BKN:07 42 OVC:08 110","29.32","3.00","73","040","23","15",,,,,,,,,,,,,,,,,,,,,,,,,,,,,,,,,,,,,"MET13209/05/19 16:51:02 METAR KRDU 052151Z 04013G20KT 3SM -RA BR FEW010 BKN042 OVC110 23/23 A2979 RMK AO2 SFC VIS 6 SLP082 P0021 T02330228","FM-15","7",,,,,,,,,,,,,,,,,,,,,,,,,,,,"2009-07-08"
"72306013722","2019-09-05T17:27:00","FM-16","7",,,,,,,,,,,,,,,,,,,,,,,,,,,,,,,,,,,,,,"29.78","73","74","0.03","-RA:02 BR:1 |RA |RA",,,"97",,"BKN:07 12 BKN:07 42 OVC:08 100","29.31","3.00","73","040","24","20",,,,,,,,,,,,,,,,,,,,,,,,,,,,,,,,,,,,,"MET12509/05/19 17:27:02 SPECI KRDU 052227Z 04017G21KT 3SM -RA BR BKN012 BKN042 OVC100 23/23 A2978 RMK AO2 SFC VIS 5 P0003 T02330228","FM-16","7",,,,,,,,,,,,,,,,,,,,,,,,,,,,"2009-07-08"
"72306013722","2019-09-05T17:51:00","FM-15","7",,,,,,,,,,,,,,,,,,,,,,,,,,,,,,,,,,,,,,"29.77","72","74","0.08","-RA:02 BR:1 |RA |RA",,,"94","29.76","BKN:07 12 BKN:07 70 OVC:08 100","29.30","4.00","73","050","26","18",,,,,,,,,,,,,,,,,,,,,,,,,,,,,,,,,,,,,"MET12209/05/19 17:51:02 METAR KRDU 052251Z 05016G23KT 4SM -RA BR BKN012 BKN070 OVC100 23/22 A2977 RMK AO2 SLP077 P0006 T02330222","FM-15","7",,,,,,,,,,,,,,,,,,,,,,,,,,,,"2009-07-08"
"72306013722","2019-09-05T18:51:00","FM-15","7",,,,,,,,,,,,,,,,,,,,,,,,,,,,,,,,,,,,,,"29.77","72","74","0.04","-RA:02 BR:1 |RA |RA","+0.04","6","94","29.75","BKN:07 12 OVC:08 24","29.30","6.00","73","040","24","14",,,,,,,,,,,,,,,,,,,,,,,,,,,,,,,,,,,,,"MET13909/05/19 18:51:02 METAR KRDU 052351Z 04012G21KT 6SM -RA BR BKN012 OVC024 23/22 A2977 RMK AO2 SLP076 P0005 60055 T02330222 10239 20233 56013","FM-15","7",,,,,,,,,,,,,,,,,,,,,,,,,,,,"2009-07-08"
"72306013722","2019-09-05T19:00:00","FM-12","4",,,,,,,,,,,,,,,,,,,,,,,,,,,,,,,,,,,,,,,"72","74",,"||RA","+0.04","6","94","29.75","15","29.31","5.59","73","040",,"14",,,,,,,,,,,,,,,,,,,,,,,,,,,,,,,,,,,,,"SYN10472306 11459 80412 10233 20222 39926 40076 56013 60141 761// 92351 333 10261 20228 91021 96010 555 90600=","FM-12","4",,,,,,,,,,,,,,,,,,,,,,,,,,,,"2009-07-08"
"72306013722","2019-09-05T19:51:00","FM-15","7",,,,,,,,,,,,,,,,,,,,,,,,,,,,,,,,,,,,,,"29.75","72","74","0.07","-RA:02 BR:1 |RA |RA",,,"94","29.73","BKN:07 11 BKN:07 24 OVC:08 60","29.28","6.00","73","030","23","14",,,,,,,,,,,,,,,,,,,,,,,,,,,,,,,,,,,,,"MET12209/05/19 19:51:01 METAR KRDU 060051Z 03012G20KT 6SM -RA BR BKN011 BKN024 OVC060 23/22 A2975 RMK AO2 SLP069 P0007 T02330222","FM-15","7",,,,,,,,,,,,,,,,,,,,,,,,,,,,"2009-07-08"
"72306013722","2019-09-05T20:51:00","FM-15","7",,,,,,,,,,,,,,,,,,,,,,,,,,,,,,,,,,,,,,"29.75","72","73","0.12","-RA:02 BR:1 |RA |RA",,,"96","29.74","BKN:07 11 BKN:07 22 OVC:08 60","29.28","6.00","72","040","29","20",,,,,,,,,,,,,,,,,,,,,,,,,,,,,,,,,,,,,"MET14009/05/19 20:51:01 METAR KRDU 060151Z 04017G25KT 6SM -RA BR BKN011 BKN022 OVC060 23/22 A2975 RMK AO2 PK WND 02026/0126 SLP070 P0012 T02280222","FM-15","7",,,,,,,,,,,,,,,,,,,,,,,,,,,,"2009-07-08"
"72306013722","2019-09-05T21:26:00","FM-16","7",,,,,,,,,,,,,,,,,,,,,,,,,,,,,,,,,,,,,,"29.74","71","72","0.01","-RA:02 |RA |RA",,,"97",,"BKN:07 9 OVC:08 22","29.27","8.00","71","020","23","16",,,,,,,,,,,,,,,,,,,,,,,,,,,,,,,,,,,,,"MET10509/05/19 21:26:01 SPECI KRDU 060226Z 02014G20KT 8SM -RA BKN009 OVC022 22/22 A2974 RMK AO2 P0001 T02220217","FM-16","7",,,,,,,,,,,,,,,,,,,,,,,,,,,,"2009-07-08"
"72306013722","2019-09-05T21:51:00","FM-15","7",,,,,,,,,,,,,,,,,,,,,,,,,,,,,,,,,,,,,,"29.73","70","72","0.02","-RA:02 |RA |RA","+0.04","8","94","29.72","BKN:07 9 OVC:08 14","29.26","8.00","71","020","28","15",,,,,,,,,,,,,,,,,,,,,,,,,,,,,,,,,,,,,"MET12409/05/19 21:51:01 METAR KRDU 060251Z 02013G24KT 8SM -RA BKN009 OVC014 22/21 A2973 RMK AO2 SLP063 P0003 60022 T02220211 58013","FM-15","7",,,,,,,,,,,,,,,,,,,,,,,,,,,,"2009-07-08"
"72306013722","2019-09-05T22:51:00","FM-15","7",,,,,,,,,,,,,,,,,,,,,,,,,,,,,,,,,,,,,,"29.73","69","71","0.01","-RA:02 BR:1 |RA |RA",,,"94","29.71","BKN:07 8 OVC:08 12","29.26","6.00","70","020","30","16",,,,,,,,,,,,,,,,,,,,,,,,,,,,,,,,,,,,,"MET13309/05/19 22:51:02 METAR KRDU 060351Z 02014G26KT 6SM -RA BR BKN008 OVC012 22/21 A2973 RMK AO2 PK WND 03026/0349 SLP061 P0000 T02170206","FM-15","7",,,,,,,,,,,,,,,,,,,,,,,,,,,,"2009-07-08"
"72306013722","2019-09-05T23:51:00","FM-15","7",,,,,,,,,,,,,,,,,,,,,,,,,,,,,,,,,,,,,,"29.70","69","71","0.02","-RA:02 |RA |RA",,,"94","29.68","BKN:07 9 OVC:08 13","29.23","7.00","70","020","37","18",,,,,,,,,,,,,,,,,,,,,,,,,,,,,,,,,,,,,"MET14009/05/19 23:51:02 METAR KRDU 060451Z 02016G32KT 7SM -RA BKN009 OVC013 22/21 A2970 RMK AO2 PK WND 01032/0447 SLP052 P0002 T02170206 402610211","FM-15","7",,,,,,,,,,,,,,,,,,,,,,,,,,,,"2009-07-08"
"72306013722","2019-09-05T23:59:00","SOD  ","6",,,,,,,,,,,,,,,"72","75","91","29.83","29.37","73","11.9","10","-0.6","0","79","70","010","37","0.93","0","0.0","020","21","RA BR",,,,,,,,,,,,,,,,,,,,,,,,,,,,,,,,,,,,,,,,,,,,,,,,,,,,,,,,"SOD78724 HR PRECIPITATION (IN): 0.93 SNOW DEPTH (IN):0     24 HR SNOWFALL (IN):0.0  WEATHER(CODE):1  24 HR MAX TEMP (F): 7924 HR MIN TEMP (F): 70AVERAGE STATION PRESSURE(D):29.371 MINIMUM SEA LEVEL PRESSURE:29.68 TIME OF OCCURRENCE:2359 PEAK WIND SPEED (MPH): 37 PEAK WIND DIR (DEG): 10 PEAK WIND TIME (LST):      FASTEST 2MIN SPEED (MPH): 21FASTEST 2MIN DIR (DEG): 20 FASTEST 2MIN TIME (LST):     AVERAGE WIND SPEED (MPH):11.9 24 HR AVG TEMP (F): 75DEPART FROM NORMAL:  0  SKY COVER SR-SS (TENTHS): 1HEATING DEGREE DAYS:  0 COOLING DEGREE DAYS: 10 LATEST DAY MAX TEMP (0700-1900 LST): 79 LATEST NIGHT MIN TEMP(1900-0800 LST):73 HOURLY INCREMENTAL PRECIPITATION VALUES (IN):0.00 0.00 0.00 0.00 0.00 0.00 0.00 0.00 0.00T    T     0.04 0.10 0.06 0.06 0.14 0.17 0.08 0.04 0.07 0.12 0.02 0.01 0.02","SOD  ","6",,,,,,,,,,,,,,,,,,,,,,,,,"0550","1837",,"2009-07-08"
"72306013722","2019-09-06T00:51:00","FM-15","7",,,,,,,,,,,,,,,,,,,,,,,,,,,,,,,,,,,,,,"29.70","68","70","0.04","-RA:02 |RA |RA","+0.03","6","93","29.68","BKN:07 9 OVC:08 16","29.23","7.00","69","010","28","14",,,,,,,,,,,,,,,,,,,,,,,,,,,,,,,,,,,,,"MET14209/06/19 00:51:02 METAR KRDU 060551Z 01012G24KT 7SM -RA BKN009 OVC016 21/20 A2970 RMK AO2 SLP052 P0004 60028 T02110200 10233 20211 56011 (AWB)","FM-15","7",,,,,,,,,,,,,,,,,,,,,,,,,,,,"2009-07-08"
"72306013722","2019-09-06T01:00:00","FM-12","4",,,,,,,,,,,,,,,,,,,,,,,,,,,,,,,,,,,,,,,"68","70",,"||RA","+0.03","6","93","29.68","8","29.24","6.84","69","010",,"14",,,,,,,,,,,,,,,,,,,,,,,,,,,,,,,,,,,,,"SYN09872306 11361 80112 10211 20200 39903 40052 56011 60071 761// 90551 333 10239 20211 91024 555 90606=","FM-12","4",,,,,,,,,,,,,,,,,,,,,,,,,,,,"2009-07-08"
"72306013722","2019-09-06T01:51:00","FM-15","7",,,,,,,,,,,,,,,,,,,,,,,,,,,,,,,,,,,,,,"29.67","68","69","0.05","-RA:02 |RA |RA",,,"96","29.65","FEW:02 8 BKN:07 12 OVC:08 100","29.21","10.00","68","010","28","14",,,,,,,,,,,,,,,,,,,,,,,,,,,,,,,,,,,,,"MET12609/06/19 01:51:02 METAR KRDU 060651Z 01012G24KT 10SM -RA FEW008 BKN012 OVC100 21/20 A2967 RMK AO2 SLP042 P0006 T02060200 (AWB)","FM-15","7",,,,,,,,,,,,,,,,,,,,,,,,,,,,"2009-07-08"
"72306013722","2019-09-06T02:10:00","FM-16","7",,,,,,,,,,,,,,,,,,,,,,,,,,,,,,,,,,,,,,"29.66","68","70","T","-RA:02 |RA |RA",,,"93",,"FEW:02 8 BKN:07 22 OVC:08 120","29.19","10.00","69","010","26","13",,,,,,,,,,,,,,,,,,,,,,,,,,,,,,,,,,,,,"MET11909/06/19 02:10:02 SPECI KRDU 060710Z 01011G23KT 10SM -RA FEW008 BKN022 OVC120 21/20 A2966 RMK AO2 P0000 T02110200 (AWB)","FM-16","7",,,,,,,,,,,,,,,,,,,,,,,,,,,,"2009-07-08"
"72306013722","2019-09-06T02:51:00","FM-15","7",,,,,,,,,,,,,,,,,,,,,,,,,,,,,,,,,,,,,,"29.65","67","69","T","-RA:02 |RA |RA",,,"93","29.64","FEW:02 8 BKN:07 13 OVC:08 120","29.18","10.00","68","VRB","21","13",,,,,,,,,,,,,,,,,,,,,,,,,,,,,,,,,,,,,"MET12609/06/19 02:51:02 METAR KRDU 060751Z 36011G18KT 10SM -RA FEW008 BKN013 OVC120 21/19 A2965 RMK AO2 SLP036 P0000 T02060194 (AWB)","FM-15","7",,,,,,,,,,,,,,,,,,,,,,,,,,,,"2009-07-08"
"72306013722","2019-09-06T03:51:00","FM-15","7",,,,,,,,,,,,,,,,,,,,,,,,,,,,,,,,,,,,,,"29.67","66","69","0.01","-RA:02 |RA |RA","+0.03","5","90","29.65","FEW:02 8 BKN:07 14 OVC:08 120","29.21","10.00","67","010","23","9",,,,,,,,,,,,,,,,,,,,,,,,,,,,,,,,,,,,,"MET13809/06/19 03:51:02 METAR KRDU 060851Z 01008G20KT 10SM -RA FEW008 BKN014 OVC120 21/19 A2967 RMK AO2 SLP042 P0001 60007 T02060189 55011 (AWB)","FM-15","7",,,,,,,,,,,,,,,,,,,,,,,,,,,,"2009-07-08"
"72306013722","2019-09-06T04:30:00","FM-16","7",,,,,,,,,,,,,,,,,,,,,,,,,,,,,,,,,,,,,,"29.68","66","69","T","|RA |RA",,,"90",,"FEW:02 8 BKN:07 18 BKN:07 60","29.21","10.00","67","VRB","20","9",,,,,,,,,,,,,,,,,,,,,,,,,,,,,,,,,,,,,"MET11909/06/19 04:30:02 SPECI KRDU 060930Z 36008G17KT 10SM -RA FEW008 BKN018 BKN060 21/19 A2968 RMK AO2 P0000 T02060189 (AWB)","FM-16","7",,,,,,,,,,,,,,,,,,,,,,,,,,,,"2009-07-08"
"72306013722","2019-09-06T04:51:00","FM-15","7",,,,,,,,,,,,,,,,,,,,,,,,,,,,,,,,,,,,,,"29.69","66","70","T",,,,"87","29.68","FEW:02 8 BKN:07 18 BKN:07 80","29.22","10.00","67","VRB","18","9",,,,,,,,,,,,,,,,,,,,,,,,,,,,,,,,,,,,,"MET12809/06/19 04:51:02 METAR KRDU 060951Z 36008G16KT 10SM FEW008 BKN018 BKN080 21/19 A2969 RMK AO2 RAE50 SLP050 P0000 T02110189 (AWB)","FM-15","7",,,,,,,,,,,,,,,,,,,,,,,,,,,,"2009-07-08"
"72306013722","2019-09-06T05:51:00","FM-15","7",,,,,,,,,,,,,,,,,,,,,,,,,,,,,,,,,,,,,,"29.70","65","70","0.00",,,,"84","29.68","FEW:02 8 BKN:07 17 BKN:07 50","29.23","10.00","67","350","22","13",,,,,,,,,,,,,,,,,,,,,,,,,,,,,,,,,,,,,"MET11609/06/19 05:51:02 METAR KRDU 061051Z 35011G19KT 10SM FEW008 BKN017 BKN050 21/18 A2970 RMK AO2 SLP052 T02110183 (AWB)","FM-15","7",,,,,,,,,,,,,,,,,,,,,,,,,,,,"2009-07-08"
"72306013722","2019-09-06T06:51:00","FM-15","7",,,,,,,,,,,,,,,,,,,,,,,,,,,,,,,,,,,,,,"29.72","64","70","0.00",,"-0.05","1","82","29.70","FEW:02 12 BKN:07 20 BKN:07 110","29.25","10.00","66","350","21","11",,,,,,,,,,,,,,,,,,,,,,,,,,,,,,,,,,,,,"MET14609/06/19 06:51:02 METAR KRDU 061151Z 35010G18KT 10SM FEW012 BKN020 BKN110 21/18 A2972 RMK AO2 SLP059 60007 70103 T02110178 10211 20206 51017 (KAH)","FM-15","7",,,,,,,,,,,,,,,,,,,,,,,,,,,,"2009-07-08"
"72306013722","2019-09-06T07:00:00","FM-12","4",,,,,,,,,,,,,,,,,,,,,,,,,,,,,,,,,,,,,,,"64","70",,,"-0.05","1","82","29.70","15","29.26","9.94","66","350",,"11",,,,,,,,,,,,,,,,,,,,,,,,,,,,,,,,,,,,,"SYN09872306 12466 63510 10211 20178 39910 40059 51017 60021 91151 333 10261 20206 70262 91018 555 90612=","FM-12","4",,,,,,,,,,,,,,,,,,,,,,,,,,,,"2009-07-08"
"72306013722","2019-09-06T07:51:00","FM-15","7",,,,,,,,,,,,,,,,,,,,,,,,,,,,,,,,,,,,,,"29.74","64","72","0.00",,,,"76","29.72","SCT:04 22 SCT:04 110 BKN:07 250","29.27","10.00","67","VRB","17","10",,,,,,,,,,,,,,,,,,,,,,,,,,,,,,,,,,,,,"MET11609/06/19 07:51:02 METAR KRDU 061251Z 36009G15KT 10SM SCT022 SCT110 BKN250 22/18 A2974 RMK AO2 SLP066 T02220178 (KAH)","FM-15","7",,,,,,,,,,,,,,,,,,,,,,,,,,,,"2009-07-08"
"72306013722","2019-09-06T08:23:00","FM-16","7",,,,,,,,,,,,,,,,,,,,,,,,,,,,,,,,,,,,,,"29.75","64","72",,,,,"76",,"BKN:07 23 BKN:07 150 BKN:07 250","29.28","10.00","67","340","21","10",,,,,,,,,,,,,,,,,,,,,,,,,,,,,,,,,,,,,"MET10909/06/19 08:23:02 SPECI KRDU 061323Z 34009G18KT 10SM BKN023 BKN150 BKN250 22/18 A2975 RMK AO2 T02220178 (KAH)","FM-16","7",,,,,,,,,,,,,,,,,,,,,,,,,,,,"2009-07-08"
"72306013722","2019-09-06T08:51:00","FM-15","7",,,,,,,,,,,,,,,,,,,,,,,,,,,,,,,,,,,,,,"29.76","64","72","0.00",,,,"76","29.75","BKN:07 25 BKN:07 150 BKN:07 250","29.29","10.00","67","VRB","23","8",,,,,,,,,,,,,,,,,,,,,,,,,,,,,,,,,,,,,"MET11609/06/19 08:51:02 METAR KRDU 061351Z 01007G20KT 10SM BKN025 BKN150 BKN250 22/18 A2976 RMK AO2 SLP074 T02220178 (KAH)","FM-15","7",,,,,,,,,,,,,,,,,,,,,,,,,,,,"2009-07-08"
"72306013722","2019-09-06T09:51:00","FM-15","7",,,,,,,,,,,,,,,,,,,,,,,,,,,,,,,,,,,,,,"29.79","64","76","0.00",,"-0.06","2","67","29.77","SCT:04 28 SCT:04 50 BKN:07 250","29.32","10.00","68","VRB","18","8",,,,,,,,,,,,,,,,,,,,,,,,,,,,,,,,,,,,,"MET14009/06/19 09:51:02 METAR KRDU 061451Z 34007G16KT 10SM SCT028 SCT050 BKN250 24/18 A2979 RMK AO2 PK WND 35026/1433 SLP081 T02440178 52022 (KAH)","FM-15","7",,,,,,,,,,,,,,,,,,,,,,,,,,,,"2009-07-08"
"72306013722","2019-09-06T10:51:00","FM-15","7",,,,,,,,,,,,,,,,,,,,,,,,,,,,,,,,,,,,,,"29.80","64","79","0.00",,,,"60","29.79","SCT:04 33 BKN:07 250","29.33","10.00","69","020","22","13",,,,,,,,,,,,,,,,,,,,,,,,,,,,,,,,,,,,,"MET10909/06/19 10:51:02 METAR KRDU 061551Z 02011G19KT 10SM SCT033 BKN250 26/18 A2980 RMK AO2 SLP087 T02610178 (KAH)","FM-15","7",,,,,,,,,,,,,,,,,,,,,,,,,,,,"2009-07-08"
"72306013722","2019-09-06T11:51:00","FM-15","7",,,,,,,,,,,,,,,,,,,,,,,,,,,,,,,,,,,,,,"29.80","64","82","0.00",,,,"55","29.79","SCT:04 40 SCT:04 250","29.33","10.00","70","VRB","18","9",,,,,,,,,,,,,,,,,,,,,,,,,,,,,,,,,,,,,"MET10909/06/19 11:51:02 METAR KRDU 061651Z 31008G16KT 10SM SCT040 SCT250 28/18 A2980 RMK AO2 SLP087 T02780178 (KAH)","FM-15","7",,,,,,,,,,,,,,,,,,,,,,,,,,,,"2009-07-08"
"72306013722","2019-09-06T12:51:00","FM-15","7",,,,,,,,,,,,,,,,,,,,,,,,,,,,,,,,,,,,,,"29.80","62","84","0.00",,"-0.01","0","48","29.78","SCT:04 48 SCT:04 250","29.33","10.00","70","VRB","18","8",,,,,,,,,,,,,,,,,,,,,,,,,,,,,,,,,,,,,"MET12709/06/19 12:51:02 METAR KRDU 061751Z 33007G16KT 10SM SCT048 SCT250 29/17 A2980 RMK AO2 SLP086 T02890167 10289 20211 50004 (KAH)","FM-15","7",,,,,,,,,,,,,,,,,,,,,,,,,,,,"2009-07-08"
"72306013722","2019-09-06T13:00:00","FM-12","4",,,,,,,,,,,,,,,,,,,,,,,,,,,,,,,,,,,,,,,"62","84",,,"0.01","9","48","29.78","41","29.34","9.94","70","330",,"8",,,,,,,,,,,,,,,,,,,,,,,,,,,,,,,,,,,,,"SYN08672306 32666 43307 10289 20167 39936 40086 50004 91751 333 10289 20211 91016 555 90618=","FM-12","4",,,,,,,,,,,,,,,,,,,,,,,,,,,,"2009-07-08"
"72306013722","2019-09-06T13:51:00","FM-15","7",,,,,,,,,,,,,,,,,,,,,,,,,,,,,,,,,,,,,,"29.78","62","85","0.00",,,,"46","29.76","SCT:04 50 SCT:04 250","29.31","10.00","70","VRB",,"7",,,,,,,,,,,,,,,,,,,,,,,,,,,,,,,,,,,,,"MET10609/06/19 13:51:02 METAR KRDU 061851Z VRB06KT 10SM SCT050 SCT250 29/17 A2978 RMK AO2 SLP079 T02940167 (KAH)","FM-15","7",,,,,,,,,,,,,,,,,,,,,,,,,,,,"2009-07-08"
"72306013722","2019-09-06T14:51:00","FM-15","7",,,,,,,,,,,,,,,,,,,,,,,,,,,,,,,,,,,,,,"29.77","63","87","0.00",,,,"45","29.75","SCT:04 50 SCT:04 250","29.30","10.00","71","280",,"11",,,,,,,,,,,,,,,,,,,,,,,,,,,,,,,,,,,,,"MET10609/06/19 14:51:02 METAR KRDU 061951Z 28010KT 10SM SCT050 SCT250 31/17 A2977 RMK AO2 SLP074 T03060172 (JBA)","FM-15","7",,,,,,,,,,,,,,,,,,,,,,,,,,,,"2009-07-08"
"72306013722","2019-09-06T15:51:00","FM-15","7",,,,,,,,,,,,,,,,,,,,,,,,,,,,,,,,,,,,,,"29.77","61","87","0.00",,"+0.03","5","42","29.76","SCT:04 50 SCT:04 250","29.30","10.00","70","VRB","17","8",,,,,,,,,,,,,,,,,,,,,,,,,,,,,,,,,,,,,"MET11509/06/19 15:51:02 METAR KRDU 062051Z 30007G15KT 10SM SCT050 SCT250 31/16 A2977 RMK AO2 SLP077 T03060161 55009 (JBA)","FM-15","7",,,,,,,,,,,,,,,,,,,,,,,,,,,,"2009-07-08"
"72306013722","2019-09-06T16:51:00","FM-15","7",,,,,,,,,,,,,,,,,,,,,,,,,,,,,,,,,,,,,,"29.78","60","86","0.00",,,,"42","29.77","SCT:04 50 SCT:04 250","29.31","10.00","69","280",,"9",,,,,,,,,,,,,,,,,,,,,,,,,,,,,,,,,,,,,"MET10609/06/19 16:51:02 METAR KRDU 062151Z 28008KT 10SM SCT050 SCT250 30/16 A2978 RMK AO2 SLP081 T03000156 (JBA)","FM-15","7",,,,,,,,,,,,,,,,,,,,,,,,,,,,"2009-07-08"
"72306013722","2019-09-06T17:51:00","FM-15","7",,,,,,,,,,,,,,,,,,,,,,,,,,,,,,,,,,,,,,"29.80","60","84","0.00",,,,"44","29.78","FEW:02 250","29.33","10.00","69","280",,"6",,,,,,,,,,,,,,,,,,,,,,,,,,,,,,,,,,,,,"MET09909/06/19 17:51:02 METAR KRDU 062251Z 28005KT 10SM FEW250 29/16 A2980 RMK AO2 SLP085 T02890156 (JBA)","FM-15","7",,,,,,,,,,,,,,,,,,,,,,,,,,,,"2009-07-08"
"72306013722","2019-09-06T18:51:00","FM-15","7",,,,,,,,,,,,,,,,,,,,,,,,,,,,,,,,,,,,,,"29.80","64","77","0.00",,"-0.03","1","64","29.79","FEW:02 250","29.33","10.00","69","000",,"0",,,,,,,,,,,,,,,,,,,,,,,,,,,,,,,,,,,,,"MET11709/06/19 18:51:02 METAR KRDU 062351Z 00000KT 10SM FEW250 25/18 A2980 RMK AO2 SLP088 T02500178 10306 20250 51011 (JBA)","FM-15","7",,,,,,,,,,,,,,,,,,,,,,,,,,,,"2009-07-08"
"72306013722","2019-09-06T19:00:00","FM-12","4",,,,,,,,,,,,,,,,,,,,,,,,,,,,,,,,,,,,,,,"64","77",,,"-0.03","1","64","29.79",,"29.34","9.94","69","000",,"0",,,,,,,,,,,,,,,,,,,,,,,,,,,,,,,,,,,,,"SYN08072306 32966 20000 10250 20178 39936 40088 51011 92351 333 10306 20206 555 90700=","FM-12","4",,,,,,,,,,,,,,,,,,,,,,,,,,,,"2009-07-08"
"72306013722","2019-09-06T19:51:00","FM-15","7",,,,,,,,,,,,,,,,,,,,,,,,,,,,,,,,,,,,,,"29.81","65","75","0.00",,,,"71","29.80","CLR:00","29.34","10.00","69","000",,"0",,,,,,,,,,,,,,,,,,,,,,,,,,,,,,,,,,,,,"MET09009/06/19 19:51:01 METAR KRDU 070051Z 00000KT 10SM CLR 24/18 A2981 RMK AO2 SLP091 T02390183","FM-15","7",,,,,,,,,,,,,,,,,,,,,,,,,,,,"2009-07-08"
"72306013722","2019-09-06T20:51:00","FM-15","7",,,,,,,,,,,,,,,,,,,,,,,,,,,,,,,,,,,,,,"29.83","65","73","0.00",,,,"76","29.81","CLR:00","29.36","10.00","68","000",,"0",,,,,,,,,,,,,,,,,,,,,,,,,,,,,,,,,,,,,"MET09009/06/19 20:51:01 METAR KRDU 070151Z 00000KT 10SM CLR 23/18 A2983 RMK AO2 SLP095 T02280183","FM-15","7",,,,,,,,,,,,,,,,,,,,,,,,,,,,"2009-07-08"
"72306013722","2019-09-06T21:51:00","FM-15","7",,,,,,,,,,,,,,,,,,,,,,,,,,,,,,,,,,,,,,"29.83","65","70","0.00",,"-0.02","1","84","29.81","CLR:00","29.36","10.00","67","000",,"0",,,,,,,,,,,,,,,,,,,,,,,,,,,,,,,,,,,,,"MET09609/06/19 21:51:01 METAR KRDU 070251Z 00000KT 10SM CLR 21/18 A2983 RMK AO2 SLP096 T02110183 51008","FM-15","7",,,,,,,,,,,,,,,,,,,,,,,,,,,,"2009-07-08"
"72306013722","2019-09-06T22:51:00","FM-15","7",,,,,,,,,,,,,,,,,,,,,,,,,,,,,,,,,,,,,,"29.83","65","70","0.00",,,,"84","29.82","CLR:00","29.36","10.00","67","230",,"3",,,,,,,,,,,,,,,,,,,,,,,,,,,,,,,,,,,,,"MET09009/06/19 22:51:01 METAR KRDU 070351Z 23003KT 10SM CLR 21/18 A2983 RMK AO2 SLP097 T02110183","FM-15","7",,,,,,,,,,,,,,,,,,,,,,,,,,,,"2009-07-08"
"72306013722","2019-09-06T23:51:00","FM-15","7",,,,,,,,,,,,,,,,,,,,,,,,,,,,,,,,,,,,,,"29.84","65","69","0.00",,,,"87","29.83","SCT:04 70","29.37","10.00","66","000",,"0",,,,,,,,,,,,,,,,,,,,,,,,,,,,,,,,,,,,,"MET10309/06/19 23:51:01 METAR KRDU 070451Z 00000KT 10SM SCT070 21/18 A2984 RMK AO2 SLP100 T02060183 403060200","FM-15","7",,,,,,,,,,,,,,,,,,,,,,,,,,,,"2009-07-08"
"72306013722","2019-09-06T23:59:00","SOD  ","6",,,,,,,,,,,,,,,"64","78","70","29.75","29.28","68","7.7","13","2.7","0","87","69","350","29","0.10","0","0.0","020","20","RA",,,,,,,,,,,,,,,,,,,,,,,,,,,,,,,,,,,,,,,,,,,,,,,,,,,,,,,,"SOD73924 HR PRECIPITATION (IN): 0.10 SNOW DEPTH (IN):0     24 HR SNOWFALL (IN):0.0  24 HR MAX TEMP (F): 8724 HR MIN TEMP (F): 69AVERAGE STATION PRESSURE:29.285 MINIMUM SEA LEVEL PRESSURE:29.63 TIME OF OCCURRENCE:0241 PEAK WIND SPEED (MPH): 29 PEAK WIND DIR (DEG):350 PEAK WIND TIME (LST):      FASTEST 2MIN SPEED (MPH): 20FASTEST 2MIN DIR (DEG): 20 FASTEST 2MIN TIME (LST):     AVERAGE WIND SPEED (MPH): 7.7 24 HR AVG TEMP (F): 78DEPART FROM NORMAL:  3  HEATING DEGREE DAYS:  0 COOLING DEGREE DAYS: 13 LATEST DAY MAX TEMP (0700-1900 LST):87  LATEST NIGHT MIN TEMP(1900-0800 LST):69 HOURLY INCREMENTAL PRECIPITATION VALUES (IN):.04 0.05 T    0.01 T    0.00 0.00 0.00 0.00 0.00 0.00 0.00 0.00 0.00 0.00 0.00 0.00 0.00 0.00 0.00 0.00 0.00 0.00 0.00","SOD  ","6",,,,,,,,,,,,,,,,,,,,,,,,,"0551","1836",,"2009-07-08"
"72306013722","2019-09-07T00:51:00","FM-15","7",,,,,,,,,,,,,,,,,,,,,,,,,,,,,,,,,,,,,,"29.86","65","71","0.00",,"-0.03","3","81","29.84","BKN:07 65 BKN:07 85","29.39","10.00","67","000",,"0",,,,,,,,,,,,,,,,,,,,,,,,,,,,,,,,,,,,,"MET12409/07/19 00:51:02 METAR KRDU 070551Z 00000KT 10SM BKN065 BKN085 22/18 A2986 RMK AO2 SLP105 T02170183 10256 20200 53009 (SMK)","FM-15","7",,,,,,,,,,,,,,,,,,,,,,,,,,,,"2009-07-08"
"72306013722","2019-09-07T01:00:00","FM-12","4",,,,,,,,,,,,,,,,,,,,,,,,,,,,,,,,,,,,,,,"65","71",,,"-0.03","3","81","29.84","57","29.40","9.94","67","000",,"0",,,,,,,,,,,,,,,,,,,,,,,,,,,,,,,,,,,,,"SYN08072306 32766 60000 10217 20183 39956 40105 53009 90551 333 10256 20200 555 90706=","FM-12","4",,,,,,,,,,,,,,,,,,,,,,,,,,,,"2009-07-08"
"72306013722","2019-09-07T01:51:00","FM-15","7",,,,,,,,,,,,,,,,,,,,,,,,,,,,,,,,,,,,,,"29.85","65","68","0.00",,,,"90","29.83","SCT:04 60 BKN:07 90","29.38","10.00","66","240",,"5",,,,,,,,,,,,,,,,,,,,,,,,,,,,,,,,,,,,,"MET10609/07/19 01:51:02 METAR KRDU 070651Z 24004KT 10SM SCT060 BKN090 20/18 A2985 RMK AO2 SLP103 T02000183 (SMK)","FM-15","7",,,,,,,,,,,,,,,,,,,,,,,,,,,,"2009-07-08"
"72306013722","2019-09-07T02:51:00","FM-15","7",,,,,,,,,,,,,,,,,,,,,,,,,,,,,,,,,,,,,,"29.86","64","68","0.00",,,,"87","29.84","SCT:04 90","29.39","10.00","66","000",,"0",,,,,,,,,,,,,,,,,,,,,,,,,,,,,,,,,,,,,"MET09909/07/19 02:51:02 METAR KRDU 070751Z 00000KT 10SM SCT090 20/18 A2986 RMK AO2 SLP106 T02000178 (SMK)","FM-15","7",,,,,,,,,,,,,,,,,,,,,,,,,,,,"2009-07-08"
"72306013722","2019-09-07T03:51:00","FM-15","7",,,,,,,,,,,,,,,,,,,,,,,,,,,,,,,,,,,,,,"29.86","63","66","0.00",,"-0.01","3","90","29.85","FEW:02 90","29.39","10.00","64","000",,"0",,,,,,,,,,,,,,,,,,,,,,,,,,,,,,,,,,,,,"MET10509/07/19 03:51:02 METAR KRDU 070851Z 00000KT 10SM FEW090 19/17 A2986 RMK AO2 SLP107 T01890172 53002 (SMK)","FM-15","7",,,,,,,,,,,,,,,,,,,,,,,,,,,,"2009-07-08"
"72306013722","2019-09-07T04:51:00","FM-15","7",,,,,,,,,,,,,,,,,,,,,,,,,,,,,,,,,,,,,,"29.88","62","64","0.00",,,,"93","29.87","CLR:00","29.41","10.00","63","000",,"0",,,,,,,,,,,,,,,,,,,,,,,,,,,,,,,,,,,,,"MET09609/07/19 04:51:02 METAR KRDU 070951Z 00000KT 10SM CLR 18/17 A2988 RMK AO2 SLP114 T01780167 (SMK)","FM-15","7",,,,,,,,,,,,,,,,,,,,,,,,,,,,"2009-07-08"
"72306013722","2019-09-07T05:51:00","FM-15","7",,,,,,,,,,,,,,,,,,,,,,,,,,,,,,,,,,,,,,"29.90","61","63","0.00",,,,"93","29.88","FEW:02 250","29.43","10.00","62","000",,"0",,,,,,,,,,,,,,,,,,,,,,,,,,,,,,,,,,,,,"MET09909/07/19 05:51:02 METAR KRDU 071051Z 00000KT 10SM FEW250 17/16 A2990 RMK AO2 SLP120 T01720161 (SMK)","FM-15","7",,,,,,,,,,,,,,,,,,,,,,,,,,,,"2009-07-08"
"72306013722","2019-09-07T06:51:00","FM-15","7",,,,,,,,,,,,,,,,,,,,,,,,,,,,,,,,,,,,,,"29.92","63","67","0.00",,"-0.06","1","87","29.91","CLR:00","29.45","10.00","65","000",,"0",,,,,,,,,,,,,,,,,,,,,,,,,,,,,,,,,,,,,"MET11309/07/19 06:51:02 METAR KRDU 071151Z 00000KT 10SM CLR 19/17 A2992 RMK AO2 SLP127 T01940172 10217 20172 51019 (RP)","FM-15","7",,,,,,,,,,,,,,,,,,,,,,,,,,,,"2009-07-08"
"72306013722","2019-09-07T07:00:00","FM-12","4",,,,,,,,,,,,,,,,,,,,,,,,,,,,,,,,,,,,,,,"63","67",,,"-0.06","1","87","29.91",,"29.46","9.94","65","000",,"0",,,,,,,,,,,,,,,,,,,,,,,,,,,,,,,,,,,,,"SYN08072306 32966 00000 10194 20172 39976 40127 51019 91151 333 10306 20172 555 90712=","FM-12","4",,,,,,,,,,,,,,,,,,,,,,,,,,,,"2009-07-08"
"72306013722","2019-09-07T07:51:00","FM-15","7",,,,,,,,,,,,,,,,,,,,,,,,,,,,,,,,,,,,,,"29.93","61","75","0.00",,,,"62","29.91","CLR:00","29.46","10.00","66","000",,"0",,,,,,,,,,,,,,,,,,,,,,,,,,,,,,,,,,,,,"MET09509/07/19 07:51:02 METAR KRDU 071251Z 00000KT 10SM CLR 24/16 A2993 RMK AO2 SLP129 T02390161 (RP)","FM-15","7",,,,,,,,,,,,,,,,,,,,,,,,,,,,"2009-07-08"
"72306013722","2019-09-07T08:51:00","FM-15","7",,,,,,,,,,,,,,,,,,,,,,,,,,,,,,,,,,,,,,"29.94","60","80","0.00",,,,"51","29.92","FEW:02 250","29.47","10.00","67","VRB",,"7",,,,,,,,,,,,,,,,,,,,,,,,,,,,,,,,,,,,,"MET09809/07/19 08:51:02 METAR KRDU 071351Z VRB06KT 10SM FEW250 27/16 A2994 RMK AO2 SLP133 T02670156 (RP)","FM-15","7",,,,,,,,,,,,,,,,,,,,,,,,,,,,"2009-07-08"
"72306013722","2019-09-07T09:51:00","FM-15","7",,,,,,,,,,,,,,,,,,,,,,,,,,,,,,,,,,,,,,"29.93","61","82","0.00",,"-0.01","0","49","29.92","FEW:02 250","29.46","10.00","69","040",,"10",,,,,,,,,,,,,,,,,,,,,,,,,,,,,,,,,,,,,"MET10409/07/19 09:51:02 METAR KRDU 071451Z 04009KT 10SM FEW250 28/16 A2993 RMK AO2 SLP131 T02780161 50004 (RP)","FM-15","7",,,,,,,,,,,,,,,,,,,,,,,,,,,,"2009-07-08"
"72306013722","2019-09-07T10:51:00","FM-15","7",,,,,,,,,,,,,,,,,,,,,,,,,,,,,,,,,,,,,,"29.93","64","85","0.00",,,,"50","29.92","FEW:02 50 FEW:02 250","29.46","10.00","71","VRB",,"3",,,,,,,,,,,,,,,,,,,,,,,,,,,,,,,,,,,,,"MET10509/07/19 10:51:02 METAR KRDU 071551Z VRB03KT 10SM FEW050 FEW250 29/18 A2993 RMK AO2 SLP131 T02940178 (RP)","FM-15","7",,,,,,,,,,,,,,,,,,,,,,,,,,,,"2009-07-08"
"72306013722","2019-09-07T11:51:00","FM-15","7",,,,,,,,,,,,,,,,,,,,,,,,,,,,,,,,,,,,,,"29.92","61","85","0.00",,,,"45","29.91","FEW:02 50 SCT:04 75","29.45","10.00","70","VRB",,"7",,,,,,,,,,,,,,,,,,,,,,,,,,,,,,,,,,,,,"MET10509/07/19 11:51:02 METAR KRDU 071651Z VRB06KT 10SM FEW050 SCT075 29/16 A2992 RMK AO2 SLP128 T02940161 (RP)","FM-15","7",,,,,,,,,,,,,,,,,,,,,,,,,,,,"2009-07-08"
"72306013722","2019-09-07T12:51:00","FM-15","7",,,,,,,,,,,,,,,,,,,,,,,,,,,,,,,,,,,,,,"29.91","62","88","0.00",,"+0.02","8","42","29.89","FEW:02 55 SCT:04 75","29.44","10.00","71","VRB",,"7",,,,,,,,,,,,,,,,,,,,,,,,,,,,,,,,,,,,,"MET12309/07/19 12:51:02 METAR KRDU 071751Z VRB06KT 10SM FEW055 SCT075 31/17 A2991 RMK AO2 SLP123 T03110167 10311 20194 58006 (RP)","FM-15","7",,,,,,,,,,,,,,,,,,,,,,,,,,,,"2009-07-08"
"72306013722","2019-09-07T13:00:00","FM-12","4",,,,,,,,,,,,,,,,,,,,,,,,,,,,,,,,,,,,,,,"62","88",,,"+0.02","8","42","29.89","57","29.45","9.94","71",,,"7",,,,,,,,,,,,,,,,,,,,,,,,,,,,,,,,,,,,,"SYN08072306 32766 4//06 10311 20167 39973 40123 58006 91751 333 10311 20194 555 90718=","FM-12","4",,,,,,,,,,,,,,,,,,,,,,,,,,,,"2009-07-08"
"72306013722","2019-09-07T13:51:00","FM-15","7",,,,,,,,,,,,,,,,,,,,,,,,,,,,,,,,,,,,,,"29.90","62","85","0.00",,,,"46","29.88","FEW:02 55 SCT:04 70","29.43","10.00","70","270",,"6",,,,,,,,,,,,,,,,,,,,,,,,,,,,,,,,,,,,,"MET10509/07/19 13:51:02 METAR KRDU 071851Z 27005KT 10SM FEW055 SCT070 29/17 A2990 RMK AO2 SLP118 T02940167 (RP)","FM-15","7",,,,,,,,,,,,,,,,,,,,,,,,,,,,"2009-07-08"
"72306013722","2019-09-07T14:51:00","FM-15","7",,,,,,,,,,,,,,,,,,,,,,,,,,,,,,,,,,,,,,"29.88","64","89","0.00",,,,"43","29.87","SCT:04 60 BKN:07 250","29.41","10.00","72","260",,"10",,,,,,,,,,,,,,,,,,,,,,,,,,,,,,,,,,,,,"MET10609/07/19 14:51:02 METAR KRDU 071951Z 26009KT 10SM SCT060 BKN250 32/18 A2988 RMK AO2 SLP114 T03170178 (JBA)","FM-15","7",,,,,,,,,,,,,,,,,,,,,,,,,,,,"2009-07-08"
"72306013722","2019-09-07T15:51:00","FM-15","7",,,,,,,,,,,,,,,,,,,,,,,,,,,,,,,,,,,,,,"29.88","63","88","0.00",,"+0.03","6","43","29.87","SCT:04 60 BKN:07 250","29.41","10.00","72","VRB",,"9",,,,,,,,,,,,,,,,,,,,,,,,,,,,,,,,,,,,,"MET11409/07/19 15:51:02 METAR KRDU 072051Z 25008KT 10SM SCT060 BKN250 31/17 A2988 RMK AO2 SLP114 T03110172 56010 $ (JBA)","FM-15","7",,,,,,,,,,,,,,,,,,,,,,,,,,,,"2009-07-08"
"72306013722","2019-09-07T16:51:00","FM-15","7",,,,,,,,,,,,,,,,,,,,,,,,,,,,,,,,,,,,,,"29.89","64","87","0.00",,,,"46","29.87","SCT:04 60 SCT:04 70 BKN:07 250","29.42","10.00","72","260",,"3",,,,,,,,,,,,,,,,,,,,,,,,,,,,,,,,,,,,,"MET11509/07/19 16:51:02 METAR KRDU 072151Z 26003KT 10SM SCT060 SCT070 BKN250 31/18 A2989 RMK AO2 SLP116 T03060178 $ (JBA)","FM-15","7",,,,,,,,,,,,,,,,,,,,,,,,,,,,"2009-07-08"
"72306013722","2019-09-07T17:51:00","FM-15","7",,,,,,,,,,,,,,,,,,,,,,,,,,,,,,,,,,,,,,"29.90","67","84","0.00",,,,"57","29.88","SCT:04 55 BKN:07 250","29.43","10.00","73","230",,"6",,,,,,,,,,,,,,,,,,,,,,,,,,,,,,,,,,,,,"MET10809/07/19 17:51:02 METAR KRDU 072251Z 23005KT 10SM SCT055 BKN250 29/19 A2990 RMK AO2 SLP119 T02890194 $ (JBA)","FM-15","7",,,,,,,,,,,,,,,,,,,,,,,,,,,,"2009-07-08"
"72306013722","2019-09-07T18:51:00","FM-15","7",,,,,,,,,,,,,,,,,,,,,,,,,,,,,,,,,,,,,,"29.92","66","80","0.00",,"-0.03","3","62","29.90","SCT:04 55 BKN:07 250","29.45","10.00","71","180",,"3",,,,,,,,,,,,,,,,,,,,,,,,,,,,,,,,,,,,,"MET12609/07/19 18:51:02 METAR KRDU 072351Z 18003KT 10SM SCT055 BKN250 27/19 A2992 RMK AO2 SLP125 T02670189 10322 20267 53011 $ (JBA)","FM-15","7",,,,,,,,,,,,,,,,,,,,,,,,,,,,"2009-07-08"
"72306013722","2019-09-07T19:00:00","FM-12","4",,,,,,,,,,,,,,,,,,,,,,,,,,,,,,,,,,,,,,,"66","80",,,"-0.03","3","62","29.90","57","29.46","9.94","71","180",,"3",,,,,,,,,,,,,,,,,,,,,,,,,,,,,,,,,,,,,"SYN08072306 32766 61803 10267 20189 39976 40125 53011 92351 333 10322 20172 555 90800=","FM-12","4",,,,,,,,,,,,,,,,,,,,,,,,,,,,"2009-07-08"
"72306013722","2019-09-07T19:51:00","FM-15","7",,,,,,,,,,,,,,,,,,,,,,,,,,,,,,,,,,,,,,"29.93","69","73","0.00",,,,"87","29.92","FEW:02 55 BKN:07 250","29.46","10.00","70","040",,"3",,,,,,,,,,,,,,,,,,,,,,,,,,,,,,,,,,,,,"MET10209/07/19 19:51:01 METAR KRDU 080051Z 04003KT 10SM FEW055 BKN250 23/21 A2993 RMK AO2 SLP131 T02280206 $","FM-15","7",,,,,,,,,,,,,,,,,,,,,,,,,,,,"2009-07-08"
"72306013722","2019-09-07T20:51:00","FM-15","7",,,,,,,,,,,,,,,,,,,,,,,,,,,,,,,,,,,,,,"29.95","67","75","0.00",,,,"76","29.93","BKN:07 75 BKN:07 250","29.48","10.00","70","050",,"3",,,,,,,,,,,,,,,,,,,,,,,,,,,,,,,,,,,,,"MET10209/07/19 20:51:01 METAR KRDU 080151Z 05003KT 10SM BKN075 BKN250 24/19 A2995 RMK AO2 SLP136 T02390194 $","FM-15","7",,,,,,,,,,,,,,,,,,,,,,,,,,,,"2009-07-08"
"72306013722","2019-09-07T21:51:00","FM-15","7",,,,,,,,,,,,,,,,,,,,,,,,,,,,,,,,,,,,,,"29.96","65","75","0.00",,"-0.04","1","71","29.94","BKN:07 75 BKN:07 250","29.49","10.00","69","000",,"0",,,,,,,,,,,,,,,,,,,,,,,,,,,,,,,,,,,,,"MET10809/07/19 21:51:01 METAR KRDU 080251Z 00000KT 10SM BKN075 BKN250 24/18 A2996 RMK AO2 SLP139 T02390183 51015 $","FM-15","7",,,,,,,,,,,,,,,,,,,,,,,,,,,,"2009-07-08"
"72306013722","2019-09-07T22:51:00","FM-15","7",,,,,,,,,,,,,,,,,,,,,,,,,,,,,,,,,,,,,,"29.96","66","73","0.00",,,,"79","29.95","FEW:02 85 SCT:04 250","29.49","10.00","68","000",,"0",,,,,,,,,,,,,,,,,,,,,,,,,,,,,,,,,,,,,"MET10209/07/19 22:51:01 METAR KRDU 080351Z 00000KT 10SM FEW085 SCT250 23/19 A2996 RMK AO2 SLP141 T02280189 $","FM-15","7",,,,,,,,,,,,,,,,,,,,,,,,,,,,"2009-07-08"
"72306013722","2019-09-07T23:51:00","FM-15","7",,,,,,,,,,,,,,,,,,,,,,,,,,,,,,,,,,,,,,"29.97","66","72","0.00",,,,"82","29.96","FEW:02 85 FEW:02 250","29.50","10.00","68","000",,"0",,,,,,,,,,,,,,,,,,,,,,,,,,,,,,,,,,,,,"MET11209/07/19 23:51:01 METAR KRDU 080451Z 00000KT 10SM FEW085 FEW250 22/19 A2997 RMK AO2 SLP144 T02220189 403220172 $","FM-15","7",,,,,,,,,,,,,,,,,,,,,,,,,,,,"2009-07-08"
"72306013722","2019-09-07T23:59:00","SOD  ","6",,,,,,,,,,,,,,,"64","77","67","29.89","29.42","68","3.5","12","1.9","0","90","63","020","16","0.00","0","0.0","250","13",,,,,,,,,,,,,,,,,,,,,,,,,,,,,,,,,,,,,,,,,,,,,,,,,,,,,,,,,"SOD73924 HR PRECIPITATION (IN): 0.00 SNOW DEPTH (IN):0     24 HR SNOWFALL (IN):0.0  24 HR MAX TEMP (F): 9024 HR MIN TEMP (F): 63AVERAGE STATION PRESSURE:29.425 MINIMUM SEA LEVEL PRESSURE:29.83 TIME OF OCCURRENCE:0158 PEAK WIND SPEED (MPH): 16 PEAK WIND DIR (DEG): 20 PEAK WIND TIME (LST):      FASTEST 2MIN SPEED (MPH): 13FASTEST 2MIN DIR (DEG):250 FASTEST 2MIN TIME (LST):     AVERAGE WIND SPEED (MPH): 3.5 24 HR AVG TEMP (F): 77DEPART FROM NORMAL:  2  HEATING DEGREE DAYS:  0 COOLING DEGREE DAYS: 12 LATEST DAY MAX TEMP (0700-1900 LST):90  LATEST NIGHT MIN TEMP(1900-0800 LST):63 HOURLY INCREMENTAL PRECIPITATION VALUES (IN):.00 0.00 0.00 0.00 0.00 0.00 0.00 0.00 0.00 0.00 0.00 0.00 0.00 0.00 0.00 0.00 0.00 0.00 0.00 0.00 0.00 0.00 0.00 0.00","SOD  ","6",,,,,,,,,,,,,,,,,,,,,,,,,"0551","1834",,"2009-07-08"
"72306013722","2019-09-08T00:51:00","FM-15","7",,,,,,,,,,,,,,,,,,,,,,,,,,,,,,,,,,,,,,"29.99","65","68","0.00",,"-0.03","3","90","29.97","FEW:02 80 FEW:02 250","29.52","10.00","66","000",,"0",,,,,,,,,,,,,,,,,,,,,,,,,,,,,,,,,,,,,"MET12609/08/19 00:51:02 METAR KRDU 080551Z 00000KT 10SM FEW080 FEW250 20/18 A2999 RMK AO2 SLP149 T02000183 10261 20200 53009 $ (SMK)","FM-15","7",,,,,,,,,,,,,,,,,,,,,,,,,,,,"2009-07-08"
"72306013722","2019-09-08T01:00:00","FM-12","4",,,,,,,,,,,,,,,,,,,,,,,,,,,,,,,,,,,,,,,"65","68",,,"-0.03","3","90","29.97","74","29.53","9.94","66","000",,"0",,,,,,,,,,,,,,,,,,,,,,,,,,,,,,,,,,,,,"SYN08072306 32866 20000 10200 20183 30000 40149 53009 90551 333 10261 20172 555 90806=","FM-12","4",,,,,,,,,,,,,,,,,,,,,,,,,,,,"2009-07-08"
"72306013722","2019-09-08T01:51:00","FM-15","7",,,,,,,,,,,,,,,,,,,,,,,,,,,,,,,,,,,,,,"29.98","66","69","0.00",,,,"90","29.96","SCT:04 60 BKN:07 80","29.51","10.00","67","000",,"0",,,,,,,,,,,,,,,,,,,,,,,,,,,,,,,,,,,,,"MET10809/08/19 01:51:02 METAR KRDU 080651Z 00000KT 10SM SCT060 BKN080 21/19 A2998 RMK AO2 SLP147 T02060189 $ (SMK)","FM-15","7",,,,,,,,,,,,,,,,,,,,,,,,,,,,"2009-07-08"
"72306013722","2019-09-08T02:51:00","FM-15","7",,,,,,,,,,,,,,,,,,,,,,,,,,,,,,,,,,,,,,"29.97","65","68","0.00",,,,"90","29.95","FEW:02 60 SCT:04 85","29.50","10.00","66","360",,"3",,,,,,,,,,,,,,,,,,,,,,,,,,,,,,,,,,,,,"MET10809/08/19 02:51:02 METAR KRDU 080751Z 36003KT 10SM FEW060 SCT085 20/18 A2997 RMK AO2 SLP143 T02000183 $ (SMK)","FM-15","7",,,,,,,,,,,,,,,,,,,,,,,,,,,,"2009-07-08"
"72306013722","2019-09-08T03:51:00","FM-15","7",,,,,,,,,,,,,,,,,,,,,,,,,,,,,,,,,,,,,,"29.98","63","69","0.00",,"+0.01","5","81","29.96","FEW:02 60 SCT:04 90 BKN:07 250","29.51","10.00","65","010",,"3",,,,,,,,,,,,,,,,,,,,,,,,,,,,,,,,,,,,,"MET12109/08/19 03:51:02 METAR KRDU 080851Z 01003KT 10SM FEW060 SCT090 BKN250 21/17 A2998 RMK AO2 SLP145 T02060172 55003 $ (SMK)","FM-15","7",,,,,,,,,,,,,,,,,,,,,,,,,,,,"2009-07-08"
"72306013722","2019-09-08T04:51:00","FM-15","7",,,,,,,,,,,,,,,,,,,,,,,,,,,,,,,,,,,,,,"29.99","62","67","0.00",,,,"84","29.98","FEW:02 60 FEW:02 85 SCT:04 250","29.52","10.00","64","060",,"3",,,,,,,,,,,,,,,,,,,,,,,,,,,,,,,,,,,,,"MET11509/08/19 04:51:02 METAR KRDU 080951Z 06003KT 10SM FEW060 FEW085 SCT250 19/17 A2999 RMK AO2 SLP151 T01940167 $ (SMK)","FM-15","7",,,,,,,,,,,,,,,,,,,,,,,,,,,,"2009-07-08"
"72306013722","2019-09-08T05:51:00","FM-15","7",,,,,,,,,,,,,,,,,,,,,,,,,,,,,,,,,,,,,,"30.00","63","68","0.00",,,,"84","29.99","FEW:02 60 FEW:02 85 SCT:04 250","29.53","10.00","65","020",,"3",,,,,,,,,,,,,,,,,,,,,,,,,,,,,,,,,,,,,"MET11509/08/19 05:51:02 METAR KRDU 081051Z 02003KT 10SM FEW060 FEW085 SCT250 20/17 A3000 RMK AO2 SLP155 T02000172 $ (SMK)","FM-15","7",,,,,,,,,,,,,,,,,,,,,,,,,,,,"2009-07-08"
"72306013722","2019-09-08T06:51:00","FM-15","7",,,,,,,,,,,,,,,,,,,,,,,,,,,,,,,,,,,,,,"30.02","64","69","0.00",,"-0.04","3","84","30.01","FEW:02 90 SCT:04 250","29.55","10.00","66","040",,"6",,,,,,,,,,,,,,,,,,,,,,,,,,,,,,,,,,,,,"MET12509/08/19 06:51:02 METAR KRDU 081151Z 04005KT 10SM FEW090 SCT250 21/18 A3002 RMK AO2 SLP161 T02060178 10217 20189 53015 $ (RP)","FM-15","7",,,,,,,,,,,,,,,,,,,,,,,,,,,,"2009-07-08"
"72306013722","2019-09-08T07:00:00","FM-12","4",,,,,,,,,,,,,,,,,,,,,,,,,,,,,,,,,,,,,,,"64","69",,,"-0.04","3","84","30.01",,"29.56","9.94","66","040",,"6",,,,,,,,,,,,,,,,,,,,,,,,,,,,,,,,,,,,,"SYN08072306 32966 40405 10206 20178 30010 40161 53015 91151 333 10322 20189 555 90812=","FM-12","4",,,,,,,,,,,,,,,,,,,,,,,,,,,,"2009-07-08"
"72306013722","2019-09-08T07:51:00","FM-15","7",,,,,,,,,,,,,,,,,,,,,,,,,,,,,,,,,,,,,,"30.03","66","75","0.00",,,,"74","30.01","FEW:02 80","29.56","10.00","69","040",,"7",,,,,,,,,,,,,,,,,,,,,,,,,,,,,,,,,,,,,"MET10009/08/19 07:51:02 METAR KRDU 081251Z 04006KT 10SM FEW080 24/19 A3003 RMK AO2 SLP163 T02390189 $ (RP)","FM-15","7",,,,,,,,,,,,,,,,,,,,,,,,,,,,"2009-07-08"
"72306013722","2019-09-08T08:51:00","FM-15","7",,,,,,,,,,,,,,,,,,,,,,,,,,,,,,,,,,,,,,"30.04","69","78","0.00",,,,"74","30.03","SCT:04 85","29.57","10.00","72","060",,"3",,,,,,,,,,,,,,,,,,,,,,,,,,,,,,,,,,,,,"MET10009/08/19 08:51:02 METAR KRDU 081351Z 06003KT 10SM SCT085 26/21 A3004 RMK AO2 SLP169 T02560206 $ (RP)","FM-15","7",,,,,,,,,,,,,,,,,,,,,,,,,,,,"2009-07-08"
"72306013722","2019-09-08T09:51:00","FM-15","7",,,,,,,,,,,,,,,,,,,,,,,,,,,,,,,,,,,,,,"30.05","70","80","0.00",,"-0.04","3","71","30.04","FEW:02 12 SCT:04 85","29.58","10.00","73","060",,"5",,,,,,,,,,,,,,,,,,,,,,,,,,,,,,,,,,,,,"MET11309/08/19 09:51:02 METAR KRDU 081451Z 06004KT 10SM FEW012 SCT085 27/21 A3005 RMK AO2 SLP172 T02670211 53012 $ (RP)","FM-15","7",,,,,,,,,,,,,,,,,,,,,,,,,,,,"2009-07-08"
"72306013722","2019-09-08T10:51:00","FM-15","7",,,,,,,,,,,,,,,,,,,,,,,,,,,,,,,,,,,,,,"30.04","70","83","0.00",,,,"65","30.03","FEW:02 20 FEW:02 85","29.57","10.00","74","080",,"5",,,,,,,,,,,,,,,,,,,,,,,,,,,,,,,,,,,,,"MET10709/08/19 10:51:02 METAR KRDU 081551Z 08004KT 10SM FEW020 FEW085 28/21 A3004 RMK AO2 SLP168 T02830211 $ (RP)","FM-15","7",,,,,,,,,,,,,,,,,,,,,,,,,,,,"2009-07-08"
"72306013722","2019-09-08T11:51:00","FM-15","7",,,,,,,,,,,,,,,,,,,,,,,,,,,,,,,,,,,,,,"30.03","70","85","0.00",,,,"61","30.01","FEW:02 30 FEW:02 70","29.56","10.00","75","120",,"5",,,,,,,,,,,,,,,,,,,,,,,,,,,,,,,,,,,,,"MET10709/08/19 11:51:02 METAR KRDU 081651Z 12004KT 10SM FEW030 FEW070 29/21 A3003 RMK AO2 SLP163 T02940211 $ (RP)","FM-15","7",,,,,,,,,,,,,,,,,,,,,,,,,,,,"2009-07-08"
"72306013722","2019-09-08T12:51:00","FM-15","7",,,,,,,,,,,,,,,,,,,,,,,,,,,,,,,,,,,,,,"30.01","73","86","0.00",,"+0.04","8","65","30.00","SCT:04 30","29.54","10.00","77","VRB",,"7",,,,,,,,,,,,,,,,,,,,,,,,,,,,,,,,,,,,,"MET11809/08/19 12:51:02 METAR KRDU 081751Z VRB06KT 10SM SCT030 30/23 A3001 RMK AO2 SLP159 T03000228 10306 20206 58014 $ (RP)","FM-15","7",,,,,,,,,,,,,,,,,,,,,,,,,,,,"2009-07-08"
"72306013722","2019-09-08T13:00:00","FM-12","4",,,,,,,,,,,,,,,,,,,,,,,,,,,,,,,,,,,,,,,"73","86",,,"+0.04","8","65","30.00","26","29.55","9.94","77",,,"7",,,,,,,,,,,,,,,,,,,,,,,,,,,,,,,,,,,,,"SYN08072306 32566 4//06 10300 20228 30007 40159 58014 91751 333 10306 20206 555 90818=","FM-12","4",,,,,,,,,,,,,,,,,,,,,,,,,,,,"2009-07-08"
"72306013722","2019-09-08T13:51:00","FM-15","7",,,,,,,,,,,,,,,,,,,,,,,,,,,,,,,,,,,,,,"30.01","72","87","0.00",,,,"61","29.99","SCT:04 28","29.54","10.00","77","110",,"6",,,,,,,,,,,,,,,,,,,,,,,,,,,,,,,,,,,,,"MET10009/08/19 13:51:02 METAR KRDU 081851Z 11005KT 10SM SCT028 31/22 A3001 RMK AO2 SLP156 T03060222 $ (RP)","FM-15","7",,,,,,,,,,,,,,,,,,,,,,,,,,,,"2009-07-08"
"72306013722","2019-09-08T14:51:00","FM-15","7",,,,,,,,,,,,,,,,,,,,,,,,,,,,,,,,,,,,,,"30.00","72","88","0.00",,,,"59","29.98","SCT:04 32","29.53","10.00","77","120",,"8",,,,,,,,,,,,,,,,,,,,,,,,,,,,,,,,,,,,,"MET10009/08/19 14:51:02 METAR KRDU 081951Z 12007KT 10SM SCT032 31/22 A3000 RMK AO2 SLP154 T03110222 $ (HA)","FM-15","7",,,,,,,,,,,,,,,,,,,,,,,,,,,,"2009-07-08"
"72306013722","2019-09-08T15:51:00","FM-15","7",,,,,,,,,,,,,,,,,,,,,,,,,,,,,,,,,,,,,,"29.99","71","88","0.00",,"+0.02","6","57","29.98","SCT:04 35","29.52","10.00","76","140",,"3",,,,,,,,,,,,,,,,,,,,,,,,,,,,,,,,,,,,,"MET11709/08/19 15:51:02 METAR KRDU 082051Z 14003KT 10SM SCT035 31/22 A2999 RMK AO2 SLP151 TCU DSNT S T03110217 56007 $ (HA)","FM-15","7",,,,,,,,,,,,,,,,,,,,,,,,,,,,"2009-07-08"
"72306013722","2019-09-08T16:51:00","FM-15","7",,,,,,,,,,,,,,,,,,,,,,,,,,,,,,,,,,,,,,"29.97","72","87","0.00",,,,"61","29.96","SCT:04 45","29.50","10.00","77","150",,"6",,,,,,,,,,,,,,,,,,,,,,,,,,,,,,,,,,,,,"MET11209/08/19 16:51:02 METAR KRDU 082151Z 15005KT 10SM SCT045 31/22 A2997 RMK AO2 SLP145 TCU DSNT SE T03060222 $ (HA)","FM-15","7",,,,,,,,,,,,,,,,,,,,,,,,,,,,"2009-07-08"
"72306013722","2019-09-08T17:51:00","FM-15","7",,,,,,,,,,,,,,,,,,,,,,,,,,,,,,,,,,,,,,"30.00","71","87","0.00",,,,"59","29.98","FEW:02 40 SCT:04 65","29.53","10.00","76","VRB",,"3",,,,,,,,,,,,,,,,,,,,,,,,,,,,,,,,,,,,,"MET10709/08/19 17:51:02 METAR KRDU 082251Z VRB03KT 10SM FEW040 SCT065 31/22 A3000 RMK AO2 SLP154 T03060217 $ (HA)","FM-15","7",,,,,,,,,,,,,,,,,,,,,,,,,,,,"2009-07-08"
"72306013722","2019-09-08T18:51:00","FM-15","7",,,,,,,,,,,,,,,,,,,,,,,,,,,,,,,,,,,,,,"30.03","73","82","0.00",,"-0.04","3","74","30.01","FEW:02 50 SCT:04 70","29.56","10.00","76","050",,"3",,,,,,,,,,,,,,,,,,,,,,,,,,,,,,,,,,,,,"MET12509/08/19 18:51:02 METAR KRDU 082351Z 05003KT 10SM FEW050 SCT070 28/23 A3003 RMK AO2 SLP164 T02780228 10317 20278 53012 $ (HA)","FM-15","7",,,,,,,,,,,,,,,,,,,,,,,,,,,,"2009-07-08"
"72306013722","2019-09-08T19:00:00","FM-12","4",,,,,,,,,,,,,,,,,,,,,,,,,,,,,,,,,,,,,,,"73","82",,,"-0.04","3","74","30.01","57","29.57","9.94","76","050",,"3",,,,,,,,,,,,,,,,,,,,,,,,,,,,,,,,,,,,,"SYN08072306 32766 40503 10278 20228 30013 40164 53012 92351 333 10317 20189 555 90900=","FM-12","4",,,,,,,,,,,,,,,,,,,,,,,,,,,,"2009-07-08"
"72306013722","2019-09-08T19:51:00","FM-15","7",,,,,,,,,,,,,,,,,,,,,,,,,,,,,,,,,,,,,,"30.03","74","80","0.00",,,,"82","30.02","FEW:02 70","29.56","10.00","76","000",,"0",,,,,,,,,,,,,,,,,,,,,,,,,,,,,,,,,,,,,"MET09509/08/19 19:51:01 METAR KRDU 090051Z 00000KT 10SM FEW070 27/23 A3003 RMK AO2 SLP165 T02670233 $","FM-15","7",,,,,,,,,,,,,,,,,,,,,,,,,,,,"2009-07-08"
"72306013722","2019-09-08T20:51:00","FM-15","7",,,,,,,,,,,,,,,,,,,,,,,,,,,,,,,,,,,,,,"30.04","73","77","0.00",,,,"88","30.03","FEW:02 70","29.57","8.00","74","000",,"0",,,,,,,,,,,,,,,,,,,,,,,,,,,,,,,,,,,,,"MET09409/08/19 20:51:01 METAR KRDU 090151Z 00000KT 8SM FEW070 25/23 A3004 RMK AO2 SLP169 T02500228 $","FM-15","7",,,,,,,,,,,,,,,,,,,,,,,,,,,,"2009-07-08"
"72306013722","2019-09-08T21:51:00","FM-15","7",,,,,,,,,,,,,,,,,,,,,,,,,,,,,,,,,,,,,,"30.06","74","79","0.00",,"-0.03","3","85","30.04","FEW:02 70","29.59","8.00","76","080",,"5",,,,,,,,,,,,,,,,,,,,,,,,,,,,,,,,,,,,,"MET10009/08/19 21:51:01 METAR KRDU 090251Z 08004KT 8SM FEW070 26/23 A3006 RMK AO2 SLP174 T02610233 53011 $","FM-15","7",,,,,,,,,,,,,,,,,,,,,,,,,,,,"2009-07-08"
"72306013722","2019-09-08T22:51:00","FM-15","7",,,,,,,,,,,,,,,,,,,,,,,,,,,,,,,,,,,,,,"30.07","74","78","0.00",,,,"87","30.05","FEW:02 70","29.60","8.00","75","110",,"5",,,,,,,,,,,,,,,,,,,,,,,,,,,,,,,,,,,,,"MET09409/08/19 22:51:01 METAR KRDU 090351Z 11004KT 8SM FEW070 26/23 A3007 RMK AO2 SLP175 T02560233 $","FM-15","7",,,,,,,,,,,,,,,,,,,,,,,,,,,,"2009-07-08"
"72306013722","2019-09-08T23:51:00","FM-15","7",,,,,,,,,,,,,,,,,,,,,,,,,,,,,,,,,,,,,,"30.07","73","77","0.00",,,,"88","30.05","FEW:02 250","29.60","8.00","74","120",,"6",,,,,,,,,,,,,,,,,,,,,,,,,,,,,,,,,,,,,"MET10409/08/19 23:51:01 METAR KRDU 090451Z 12005KT 8SM FEW250 25/23 A3007 RMK AO2 SLP175 T02500228 403170189 $","FM-15","7",,,,,,,,,,,,,,,,,,,,,,,,,,,,"2009-07-08"
"72306013722","2019-09-08T23:59:00","SOD  ","6",,,,,,,,,,,,,,,"69","78","75","30.00","29.54","72","4.0","13","3.2","0","89","66","110","15","0.00","0","0.0","140","10",,,,,,,,,,,,,,,,,,,,,,,,,,,,,,,,,,,,,,,,,,,,,,,,,,,,,,,,,"SOD73924 HR PRECIPITATION (IN): 0.00 SNOW DEPTH (IN):0     24 HR SNOWFALL (IN):0.0  24 HR MAX TEMP (F): 8924 HR MIN TEMP (F): 66AVERAGE STATION PRESSURE:29.535 MINIMUM SEA LEVEL PRESSURE:29.95 TIME OF OCCURRENCE:0342 PEAK WIND SPEED (MPH): 15 PEAK WIND DIR (DEG):110 PEAK WIND TIME (LST):      FASTEST 2MIN SPEED (MPH): 10FASTEST 2MIN DIR (DEG):140 FASTEST 2MIN TIME (LST):     AVERAGE WIND SPEED (MPH): 4.0 24 HR AVG TEMP (F): 78DEPART FROM NORMAL:  4  HEATING DEGREE DAYS:  0 COOLING DEGREE DAYS: 13 LATEST DAY MAX TEMP (0700-1900 LST):89  LATEST NIGHT MIN TEMP(1900-0800 LST):66 HOURLY INCREMENTAL PRECIPITATION VALUES (IN):.00 0.00 0.00 0.00 0.00 0.00 0.00 0.00 0.00 0.00 0.00 0.00 0.00 0.00 0.00 0.00 0.00 0.00 0.00 0.00 0.00 0.00 0.00 0.00","SOD  ","6",,,,,,,,,,,,,,,,,,,,,,,,,"0552","1833",,"2009-07-08"
"72306013722","2019-09-09T00:51:00","FM-15","7",,,,,,,,,,,,,,,,,,,,,,,,,,,,,,,,,,,,,,"30.06","73","76","0.00",,"-0.00","0","91","30.05","FEW:02 250","29.59","7.00","74","120",,"3",,,,,,,,,,,,,,,,,,,,,,,,,,,,,,,,,,,,,"MET11809/09/19 00:51:02 METAR KRDU 090551Z 12003KT 7SM FEW250 24/23 A3006 RMK AO2 SLP175 T02440228 10278 20233 50001 $ (SMK)","FM-15","7",,,,,,,,,,,,,,,,,,,,,,,,,,,,"2009-07-08"
"72306013722","2019-09-09T01:00:00","FM-12","4",,,,,,,,,,,,,,,,,,,,,,,,,,,,,,,,,,,,,,,"73","76",,,"0.00","9","91","30.05",,"29.60","6.84","74","120",,"3",,,,,,,,,,,,,,,,,,,,,,,,,,,,,,,,,,,,,"SYN08072306 32961 21203 10244 20228 30023 40175 50001 90551 333 10278 20189 555 90906=","FM-12","4",,,,,,,,,,,,,,,,,,,,,,,,,,,,"2009-07-08"
"72306013722","2019-09-09T01:51:00","FM-15","7",,,,,,,,,,,,,,,,,,,,,,,,,,,,,,,,,,,,,,"30.06","72","74","0.00",,,,"94","30.04","SCT:04 170 SCT:04 250","29.59","8.00","73","000",,"0",,,,,,,,,,,,,,,,,,,,,,,,,,,,,,,,,,,,,"MET10709/09/19 01:51:02 METAR KRDU 090651Z 00000KT 8SM SCT170 SCT250 23/22 A3006 RMK AO2 SLP174 T02330222 $ (SMK)","FM-15","7",,,,,,,,,,,,,,,,,,,,,,,,,,,,"2009-07-08"
"72306013722","2019-09-09T02:51:00","FM-15","7",,,,,,,,,,,,,,,,,,,,,,,,,,,,,,,,,,,,,,"30.07","72","73","0.00",,,,"96","30.05","SCT:04 170 SCT:04 250","29.60","8.00","72","000",,"0",,,,,,,,,,,,,,,,,,,,,,,,,,,,,,,,,,,,,"MET10709/09/19 02:51:02 METAR KRDU 090751Z 00000KT 8SM SCT170 SCT250 23/22 A3007 RMK AO2 SLP176 T02280222 $ (SMK)","FM-15","7",,,,,,,,,,,,,,,,,,,,,,,,,,,,"2009-07-08"
"72306013722","2019-09-09T03:51:00","FM-15","7",,,,,,,,,,,,,,,,,,,,,,,,,,,,,,,,,,,,,,"30.08","73","74","0.00","BR:1 ||","-0.01","3","97","30.06","SCT:04 12 BKN:07 170 BKN:07 250","29.61","6.00","73","130",,"3",,,,,,,,,,,,,,,,,,,,,,,,,,,,,,,,,,,,,"MET12309/09/19 03:51:02 METAR KRDU 090851Z 13003KT 6SM BR SCT012 BKN170 BKN250 23/23 A3008 RMK AO2 SLP179 T02330228 53004 $ (SMK)","FM-15","7",,,,,,,,,,,,,,,,,,,,,,,,,,,,"2009-07-08"
"72306013722","2019-09-09T04:20:00","FM-16","7",,,,,,,,,,,,,,,,,,,,,,,,,,,,,,,,,,,,,,"30.08","73","75",,"BR:1 ||",,,"94",,"BKN:07 11 OVC:08 170","29.61","6.00","74","000",,"0",,,,,,,,,,,,,,,,,,,,,,,,,,,,,,,,,,,,,"MET10309/09/19 04:20:02 SPECI KRDU 090920Z 00000KT 6SM BR BKN011 OVC170 24/23 A3008 RMK AO2 T02390228 $ (SMK)","FM-16","7",,,,,,,,,,,,,,,,,,,,,,,,,,,,"2009-07-08"
"72306013722","2019-09-09T04:51:00","FM-15","7",,,,,,,,,,,,,,,,,,,,,,,,,,,,,,,,,,,,,,"30.09","73","75","0.00","BR:1 ||",,,"94","30.07","OVC:08 9","29.62","6.00","74","000",,"0",,,,,,,,,,,,,,,,,,,,,,,,,,,,,,,,,,,,,"MET10309/09/19 04:51:02 METAR KRDU 090951Z 00000KT 6SM BR OVC009 24/23 A3009 RMK AO2 SLP183 T02390228 $ (SMK)","FM-15","7",,,,,,,,,,,,,,,,,,,,,,,,,,,,"2009-07-08"
"72306013722","2019-09-09T05:51:00","FM-15","7",,,,,,,,,,,,,,,,,,,,,,,,,,,,,,,,,,,,,,"30.11","74","75","0.00",,,,"96","30.09","OVC:08 8","29.64","7.00","74","000",,"0",,,,,,,,,,,,,,,,,,,,,,,,,,,,,,,,,,,,,"MET10009/09/19 05:51:02 METAR KRDU 091051Z 00000KT 7SM OVC008 24/23 A3011 RMK AO2 SLP191 T02390233 $ (SMK)","FM-15","7",,,,,,,,,,,,,,,,,,,,,,,,,,,,"2009-07-08"
"72306013722","2019-09-09T06:51:00","FM-15","7",,,,,,,,,,,,,,,,,,,,,,,,,,,,,,,,,,,,,,"30.13","73","76","0.00","BR:1 ||","-0.06","3","91","30.11","BKN:07 8 OVC:08 12","29.66","6.00","74","000",,"0",,,,,,,,,,,,,,,,,,,,,,,,,,,,,,,,,,,,,"MET12809/09/19 06:51:02 METAR KRDU 091151Z 00000KT 6SM BR BKN008 OVC012 24/23 A3013 RMK AO2 SLP198 T02440228 10244 20228 53019 $ (SMK)","FM-15","7",,,,,,,,,,,,,,,,,,,,,,,,,,,,"2009-07-08"
"72306013722","2019-09-09T07:00:00","FM-12","4",,,,,,,,,,,,,,,,,,,,,,,,,,,,,,,,,,,,,,,"73","76",,,"-0.06","3","91","30.11","8","29.67","5.59","74","000",,"0",,,,,,,,,,,,,,,,,,,,,,,,,,,,,,,,,,,,,"SYN08672306 31359 80000 10244 20228 30047 40198 53019 710// 91151 333 10317 20228 555 90912=","FM-12","4",,,,,,,,,,,,,,,,,,,,,,,,,,,,"2009-07-08"
"72306013722","2019-09-09T07:21:00","FM-16","7",,,,,,,,,,,,,,,,,,,,,,,,,,,,,,,,,,,,,,"30.14","73","76",,,,,"91",,"BKN:07 10 OVC:08 14","29.67","7.00","74","020",,"5",,,,,,,,,,,,,,,,,,,,,,,,,,,,,,,,,,,,,"MET10009/09/19 07:21:02 SPECI KRDU 091221Z 02004KT 7SM BKN010 OVC014 24/23 A3014 RMK AO2 T02440228 $ (KAH)","FM-16","7",,,,,,,,,,,,,,,,,,,,,,,,,,,,"2009-07-08"
"72306013722","2019-09-09T07:51:00","FM-15","7",,,,,,,,,,,,,,,,,,,,,,,,,,,,,,,,,,,,,,"30.16","73","76","0.00",,,,"91","30.14","SCT:04 7 OVC:08 14","29.69","7.00","74","VRB",,"3",,,,,,,,,,,,,,,,,,,,,,,,,,,,,,,,,,,,,"MET10709/09/19 07:51:02 METAR KRDU 091251Z VRB03KT 7SM SCT007 OVC014 24/23 A3016 RMK AO2 SLP207 T02440228 $ (KAH)","FM-15","7",,,,,,,,,,,,,,,,,,,,,,,,,,,,"2009-07-08"
"72306013722","2019-09-09T08:34:00","FM-16","7",,,,,,,,,,,,,,,,,,,,,,,,,,,,,,,,,,,,,,"30.17","74","77",,,,,"90",,"SCT:04 6 OVC:08 15","29.70","7.00","75","000",,"0",,,,,,,,,,,,,,,,,,,,,,,,,,,,,,,,,,,,,"MET11009/09/19 08:34:02 SPECI KRDU 091334Z 00000KT 7SM SCT006 OVC015 25/23 A3017 RMK AO2 SCT V BKN T02500233 $ (KAH)","FM-16","7",,,,,,,,,,,,,,,,,,,,,,,,,,,,"2009-07-08"
"72306013722","2019-09-09T08:51:00","FM-15","7",,,,,,,,,,,,,,,,,,,,,,,,,,,,,,,,,,,,,,"30.17","74","78","0.00",,,,"87","30.16","BKN:07 7 OVC:08 15","29.70","7.00","75","VRB",,"3",,,,,,,,,,,,,,,,,,,,,,,,,,,,,,,,,,,,,"MET10509/09/19 08:51:02 METAR KRDU 091351Z VRB03KT 7SM BKN007 OVC015 26/23 A3017 RMK AO2 SLP212 T02560233 (KAH)","FM-15","7",,,,,,,,,,,,,,,,,,,,,,,,,,,,"2009-07-08"
"72306013722","2019-09-09T09:51:00","FM-15","7",,,,,,,,,,,,,,,,,,,,,,,,,,,,,,,,,,,,,,"30.17","73","78","0.00",,"-0.04","1","85","30.16","BKN:07 9 OVC:08 17","29.70","8.00","75","VRB",,"3",,,,,,,,,,,,,,,,,,,,,,,,,,,,,,,,,,,,,"MET11109/09/19 09:51:02 METAR KRDU 091451Z VRB03KT 8SM BKN009 OVC017 26/23 A3017 RMK AO2 SLP212 T02560228 51014 (KAH)","FM-15","7",,,,,,,,,,,,,,,,,,,,,,,,,,,,"2009-07-08"
"72306013722","2019-09-09T10:16:00","FM-16","7",,,,,,,,,,,,,,,,,,,,,,,,,,,,,,,,,,,,,,"30.17","73","79",,,,,"82",,"BKN:07 11 OVC:08 17","29.70","9.00","75","030",,"7",,,,,,,,,,,,,,,,,,,,,,,,,,,,,,,,,,,,,"MET09809/09/19 10:16:02 SPECI KRDU 091516Z 03006KT 9SM BKN011 OVC017 26/23 A3017 RMK AO2 T02610228 (KAH)","FM-16","7",,,,,,,,,,,,,,,,,,,,,,,,,,,,"2009-07-08"
"72306013722","2019-09-09T10:51:00","FM-15","7",,,,,,,,,,,,,,,,,,,,,,,,,,,,,,,,,,,,,,"30.18","73","79","0.00",,,,"82","30.16","BKN:07 11 OVC:08 18","29.71","10.00","75","020",,"8",,,,,,,,,,,,,,,,,,,,,,,,,,,,,,,,,,,,,"MET10609/09/19 10:51:02 METAR KRDU 091551Z 02007KT 10SM BKN011 OVC018 26/23 A3018 RMK AO2 SLP213 T02610228 (KAH)","FM-15","7",,,,,,,,,,,,,,,,,,,,,,,,,,,,"2009-07-08"
"72306013722","2019-09-09T11:51:00","FM-15","7",,,,,,,,,,,,,,,,,,,,,,,,,,,,,,,,,,,,,,"30.18","73","79","0.00",,,,"82","30.16","BKN:07 12 OVC:08 19","29.71","10.00","75","VRB",,"3",,,,,,,,,,,,,,,,,,,,,,,,,,,,,,,,,,,,,"MET10609/09/19 11:51:02 METAR KRDU 091651Z VRB03KT 10SM BKN012 OVC019 26/23 A3018 RMK AO2 SLP215 T02610228 (KAH)","FM-15","7",,,,,,,,,,,,,,,,,,,,,,,,,,,,"2009-07-08"
"72306013722","2019-09-09T12:34:00","FM-16","7",,,,,,,,,,,,,,,,,,,,,,,,,,,,,,,,,,,,,,"30.17","73","79",,,,,"82",,"SCT:04 14 BKN:07 20 BKN:07 250","29.70","10.00","75","090",,"8",,,,,,,,,,,,,,,,,,,,,,,,,,,,,,,,,,,,,"MET10609/09/19 12:34:02 SPECI KRDU 091734Z 09007KT 10SM SCT014 BKN020 BKN250 26/23 A3017 RMK AO2 T02610228 (KAH)","FM-16","7",,,,,,,,,,,,,,,,,,,,,,,,,,,,"2009-07-08"
"72306013722","2019-09-09T12:51:00","FM-15","7",,,,,,,,,,,,,,,,,,,,,,,,,,,,,,,,,,,,,,"30.16","73","81","0.00",,"+0.01","8","77","30.15","SCT:04 16 SCT:04 24 SCT:04 250","29.69","10.00","75","080",,"7",,,,,,,,,,,,,,,,,,,,,,,,,,,,,,,,,,,,,"MET14209/09/19 12:51:02 METAR KRDU 091751Z 08006KT 10SM SCT016 SCT024 SCT250 27/23 A3016 RMK AO2 SLP209 TCU DSNT S T02720228 10278 20244 58003 (KAH)","FM-15","7",,,,,,,,,,,,,,,,,,,,,,,,,,,,"2009-07-08"
"72306013722","2019-09-09T13:00:00","FM-12","4",,,,,,,,,,,,,,,,,,,,,,,,,,,,,,,,,,,,,,,"73","81",,,"+0.01","8","77","30.15","15","29.70","9.94","75","080",,"7",,,,,,,,,,,,,,,,,,,,,,,,,,,,,,,,,,,,,"SYN08072306 32466 40806 10272 20228 30057 40209 58003 91751 333 10278 20244 555 90918=","FM-12","4",,,,,,,,,,,,,,,,,,,,,,,,,,,,"2009-07-08"
"72306013722","2019-09-09T13:24:00","FM-16","7",,,,,,,,,,,,,,,,,,,,,,,,,,,,,,,,,,,,,,"30.16","72","83",,,,,"70",,"BKN:07 24 BKN:07 250","29.69","10.00","75","070",,"5",,,,,,,,,,,,,,,,,,,,,,,,,,,,,,,,,,,,,"MET09909/09/19 13:24:02 SPECI KRDU 091824Z 07004KT 10SM BKN024 BKN250 28/22 A3016 RMK AO2 T02830222 (KAH)","FM-16","7",,,,,,,,,,,,,,,,,,,,,,,,,,,,"2009-07-08"
"72306013722","2019-09-09T13:51:00","FM-15","7",,,,,,,,,,,,,,,,,,,,,,,,,,,,,,,,,,,,,,"30.15","71","83","0.00",,,,"67","30.14","BKN:07 27 BKN:07 250","29.68","10.00","75","000",,"0",,,,,,,,,,,,,,,,,,,,,,,,,,,,,,,,,,,,,"MET10609/09/19 13:51:02 METAR KRDU 091851Z 00000KT 10SM BKN027 BKN250 28/22 A3015 RMK AO2 SLP205 T02830217 (KAH)","FM-15","7",,,,,,,,,,,,,,,,,,,,,,,,,,,,"2009-07-08"
"72306013722","2019-09-09T14:51:00","FM-15","7",,,,,,,,,,,,,,,,,,,,,,,,,,,,,,,,,,,,,,"30.14","71","86","0.00",,,,"61","30.12","SCT:04 29 BKN:07 250","29.67","10.00","76","VRB",,"6",,,,,,,,,,,,,,,,,,,,,,,,,,,,,,,,,,,,,"MET10509/09/19 14:51:02 METAR KRDU 091951Z VRB05KT 10SM SCT029 BKN250 30/22 A3014 RMK AO2 SLP201 T03000217 (HA)","FM-15","7",,,,,,,,,,,,,,,,,,,,,,,,,,,,"2009-07-08"
"72306013722","2019-09-09T15:51:00","FM-15","7",,,,,,,,,,,,,,,,,,,,,,,,,,,,,,,,,,,,,,"30.13","70","86","0.00",,"+0.04","6","59","30.11","FEW:02 35 SCT:04 250","29.66","10.00","75","090",,"5",,,,,,,,,,,,,,,,,,,,,,,,,,,,,,,,,,,,,"MET11109/09/19 15:51:02 METAR KRDU 092051Z 09004KT 10SM FEW035 SCT250 30/21 A3013 RMK AO2 SLP197 T03000211 56012 (HA)","FM-15","7",,,,,,,,,,,,,,,,,,,,,,,,,,,,"2009-07-08"
"72306013722","2019-09-09T16:51:00","FM-15","7",,,,,,,,,,,,,,,,,,,,,,,,,,,,,,,,,,,,,,"30.14","71","85","0.00",,,,"63","30.12","FEW:02 38 SCT:04 250","29.67","10.00","75","090",,"7",,,,,,,,,,,,,,,,,,,,,,,,,,,,,,,,,,,,,"MET10509/09/19 16:51:02 METAR KRDU 092151Z 09006KT 10SM FEW038 SCT250 29/22 A3014 RMK AO2 SLP199 T02940217 (HA)","FM-15","7",,,,,,,,,,,,,,,,,,,,,,,,,,,,"2009-07-08"
"72306013722","2019-09-09T17:51:00","FM-15","7",,,,,,,,,,,,,,,,,,,,,,,,,,,,,,,,,,,,,,"30.15","70","83","0.00",,,,"65","30.14","FEW:02 45 SCT:04 250","29.68","10.00","74","080",,"5",,,,,,,,,,,,,,,,,,,,,,,,,,,,,,,,,,,,,"MET11709/09/19 17:51:02 METAR KRDU 092251Z 08004KT 10SM FEW045 SCT250 28/21 A3015 RMK AO2 SLP205 TCU DSNT SE T02830211 (HA)","FM-15","7",,,,,,,,,,,,,,,,,,,,,,,,,,,,"2009-07-08"
"72306013722","2019-09-09T18:51:00","FM-15","7",,,,,,,,,,,,,,,,,,,,,,,,,,,,,,,,,,,,,,"30.17","72","79","0.00",,"-0.04","3","79","30.16","FEW:02 45 SCT:04 250","29.70","9.00","74","000",,"0",,,,,,,,,,,,,,,,,,,,,,,,,,,,,,,,,,,,,"MET13809/09/19 18:51:02 METAR KRDU 092351Z 00000KT 9SM FEW045 SCT250 26/22 A3017 RMK AO2 SLP213 TCU DSNT E-SE-S T02610222 10300 20256 53015 (HA)","FM-15","7",,,,,,,,,,,,,,,,,,,,,,,,,,,,"2009-07-08"
"72306013722","2019-09-09T19:00:00","FM-12","4",,,,,,,,,,,,,,,,,,,,,,,,,,,,,,,,,,,,,,,"72","79",,,"-0.04","3","79","30.16","41","29.71","8.70","74","000",,"0",,,,,,,,,,,,,,,,,,,,,,,,,,,,,,,,,,,,,"SYN08072306 32664 40000 10261 20222 30060 40213 53015 92351 333 10300 20228 555 91000=","FM-12","4",,,,,,,,,,,,,,,,,,,,,,,,,,,,"2009-07-08"
"72306013722","2019-09-09T19:51:00","FM-15","7",,,,,,,,,,,,,,,,,,,,,,,,,,,,,,,,,,,,,,"30.18","72","77","0.00",,,,"85","30.16","SCT:04 250","29.71","9.00","74","000",,"0",,,,,,,,,,,,,,,,,,,,,,,,,,,,,,,,,,,,,"MET09209/09/19 19:51:01 METAR KRDU 100051Z 00000KT 9SM SCT250 25/22 A3018 RMK AO2 SLP215 T02500222","FM-15","7",,,,,,,,,,,,,,,,,,,,,,,,,,,,"2009-07-08"
"72306013722","2019-09-09T20:51:00","FM-15","7",,,,,,,,,,,,,,,,,,,,,,,,,,,,,,,,,,,,,,"30.21","73","76","0.00",,,,"91","30.20","FEW:02 250","29.74","8.00","74","130",,"5",,,,,,,,,,,,,,,,,,,,,,,,,,,,,,,,,,,,,"MET09209/09/19 20:51:01 METAR KRDU 100151Z 13004KT 8SM FEW250 24/23 A3021 RMK AO2 SLP226 T02440228","FM-15","7",,,,,,,,,,,,,,,,,,,,,,,,,,,,"2009-07-08"
"72306013722","2019-09-09T21:51:00","FM-15","7",,,,,,,,,,,,,,,,,,,,,,,,,,,,,,,,,,,,,,"30.21","72","76","0.00",,"-0.04","0","88","30.19","CLR:00","29.74","9.00","73","100",,"6",,,,,,,,,,,,,,,,,,,,,,,,,,,,,,,,,,,,,"MET09509/09/19 21:51:01 METAR KRDU 100251Z 10005KT 9SM CLR 24/22 A3021 RMK AO2 SLP225 T02440222 50012","FM-15","7",,,,,,,,,,,,,,,,,,,,,,,,,,,,"2009-07-08"
"72306013722","2019-09-09T22:51:00","FM-15","7",,,,,,,,,,,,,,,,,,,,,,,,,,,,,,,,,,,,,,"30.20","71","74","0.00",,,,"91","30.19","CLR:00","29.73","10.00","72","000",,"0",,,,,,,,,,,,,,,,,,,,,,,,,,,,,,,,,,,,,"MET09009/09/19 22:51:02 METAR KRDU 100351Z 00000KT 10SM CLR 23/22 A3020 RMK AO2 SLP222 T02330217","FM-15","7",,,,,,,,,,,,,,,,,,,,,,,,,,,,"2009-07-08"
"72306013722","2019-09-09T23:51:00","FM-15","7",,,,,,,,,,,,,,,,,,,,,,,,,,,,,,,,,,,,,,"30.20","70","72","0.00",,,,"94","30.19","FEW:02 15","29.73","10.00","71","000",,"0",,,,,,,,,,,,,,,,,,,,,,,,,,,,,,,,,,,,,"MET10309/09/19 23:51:02 METAR KRDU 100451Z 00000KT 10SM FEW015 22/21 A3020 RMK AO2 SLP223 T02220211 403000217","FM-15","7",,,,,,,,,,,,,,,,,,,,,,,,,,,,"2009-07-08"
"72306013722","2019-09-09T23:59:00","SOD  ","6",,,,,,,,,,,,,,,"72","79","83","30.13","29.65","74","2.8","14","4.5","0","86","71","110","14","0.00","0","0.0","050","9","BR",,,,,,,,,,,,,,,,,,,,,,,,,,,,,,,,,,,,,,,,,,,,,,,,,,,,,,,,"SOD75624 HR PRECIPITATION (IN): 0.00 SNOW DEPTH (IN):0     24 HR SNOWFALL (IN):0.0  WEATHER(CODE):1  24 HR MAX TEMP (F): 8624 HR MIN TEMP (F): 71AVERAGE STATION PRESSURE:29.655 MINIMUM SEA LEVEL PRESSURE:30.04 TIME OF OCCURRENCE:0203 PEAK WIND SPEED (MPH): 14 PEAK WIND DIR (DEG):110 PEAK WIND TIME (LST):      FASTEST 2MIN SPEED (MPH):  9FASTEST 2MIN DIR (DEG): 50 FASTEST 2MIN TIME (LST):     AVERAGE WIND SPEED (MPH): 2.8 24 HR AVG TEMP (F): 79DEPART FROM NORMAL:  5  HEATING DEGREE DAYS:  0 COOLING DEGREE DAYS: 14 LATEST DAY MAX TEMP (0700-1900 LST):86  LATEST NIGHT MIN TEMP(1900-0800 LST):73 HOURLY INCREMENTAL PRECIPITATION VALUES (IN):.00 0.00 0.00 0.00 0.00 0.00 0.00 0.00 0.00 0.00 0.00 0.00 0.00 0.00 0.00 0.00 0.00 0.00 0.00 0.00 0.00 0.00 0.00 0.00","SOD  ","6",,,,,,,,,,,,,,,,,,,,,,,,,"0553","1831",,"2009-07-08"
"72306013722","2019-09-10T00:37:00","FM-16","7",,,,,,,,,,,,,,,,,,,,,,,,,,,,,,,,,,,,,,"30.23","70","73",,,,,"90",,"FEW:02 7","29.76","10.00","71","080",,"10",,,,,,,,,,,,,,,,,,,,,,,,,,,,,,,,,,,,,"MET09209/10/19 00:37:02 SPECI KRDU 100537Z 08009KT 10SM FEW007 23/21 A3023 RMK AO2 T02280211 (AWB)","FM-16","7",,,,,,,,,,,,,,,,,,,,,,,,,,,,"2009-07-08"
"72306013722","2019-09-10T00:51:00","FM-15","7",,,,,,,,,,,,,,,,,,,,,,,,,,,,,,,,,,,,,,"30.23","70","72","0.00",,"-0.02","3","94","30.22","BKN:07 8","29.76","10.00","71","110",,"10",,,,,,,,,,,,,,,,,,,,,,,,,,,,,,,,,,,,,"MET11709/10/19 00:51:02 METAR KRDU 100551Z 11009KT 10SM BKN008 22/21 A3023 RMK AO2 SLP232 T02220211 10261 20217 53007 (AWB)","FM-15","7",,,,,,,,,,,,,,,,,,,,,,,,,,,,"2009-07-08"
"72306013722","2019-09-10T01:00:00","FM-12","4",,,,,,,,,,,,,,,,,,,,,,,,,,,,,,,,,,,,,,,"70","72",,,"-0.02","3","94","30.22","8","29.77","9.94","71","110",,"10",,,,,,,,,,,,,,,,,,,,,,,,,,,,,,,,,,,,,"SYN08072306 32366 61109 10222 20211 30080 40232 53007 90551 333 10261 20217 555 91006=","FM-12","4",,,,,,,,,,,,,,,,,,,,,,,,,,,,"2009-07-08"
"72306013722","2019-09-10T01:06:00","FM-16","7",,,,,,,,,,,,,,,,,,,,,,,,,,,,,,,,,,,,,,"30.23","69","72",,,,,"91",,"FEW:02 8","29.76","10.00","70","090",,"6",,,,,,,,,,,,,,,,,,,,,,,,,,,,,,,,,,,,,"MET09209/10/19 01:06:02 SPECI KRDU 100606Z 09005KT 10SM FEW008 22/21 A3023 RMK AO2 T02220206 (AWB)","FM-16","7",,,,,,,,,,,,,,,,,,,,,,,,,,,,"2009-07-08"
"72306013722","2019-09-10T01:51:00","FM-15","7",,,,,,,,,,,,,,,,,,,,,,,,,,,,,,,,,,,,,,"30.23","68","71","0.00",,,,"90","30.21","FEW:02 8","29.76","10.00","69","110",,"5",,,,,,,,,,,,,,,,,,,,,,,,,,,,,,,,,,,,,"MET09909/10/19 01:51:02 METAR KRDU 100651Z 11004KT 10SM FEW008 22/20 A3023 RMK AO2 SLP231 T02170200 (AWB)","FM-15","7",,,,,,,,,,,,,,,,,,,,,,,,,,,,"2009-07-08"
"72306013722","2019-09-10T02:20:00","FM-16","7",,,,,,,,,,,,,,,,,,,,,,,,,,,,,,,,,,,,,,"30.24","68","70",,,,,"93",,"OVC:08 6","29.77","10.00","69","000",,"0",,,,,,,,,,,,,,,,,,,,,,,,,,,,,,,,,,,,,"MET09209/10/19 02:20:02 SPECI KRDU 100720Z 00000KT 10SM OVC006 21/20 A3024 RMK AO2 T02110200 (AWB)","FM-16","7",,,,,,,,,,,,,,,,,,,,,,,,,,,,"2009-07-08"
"72306013722","2019-09-10T02:51:00","FM-15","7",,,,,,,,,,,,,,,,,,,,,,,,,,,,,,,,,,,,,,"30.24","69","71","0.00",,,,"94","30.22","OVC:08 4","29.77","8.00","70","140",,"3",,,,,,,,,,,,,,,,,,,,,,,,,,,,,,,,,,,,,"MET09809/10/19 02:51:02 METAR KRDU 100751Z 14003KT 8SM OVC004 22/21 A3024 RMK AO2 SLP234 T02170206 (AWB)","FM-15","7",,,,,,,,,,,,,,,,,,,,,,,,,,,,"2009-07-08"
"72306013722","2019-09-10T03:18:00","FM-16","7",,,,,,,,,,,,,,,,,,,,,,,,,,,,,,,,,,,,,,"30.24","69","71",,,,,"94",,"OVC:08 5","29.77","9.00","70","140",,"3",,,,,,,,,,,,,,,,,,,,,,,,,,,,,,,,,,,,,"MET09109/10/19 03:18:02 SPECI KRDU 100818Z 14003KT 9SM OVC005 22/21 A3024 RMK AO2 T02170206 (AWB)","FM-16","7",,,,,,,,,,,,,,,,,,,,,,,,,,,,"2009-07-08"
"72306013722","2019-09-10T03:51:00","FM-15","7",,,,,,,,,,,,,,,,,,,,,,,,,,,,,,,,,,,,,,"30.24","69","71","0.00",,"-0.01","3","94","30.23","OVC:08 6","29.77","9.00","70","000",,"0",,,,,,,,,,,,,,,,,,,,,,,,,,,,,,,,,,,,,"MET10409/10/19 03:51:02 METAR KRDU 100851Z 00000KT 9SM OVC006 22/21 A3024 RMK AO2 SLP236 T02170206 53005 (AWB)","FM-15","7",,,,,,,,,,,,,,,,,,,,,,,,,,,,"2009-07-08"
"72306013722","2019-09-10T04:25:00","FM-16","7",,,,,,,,,,,,,,,,,,,,,,,,,,,,,,,,,,,,,,"30.26","70","71",,,,,"96",,"SCT:04 6 BKN:07 14","29.79","8.00","70","000",,"0",,,,,,,,,,,,,,,,,,,,,,,,,,,,,,,,,,,,,"MET09809/10/19 04:25:02 SPECI KRDU 100925Z 00000KT 8SM SCT006 BKN014 22/21 A3026 RMK AO2 T02170211 (AWB)","FM-16","7",,,,,,,,,,,,,,,,,,,,,,,,,,,,"2009-07-08"
"72306013722","2019-09-10T04:51:00","FM-15","7",,,,,,,,,,,,,,,,,,,,,,,,,,,,,,,,,,,,,,"30.27","70","72","0.00",,,,"94","30.25","SCT:04 7 BKN:07 15 BKN:07 30","29.80","9.00","71","000",,"0",,,,,,,,,,,,,,,,,,,,,,,,,,,,,,,,,,,,,"MET11209/10/19 04:51:02 METAR KRDU 100951Z 00000KT 9SM SCT007 BKN015 BKN030 22/21 A3027 RMK AO2 SLP245 T02220211 (AWB)","FM-15","7",,,,,,,,,,,,,,,,,,,,,,,,,,,,"2009-07-08"
"72306013722","2019-09-10T05:43:00","FM-16","7",,,,,,,,,,,,,,,,,,,,,,,,,,,,,,,,,,,,,,"30.28","69","71",,,,,"94",,"OVC:08 7","29.81","7.00","70","000",,"0",,,,,,,,,,,,,,,,,,,,,,,,,,,,,,,,,,,,,"MET09109/10/19 05:43:02 SPECI KRDU 101043Z 00000KT 7SM OVC007 22/21 A3028 RMK AO2 T02170206 (AWB)","FM-16","7",,,,,,,,,,,,,,,,,,,,,,,,,,,,"2009-07-08"
"72306013722","2019-09-10T05:51:00","FM-15","7",,,,,,,,,,,,,,,,,,,,,,,,,,,,,,,,,,,,,,"30.29","69","71","0.00","BR:1 ||",,,"94","30.27","BKN:07 7 BKN:07 18 OVC:08 60","29.82","6.00","70","000",,"0",,,,,,,,,,,,,,,,,,,,,,,,,,,,,,,,,,,,,"MET11509/10/19 05:51:02 METAR KRDU 101051Z 00000KT 6SM BR BKN007 BKN018 OVC060 22/21 A3029 RMK AO2 SLP251 T02170206 (AWB)","FM-15","7",,,,,,,,,,,,,,,,,,,,,,,,,,,,"2009-07-08"
"72306013722","2019-09-10T06:38:00","FM-16","7",,,,,,,,,,,,,,,,,,,,,,,,,,,,,,,,,,,,,,"30.30","70","72",,,,,"94",,"SCT:04 8 BKN:07 31 BKN:07 60","29.83","10.00","71","000",,"0",,,,,,,,,,,,,,,,,,,,,,,,,,,,,,,,,,,,,"MET10609/10/19 06:38:02 SPECI KRDU 101138Z 00000KT 10SM SCT008 BKN031 BKN060 22/21 A3030 RMK AO2 T02220211 (KAH)","FM-16","7",,,,,,,,,,,,,,,,,,,,,,,,,,,,"2009-07-08"
"72306013722","2019-09-10T06:51:00","FM-15","7",,,,,,,,,,,,,,,,,,,,,,,,,,,,,,,,,,,,,,"30.30","70","73","0.00",,"-0.06","1","90","30.29","SCT:04 8 BKN:07 31 BKN:07 60","29.83","10.00","71","000",,"0",,,,,,,,,,,,,,,,,,,,,,,,,,,,,,,,,,,,,"MET14109/10/19 06:51:02 METAR KRDU 101151Z 00000KT 10SM SCT008 BKN031 BKN060 23/21 A3030 RMK AO2 SLP257 SCT V BKN T02280211 10228 20211 51019 (KAH)","FM-15","7",,,,,,,,,,,,,,,,,,,,,,,,,,,,"2009-07-08"
"72306013722","2019-09-10T07:00:00","FM-12","4",,,,,,,,,,,,,,,,,,,,,,,,,,,,,,,,,,,,,,,"70","73",,,"-0.06","1","90","30.29","8","29.83","9.94","71","000",,"0",,,,,,,,,,,,,,,,,,,,,,,,,,,,,,,,,,,,,"SYN08072306 32366 60000 10228 20211 30103 40257 51019 91151 333 10300 20211 555 91012=","FM-12","4",,,,,,,,,,,,,,,,,,,,,,,,,,,,"2009-07-08"
"72306013722","2019-09-10T07:51:00","FM-15","7",,,,,,,,,,,,,,,,,,,,,,,,,,,,,,,,,,,,,,"30.31","70","74","0.00",,,,"88","30.29","FEW:02 10 SCT:04 60 SCT:04 75","29.84","10.00","71","060",,"3",,,,,,,,,,,,,,,,,,,,,,,,,,,,,,,,,,,,,"MET11309/10/19 07:51:02 METAR KRDU 101251Z 06003KT 10SM FEW010 SCT060 SCT075 23/21 A3031 RMK AO2 SLP258 T02330211 (KAH)","FM-15","7",,,,,,,,,,,,,,,,,,,,,,,,,,,,"2009-07-08"
"72306013722","2019-09-10T08:51:00","FM-15","7",,,,,,,,,,,,,,,,,,,,,,,,,,,,,,,,,,,,,,"30.32","71","78","0.00",,,,"79","30.31","FEW:02 15 FEW:02 60 SCT:04 70","29.85","10.00","73","040",,"5",,,,,,,,,,,,,,,,,,,,,,,,,,,,,,,,,,,,,"MET11309/10/19 08:51:02 METAR KRDU 101351Z 04004KT 10SM FEW015 FEW060 SCT070 26/22 A3032 RMK AO2 SLP263 T02560217 (KAH)","FM-15","7",,,,,,,,,,,,,,,,,,,,,,,,,,,,"2009-07-08"
"72306013722","2019-09-10T09:51:00","FM-15","7",,,,,,,,,,,,,,,,,,,,,,,,,,,,,,,,,,,,,,"30.32","70","81","0.00",,"-0.01","0","69","30.30","FEW:02 20 FEW:02 70 FEW:02 250","29.85","10.00","74","110",,"3",,,,,,,,,,,,,,,,,,,,,,,,,,,,,,,,,,,,,"MET11909/10/19 09:51:02 METAR KRDU 101451Z 11003KT 10SM FEW020 FEW070 FEW250 27/21 A3032 RMK AO2 SLP260 T02720211 50004 (KAH)","FM-15","7",,,,,,,,,,,,,,,,,,,,,,,,,,,,"2009-07-08"
"72306013722","2019-09-10T10:51:00","FM-15","7",,,,,,,,,,,,,,,,,,,,,,,,,,,,,,,,,,,,,,"30.31","69","83","0.00",,,,"63","30.29","FEW:02 30 FEW:02 250","29.84","10.00","74","050",,"5",,,,,,,,,,,,,,,,,,,,,,,,,,,,,,,,,,,,,"MET10609/10/19 10:51:02 METAR KRDU 101551Z 05004KT 10SM FEW030 FEW250 28/21 A3031 RMK AO2 SLP258 T02830206 (KAH)","FM-15","7",,,,,,,,,,,,,,,,,,,,,,,,,,,,"2009-07-08"
"72306013722","2019-09-10T11:51:00","FM-15","7",,,,,,,,,,,,,,,,,,,,,,,,,,,,,,,,,,,,,,"30.30","67","85","0.00",,,,"55","30.29","SCT:04 36 SCT:04 250","29.83","10.00","73","170",,"5",,,,,,,,,,,,,,,,,,,,,,,,,,,,,,,,,,,,,"MET10609/10/19 11:51:02 METAR KRDU 101651Z 17004KT 10SM SCT036 SCT250 29/19 A3030 RMK AO2 SLP256 T02940194 (KAH)","FM-15","7",,,,,,,,,,,,,,,,,,,,,,,,,,,,"2009-07-08"
"72306013722","2019-09-10T12:51:00","FM-15","7",,,,,,,,,,,,,,,,,,,,,,,,,,,,,,,,,,,,,,"30.29","67","86","0.00",,"+0.02","8","53","30.27","SCT:04 42 SCT:04 250","29.82","10.00","73","VRB",,"3",,,,,,,,,,,,,,,,,,,,,,,,,,,,,,,,,,,,,"MET12409/10/19 12:51:02 METAR KRDU 101751Z VRB03KT 10SM SCT042 SCT250 30/19 A3029 RMK AO2 SLP252 T03000194 10306 20228 58008 (KAH)","FM-15","7",,,,,,,,,,,,,,,,,,,,,,,,,,,,"2009-07-08"
"72306013722","2019-09-10T13:00:00","FM-12","4",,,,,,,,,,,,,,,,,,,,,,,,,,,,,,,,,,,,,,,"67","86",,,"+0.02","8","53","30.27","41","29.83","9.94","73",,,"3",,,,,,,,,,,,,,,,,,,,,,,,,,,,,,,,,,,,,"SYN08072306 32666 4//03 10300 20194 30100 40252 58008 91751 333 10306 20228 555 91018=","FM-12","4",,,,,,,,,,,,,,,,,,,,,,,,,,,,"2009-07-08"
"72306013722","2019-09-10T13:51:00","FM-15","7",,,,,,,,,,,,,,,,,,,,,,,,,,,,,,,,,,,,,,"30.27","66","88","0.00",,,,"48","30.26","SCT:04 46 SCT:04 250","29.80","10.00","73","140",,"8",,,,,,,,,,,,,,,,,,,,,,,,,,,,,,,,,,,,,"MET10609/10/19 13:51:02 METAR KRDU 101851Z 14007KT 10SM SCT046 SCT250 31/19 A3027 RMK AO2 SLP246 T03110189 (KAH)","FM-15","7",,,,,,,,,,,,,,,,,,,,,,,,,,,,"2009-07-08"
"72306013722","2019-09-10T14:51:00","FM-15","7",,,,,,,,,,,,,,,,,,,,,,,,,,,,,,,,,,,,,,"30.26","66","88","0.00",,,,"48","30.24","SCT:04 46 SCT:04 250","29.79","10.00","73","100",,"8",,,,,,,,,,,,,,,,,,,,,,,,,,,,,,,,,,,,,"MET10609/10/19 14:51:02 METAR KRDU 101951Z 10007KT 10SM SCT046 SCT250 31/19 A3026 RMK AO2 SLP241 T03110189 (JBA)","FM-15","7",,,,,,,,,,,,,,,,,,,,,,,,,,,,"2009-07-08"
"72306013722","2019-09-10T15:51:00","FM-15","7",,,,,,,,,,,,,,,,,,,,,,,,,,,,,,,,,,,,,,"30.25","67","87","0.00",,"+0.04","6","51","30.24","SCT:04 46 SCT:04 250","29.78","10.00","74","VRB",,"5",,,,,,,,,,,,,,,,,,,,,,,,,,,,,,,,,,,,,"MET11209/10/19 15:51:02 METAR KRDU 102051Z VRB04KT 10SM SCT046 SCT250 31/19 A3025 RMK AO2 SLP239 T03060194 56013 (JBA)","FM-15","7",,,,,,,,,,,,,,,,,,,,,,,,,,,,"2009-07-08"
"72306013722","2019-09-10T16:51:00","FM-15","7",,,,,,,,,,,,,,,,,,,,,,,,,,,,,,,,,,,,,,"30.25","67","86","0.00",,,,"53","30.23","FEW:02 46 BKN:07 250","29.78","10.00","73","110",,"10",,,,,,,,,,,,,,,,,,,,,,,,,,,,,,,,,,,,,"MET10609/10/19 16:51:02 METAR KRDU 102151Z 11009KT 10SM FEW046 BKN250 30/19 A3025 RMK AO2 SLP237 T03000194 (JBA)","FM-15","7",,,,,,,,,,,,,,,,,,,,,,,,,,,,"2009-07-08"
"72306013722","2019-09-10T17:51:00","FM-15","7",,,,,,,,,,,,,,,,,,,,,,,,,,,,,,,,,,,,,,"30.25","67","84","0.00",,,,"57","30.23","FEW:02 46 SCT:04 250","29.78","10.00","73","100",,"7",,,,,,,,,,,,,,,,,,,,,,,,,,,,,,,,,,,,,"MET10609/10/19 17:51:02 METAR KRDU 102251Z 10006KT 10SM FEW046 SCT250 29/19 A3025 RMK AO2 SLP238 T02890194 (JBA)","FM-15","7",,,,,,,,,,,,,,,,,,,,,,,,,,,,"2009-07-08"
"72306013722","2019-09-10T18:51:00","FM-15","7",,,,,,,,,,,,,,,,,,,,,,,,,,,,,,,,,,,,,,"30.25","69","80","0.00",,"+0.01","6","69","30.23","SCT:04 250","29.78","10.00","73","110",,"6",,,,,,,,,,,,,,,,,,,,,,,,,,,,,,,,,,,,,"MET11709/10/19 18:51:02 METAR KRDU 102351Z 11005KT 10SM SCT250 27/21 A3025 RMK AO2 SLP237 T02670206 10317 20267 56003 (JBA)","FM-15","7",,,,,,,,,,,,,,,,,,,,,,,,,,,,"2009-07-08"
"72306013722","2019-09-10T19:00:00","FM-12","4",,,,,,,,,,,,,,,,,,,,,,,,,,,,,,,,,,,,,,,"69","80",,,"+0.01","6","69","30.23",,"29.79","9.94","73","110",,"6",,,,,,,,,,,,,,,,,,,,,,,,,,,,,,,,,,,,,"SYN08072306 32966 41105 10267 20206 30087 40237 56003 92351 333 10317 20211 555 91100=","FM-12","4",,,,,,,,,,,,,,,,,,,,,,,,,,,,"2009-07-08"
"72306013722","2019-09-10T19:51:00","FM-15","7",,,,,,,,,,,,,,,,,,,,,,,,,,,,,,,,,,,,,,"30.25","69","78","0.00",,,,"74","30.24","FEW:02 250","29.78","10.00","72","120",,"5",,,,,,,,,,,,,,,,,,,,,,,,,,,,,,,,,,,,,"MET09309/10/19 19:51:01 METAR KRDU 110051Z 12004KT 10SM FEW250 26/21 A3025 RMK AO2 SLP239 T02560206","FM-15","7",,,,,,,,,,,,,,,,,,,,,,,,,,,,"2009-07-08"
"72306013722","2019-09-10T20:51:00","FM-15","7",,,,,,,,,,,,,,,,,,,,,,,,,,,,,,,,,,,,,,"30.27","69","77","0.00",,,,"77","30.25","FEW:02 250","29.80","10.00","72","130",,"3",,,,,,,,,,,,,,,,,,,,,,,,,,,,,,,,,,,,,"MET09309/10/19 20:51:01 METAR KRDU 110151Z 13003KT 10SM FEW250 25/21 A3027 RMK AO2 SLP245 T02500206","FM-15","7",,,,,,,,,,,,,,,,,,,,,,,,,,,,"2009-07-08"
"72306013722","2019-09-10T21:51:00","FM-15","7",,,,,,,,,,,,,,,,,,,,,,,,,,,,,,,,,,,,,,"30.28","69","74","0.00",,"-0.04","3","85","30.27","CLR:00","29.81","10.00","71","000",,"0",,,,,,,,,,,,,,,,,,,,,,,,,,,,,,,,,,,,,"MET09609/10/19 21:51:01 METAR KRDU 110251Z 00000KT 10SM CLR 23/21 A3028 RMK AO2 SLP250 T02330206 53012","FM-15","7",,,,,,,,,,,,,,,,,,,,,,,,,,,,"2009-07-08"
"72306013722","2019-09-10T22:51:00","FM-15","7",,,,,,,,,,,,,,,,,,,,,,,,,,,,,,,,,,,,,,"30.28","69","72","0.00",,,,"91","30.27","FEW:02 50 FEW:02 250","29.81","10.00","70","000",,"0",,,,,,,,,,,,,,,,,,,,,,,,,,,,,,,,,,,,,"MET10009/10/19 22:51:02 METAR KRDU 110351Z 00000KT 10SM FEW050 FEW250 22/21 A3028 RMK AO2 SLP250 T02220206","FM-15","7",,,,,,,,,,,,,,,,,,,,,,,,,,,,"2009-07-08"
"72306013722","2019-09-10T23:51:00","FM-15","7",,,,,,,,,,,,,,,,,,,,,,,,,,,,,,,,,,,,,,"30.29","68","71","0.00",,,,"90","30.28","FEW:02 49 FEW:02 250","29.82","10.00","69","000",,"0",,,,,,,,,,,,,,,,,,,,,,,,,,,,,,,,,,,,,"MET11009/10/19 23:51:02 METAR KRDU 110451Z 00000KT 10SM FEW049 FEW250 22/20 A3029 RMK AO2 SLP253 T02170200 403170211","FM-15","7",,,,,,,,,,,,,,,,,,,,,,,,,,,,"2009-07-08"
"72306013722","2019-09-10T23:59:00","SOD  ","6",,,,,,,,,,,,,,,"69","80","74","30.26","29.79","72","3.8","15","5.8","0","89","70","110","21","0.00","0","0.0","100","15","BR",,,,,,,,,,,,,,,,,,,,,,,,,,,,,,,,,,,,,,,,,,,,,,,,,,,,,,,,"SOD75624 HR PRECIPITATION (IN): 0.00 SNOW DEPTH (IN):0     24 HR SNOWFALL (IN):0.0  WEATHER(CODE):1  24 HR MAX TEMP (F): 8924 HR MIN TEMP (F): 70AVERAGE STATION PRESSURE:29.790 MINIMUM SEA LEVEL PRESSURE:30.19 TIME OF OCCURRENCE:0003 PEAK WIND SPEED (MPH): 21 PEAK WIND DIR (DEG):110 PEAK WIND TIME (LST):      FASTEST 2MIN SPEED (MPH): 15FASTEST 2MIN DIR (DEG):100 FASTEST 2MIN TIME (LST):     AVERAGE WIND SPEED (MPH): 3.8 24 HR AVG TEMP (F): 80DEPART FROM NORMAL:  6  HEATING DEGREE DAYS:  0 COOLING DEGREE DAYS: 15 LATEST DAY MAX TEMP (0700-1900 LST):89  LATEST NIGHT MIN TEMP(1900-0800 LST):70 HOURLY INCREMENTAL PRECIPITATION VALUES (IN):.00 0.00 0.00 0.00 0.00 0.00 0.00 0.00 0.00 0.00 0.00 0.00 0.00 0.00 0.00 0.00 0.00 0.00 0.00 0.00 0.00 0.00 0.00 0.00","SOD  ","6",,,,,,,,,,,,,,,,,,,,,,,,,"0554","1830",,"2009-07-08"
"72306013722","2019-09-11T00:51:00","FM-15","7",,,,,,,,,,,,,,,,,,,,,,,,,,,,,,,,,,,,,,"30.29","69","72","0.00",,"-0.01","0","91","30.27","FEW:02 48 FEW:02 250","29.82","10.00","70","000",,"0",,,,,,,,,,,,,,,,,,,,,,,,,,,,,,,,,,,,,"MET12409/11/19 00:51:02 METAR KRDU 110551Z 00000KT 10SM FEW048 FEW250 22/21 A3029 RMK AO2 SLP252 T02220206 10261 20211 50003 (AWB)","FM-15","7",,,,,,,,,,,,,,,,,,,,,,,,,,,,"2009-07-08"
"72306013722","2019-09-11T01:00:00","FM-12","4",,,,,,,,,,,,,,,,,,,,,,,,,,,,,,,,,,,,,,,"69","72",,,"0.01","9","91","30.27","41","29.83","9.94","70","000",,"0",,,,,,,,,,,,,,,,,,,,,,,,,,,,,,,,,,,,,"SYN08072306 32666 20000 10222 20206 30100 40252 50003 90551 333 10261 20211 555 91106=","FM-12","4",,,,,,,,,,,,,,,,,,,,,,,,,,,,"2009-07-08"
"72306013722","2019-09-11T01:51:00","FM-15","7",,,,,,,,,,,,,,,,,,,,,,,,,,,,,,,,,,,,,,"30.28","68","70","0.00",,,,"93","30.26","FEW:02 50 FEW:02 250","29.81","8.00","69","000",,"0",,,,,,,,,,,,,,,,,,,,,,,,,,,,,,,,,,,,,"MET10509/11/19 01:51:02 METAR KRDU 110651Z 00000KT 8SM FEW050 FEW250 21/20 A3028 RMK AO2 SLP247 T02110200 (AWB)","FM-15","7",,,,,,,,,,,,,,,,,,,,,,,,,,,,"2009-07-08"
"72306013722","2019-09-11T02:51:00","FM-15","7",,,,,,,,,,,,,,,,,,,,,,,,,,,,,,,,,,,,,,"30.27","68","70","0.00",,,,"93","30.25","FEW:02 49 FEW:02 250","29.80","7.00","69","170",,"3",,,,,,,,,,,,,,,,,,,,,,,,,,,,,,,,,,,,,"MET10509/11/19 02:51:02 METAR KRDU 110751Z 17003KT 7SM FEW049 FEW250 21/20 A3027 RMK AO2 SLP244 T02110200 (AWB)","FM-15","7",,,,,,,,,,,,,,,,,,,,,,,,,,,,"2009-07-08"
"72306013722","2019-09-11T03:51:00","FM-15","7",,,,,,,,,,,,,,,,,,,,,,,,,,,,,,,,,,,,,,"30.26","68","70","0.00","BR:1 ||","+0.03","6","93","30.24","FEW:02 49 FEW:02 250","29.79","6.00","69","000",,"0",,,,,,,,,,,,,,,,,,,,,,,,,,,,,,,,,,,,,"MET11409/11/19 03:51:02 METAR KRDU 110851Z 00000KT 6SM BR FEW049 FEW250 21/20 A3026 RMK AO2 SLP240 T02110200 56011 (AWB)","FM-15","7",,,,,,,,,,,,,,,,,,,,,,,,,,,,"2009-07-08"
"72306013722","2019-09-11T04:38:00","FM-16","7",,,,,,,,,,,,,,,,,,,,,,,,,,,,,,,,,,,,,,"30.26","68","69",,"BR:1 ||",,,"96",,"BKN:07 3","29.79","6.00","68","000",,"0",,,,,,,,,,,,,,,,,,,,,,,,,,,,,,,,,,,,,"MET09409/11/19 04:38:02 SPECI KRDU 110938Z 00000KT 6SM BR BKN003 21/20 A3026 RMK AO2 T02060200 (AWB)","FM-16","7",,,,,,,,,,,,,,,,,,,,,,,,,,,,"2009-07-08"
"72306013722","2019-09-11T04:51:00","FM-15","7",,,,,,,,,,,,,,,,,,,,,,,,,,,,,,,,,,,,,,"30.26","70","71","0.00",,,,"96","30.25",,,"1.00",,"180",,"3",,,,,,,,,,,,,,,,,,,,,,,,,,,,,,,,,,,,,"MET05809/11/19 04:51:02 METAR KRDU 110951Z 18003KT 1SM RVRNO RMK","FM-15","7",,,,,,,,,,,,,,,,,,,,,,,,,,,,"2009-07-08"
"72306013722","2019-09-11T05:00:00","FM-16","7",,,,,,,,,,,,,,,,,,,,,,,,,,,,,,,,,,,,,,"30.26","70","71",,"|FG |",,,"96",,,,"0.50",,"140",,"3",,,,,,,,,,,,,,,,,,,,,,,,,,,,,,,,,,,,,"MET06009/11/19 05:00:02 SPECI KRDU 111000Z 14003KT 1/2SM RVRNO RMK","FM-16","7",,,,,,,,,,,,,,,,,,,,,,,,,,,,"2009-07-08"
"72306013722","2019-09-11T05:51:00","FM-15","7",,,,,,,,,,,,,,,,,,,,,,,,,,,,,,,,,,,,,,"30.28","71","71","0.00","|FG |",,,"100","30.26",,,"0.25",,"160",,"3",,,,,,,,,,,,,,,,,,,,,,,,,,,,,,,,,,,,,"MET06009/11/19 05:51:02 METAR KRDU 111051Z 16003KT 1/4SM RVRNO RMK","FM-15","7",,,,,,,,,,,,,,,,,,,,,,,,,,,,"2009-07-08"
"72306013722","2019-09-11T06:51:00","FM-15","7",,,,,,,,,,,,,,,,,,,,,,,,,,,,,,,,,,,,,,"30.29","71","71","0.00","|FG |","0.03","9","100","30.28",,,"0.50",,"200",,"3",,,,,,,,,,,,,,,,,,,,,,,,,,,,,,,,,,,,,"MET06009/11/19 06:51:02 METAR KRDU 111151Z 20003KT 1/2SM RVRNO RMK","FM-15","7",,,,,,,,,,,,,,,,,,,,,,,,,,,,"2009-07-08"
"72306013722","2019-09-11T07:00:00","FM-12","4",,,,,,,,,,,,,,,,,,,,,,,,,,,,,,,,,,,,,,,"71","71",,"||FG","-0.03","3","100","30.28","1","29.83","0.50","71","200",,"3",,,,,,,,,,,,,,,,,,,,,,,,,,,,,,,,,,,,,"SYN08672306 31008 82003 10217 20217 30100 40253 53011 741// 91151 333 10317 20200 555 91112=","FM-12","4",,,,,,,,,,,,,,,,,,,,,,,,,,,,"2009-07-08"
"72306013722","2019-09-11T07:20:00","FM-16","7",,,,,,,,,,,,,,,,,,,,,,,,,,,,,,,,,,,,,,"30.30","72","72",,"BR:1 ||",,,"100",,"BKN:07 2","29.83","1.00","72","190",,"3",,,,,,,,,,,,,,,,,,,,,,,,,,,,,,,,,,,,,"MET10409/11/19 07:20:02 SPECI KRDU 111220Z 19003KT 1SM BR BKN002 22/22 A3030 RMK AO2 SFC VIS 3 T02220222 (KAH)","FM-16","7",,,,,,,,,,,,,,,,,,,,,,,,,,,,"2009-07-08"
"72306013722","2019-09-11T07:47:00","FM-16","7",,,,,,,,,,,,,,,,,,,,,,,,,,,,,,,,,,,,,,"30.30","72","72",,,,,"100",,"SCT:04 4 SCT:04 250","29.83","8.00","72","130",,"3",,,,,,,,,,,,,,,,,,,,,,,,,,,,,,,,,,,,,"MET08809/11/19 07:47:02 SPECI KRDU 111247Z 13003KT 8SM SCT004 SCT250 22/22 A3030 RMK AO2 (KAH)","FM-16","7",,,,,,,,,,,,,,,,,,,,,,,,,,,,"2009-07-08"
"72306013722","2019-09-11T07:51:00","FM-15","7",,,,,,,,,,,,,,,,,,,,,,,,,,,,,,,,,,,,,,"30.30","72","73","0.00",,,,"96","30.29","SCT:04 4 SCT:04 250","29.83","8.00","72","150",,"5",,,,,,,,,,,,,,,,,,,,,,,,,,,,,,,,,,,,,"MET10509/11/19 07:51:02 METAR KRDU 111251Z 15004KT 8SM SCT004 SCT250 23/22 A3030 RMK AO2 SLP257 T02280222 (KAH)","FM-15","7",,,,,,,,,,,,,,,,,,,,,,,,,,,,"2009-07-08"
"72306013722","2019-09-11T08:51:00","FM-15","7",,,,,,,,,,,,,,,,,,,,,,,,,,,,,,,,,,,,,,"30.30","72","80","0.00",,,,"76","30.29","FEW:02 15 FEW:02 250","29.83","10.00","75","250",,"7",,,,,,,,,,,,,,,,,,,,,,,,,,,,,,,,,,,,,"MET10609/11/19 08:51:02 METAR KRDU 111351Z 25006KT 10SM FEW015 FEW250 27/22 A3030 RMK AO2 SLP256 T02670222 (KAH)","FM-15","7",,,,,,,,,,,,,,,,,,,,,,,,,,,,"2009-07-08"
"72306013722","2019-09-11T09:51:00","FM-15","7",,,,,,,,,,,,,,,,,,,,,,,,,,,,,,,,,,,,,,"30.29","72","83","0.00",,"-0.00","0","70","30.27","FEW:02 20 FEW:02 250","29.82","10.00","75","240",,"6",,,,,,,,,,,,,,,,,,,,,,,,,,,,,,,,,,,,,"MET11209/11/19 09:51:02 METAR KRDU 111451Z 24005KT 10SM FEW020 FEW250 28/22 A3029 RMK AO2 SLP252 T02830222 50000 (KAH)","FM-15","7",,,,,,,,,,,,,,,,,,,,,,,,,,,,"2009-07-08"
"72306013722","2019-09-11T10:51:00","FM-15","7",,,,,,,,,,,,,,,,,,,,,,,,,,,,,,,,,,,,,,"30.27","70","86","0.00",,,,"59","30.25","FEW:02 30 FEW:02 250","29.80","10.00","75","230",,"6",,,,,,,,,,,,,,,,,,,,,,,,,,,,,,,,,,,,,"MET10609/11/19 10:51:02 METAR KRDU 111551Z 23005KT 10SM FEW030 FEW250 30/21 A3027 RMK AO2 SLP245 T03000211 (KAH)","FM-15","7",,,,,,,,,,,,,,,,,,,,,,,,,,,,"2009-07-08"
"72306013722","2019-09-11T11:51:00","FM-15","7",,,,,,,,,,,,,,,,,,,,,,,,,,,,,,,,,,,,,,"30.24","70","87","0.00",,,,"57","30.22","FEW:02 35 FEW:02 250","29.77","10.00","75","VRB",,"3",,,,,,,,,,,,,,,,,,,,,,,,,,,,,,,,,,,,,"MET10609/11/19 11:51:02 METAR KRDU 111651Z VRB03KT 10SM FEW035 FEW250 31/21 A3024 RMK AO2 SLP235 T03060211 (KAH)","FM-15","7",,,,,,,,,,,,,,,,,,,,,,,,,,,,"2009-07-08"
"72306013722","2019-09-11T12:51:00","FM-15","7",,,,,,,,,,,,,,,,,,,,,,,,,,,,,,,,,,,,,,"30.21","71","89","0.00",,"+0.08","8","55","30.19","SCT:04 37 SCT:04 250","29.74","10.00","76","230",,"7",,,,,,,,,,,,,,,,,,,,,,,,,,,,,,,,,,,,,"MET12409/11/19 12:51:02 METAR KRDU 111751Z 23006KT 10SM SCT037 SCT250 32/22 A3021 RMK AO2 SLP225 T03170217 10317 20217 58026 (KAH)","FM-15","7",,,,,,,,,,,,,,,,,,,,,,,,,,,,"2009-07-08"
"72306013722","2019-09-11T13:00:00","FM-12","4",,,,,,,,,,,,,,,,,,,,,,,,,,,,,,,,,,,,,,,"71","89",,,"+0.08","8","55","30.19","41","29.75","9.94","76","230",,"7",,,,,,,,,,,,,,,,,,,,,,,,,,,,,,,,,,,,,"SYN08072306 32666 42306 10317 20217 30073 40225 58026 91751 333 10317 20217 555 91118=","FM-12","4",,,,,,,,,,,,,,,,,,,,,,,,,,,,"2009-07-08"
"72306013722","2019-09-11T13:51:00","FM-15","7",,,,,,,,,,,,,,,,,,,,,,,,,,,,,,,,,,,,,,"30.19","71","90","0.00",,,,"54","30.17","SCT:04 40 SCT:04 250","29.72","10.00","77","190",,"5",,,,,,,,,,,,,,,,,,,,,,,,,,,,,,,,,,,,,"MET10609/11/19 13:51:02 METAR KRDU 111851Z 19004KT 10SM SCT040 SCT250 32/22 A3019 RMK AO2 SLP216 T03220217 (KAH)","FM-15","7",,,,,,,,,,,,,,,,,,,,,,,,,,,,"2009-07-08"
"72306013722","2019-09-11T14:51:00","FM-15","7",,,,,,,,,,,,,,,,,,,,,,,,,,,,,,,,,,,,,,"30.16","72","92","0.00",,,,"52","30.14","SCT:04 40 SCT:04 250","29.69","10.00","78","250",,"9",,,,,,,,,,,,,,,,,,,,,,,,,,,,,,,,,,,,,"MET10609/11/19 14:51:02 METAR KRDU 111951Z 25008KT 10SM SCT040 SCT250 33/22 A3016 RMK AO2 SLP207 T03330222 (JBA)","FM-15","7",,,,,,,,,,,,,,,,,,,,,,,,,,,,"2009-07-08"
"72306013722","2019-09-11T15:51:00","FM-15","7",,,,,,,,,,,,,,,,,,,,,,,,,,,,,,,,,,,,,,"30.14","71","89","0.00",,"+0.07","6","55","30.13","SCT:04 40 SCT:04 250","29.67","10.00","76","210",,"8",,,,,,,,,,,,,,,,,,,,,,,,,,,,,,,,,,,,,"MET11209/11/19 15:51:02 METAR KRDU 112051Z 21007KT 10SM SCT040 SCT250 32/22 A3014 RMK AO2 SLP202 T03170217 56024 (JBA)","FM-15","7",,,,,,,,,,,,,,,,,,,,,,,,,,,,"2009-07-08"
"72306013722","2019-09-11T16:51:00","FM-15","7",,,,,,,,,,,,,,,,,,,,,,,,,,,,,,,,,,,,,,"30.12","71","89","0.00",,,,"55","30.11","FEW:02 40 SCT:04 250","29.65","10.00","76","170",,"8",,,,,,,,,,,,,,,,,,,,,,,,,,,,,,,,,,,,,"MET10609/11/19 16:51:02 METAR KRDU 112151Z 17007KT 10SM FEW040 SCT250 32/22 A3012 RMK AO2 SLP195 T03170217 (JBA)","FM-15","7",,,,,,,,,,,,,,,,,,,,,,,,,,,,"2009-07-08"
"72306013722","2019-09-11T17:51:00","FM-15","7",,,,,,,,,,,,,,,,,,,,,,,,,,,,,,,,,,,,,,"30.13","72","86","0.00",,,,"63","30.11","FEW:02 250","29.66","10.00","76","160",,"6",,,,,,,,,,,,,,,,,,,,,,,,,,,,,,,,,,,,,"MET09909/11/19 17:51:02 METAR KRDU 112251Z 16005KT 10SM FEW250 30/22 A3013 RMK AO2 SLP198 T03000222 (JBA)","FM-15","7",,,,,,,,,,,,,,,,,,,,,,,,,,,,"2009-07-08"
"72306013722","2019-09-11T18:51:00","FM-15","7",,,,,,,,,,,,,,,,,,,,,,,,,,,,,,,,,,,,,,"30.13","73","82","0.00",,"+0.01","6","74","30.11","FEW:02 250","29.66","10.00","76","160",,"6",,,,,,,,,,,,,,,,,,,,,,,,,,,,,,,,,,,,,"MET11709/11/19 18:51:02 METAR KRDU 112351Z 16005KT 10SM FEW250 28/23 A3013 RMK AO2 SLP198 T02780228 10333 20278 56005 (JBA)","FM-15","7",,,,,,,,,,,,,,,,,,,,,,,,,,,,"2009-07-08"
"72306013722","2019-09-11T19:00:00","FM-12","4",,,,,,,,,,,,,,,,,,,,,,,,,,,,,,,,,,,,,,,"73","82",,,"+0.01","6","74","30.11",,"29.67","9.94","76","160",,"6",,,,,,,,,,,,,,,,,,,,,,,,,,,,,,,,,,,,,"SYN08072306 32966 21605 10278 20228 30047 40198 56005 92351 333 10333 20200 555 91200=","FM-12","4",,,,,,,,,,,,,,,,,,,,,,,,,,,,"2009-07-08"
"72306013722","2019-09-11T19:51:00","FM-15","7",,,,,,,,,,,,,,,,,,,,,,,,,,,,,,,,,,,,,,"30.14","73","81","0.00",,,,"77","30.13","FEW:02 250","29.67","10.00","75","160",,"5",,,,,,,,,,,,,,,,,,,,,,,,,,,,,,,,,,,,,"MET11209/11/19 19:51:01 METAR KRDU 120051Z 16004KT 10SM FEW250 27/23 A3014 RMK AO2 SLP203 OCNL LTG DSNT NW-N T02720228","FM-15","7",,,,,,,,,,,,,,,,,,,,,,,,,,,,"2009-07-08"
"72306013722","2019-09-11T20:51:00","FM-15","7",,,,,,,,,,,,,,,,,,,,,,,,,,,,,,,,,,,,,,"30.17","73","78","0.00",,,,"85","30.15","FEW:02 250","29.70","10.00","75","000",,"0",,,,,,,,,,,,,,,,,,,,,,,,,,,,,,,,,,,,,"MET11009/11/19 20:51:01 METAR KRDU 120151Z 00000KT 10SM FEW250 26/23 A3017 RMK AO2 SLP211 OCNL LTG DSNT NW T02560228","FM-15","7",,,,,,,,,,,,,,,,,,,,,,,,,,,,"2009-07-08"
"72306013722","2019-09-11T21:51:00","FM-15","7",,,,,,,,,,,,,,,,,,,,,,,,,,,,,,,,,,,,,,"30.16","72","79","0.00",,"-0.04","0","79","30.14","FEW:02 250","29.69","10.00","74","170",,"3",,,,,,,,,,,,,,,,,,,,,,,,,,,,,,,,,,,,,"MET09909/11/19 21:51:01 METAR KRDU 120251Z 17003KT 10SM FEW250 26/22 A3016 RMK AO2 SLP208 T02610222 50012","FM-15","7",,,,,,,,,,,,,,,,,,,,,,,,,,,,"2009-07-08"
"72306013722","2019-09-11T22:51:00","FM-15","7",,,,,,,,,,,,,,,,,,,,,,,,,,,,,,,,,,,,,,"30.15","72","78","0.00",,,,"82","30.13","FEW:02 100 FEW:02 250","29.68","10.00","74","000",,"0",,,,,,,,,,,,,,,,,,,,,,,,,,,,,,,,,,,,,"MET10009/11/19 22:51:02 METAR KRDU 120351Z 00000KT 10SM FEW100 FEW250 26/22 A3015 RMK AO2 SLP204 T02560222","FM-15","7",,,,,,,,,,,,,,,,,,,,,,,,,,,,"2009-07-08"
"72306013722","2019-09-11T23:51:00","FM-15","7",,,,,,,,,,,,,,,,,,,,,,,,,,,,,,,,,,,,,,"30.15","71","74","0.00",,,,"91","30.13","SCT:04 100 SCT:04 250","29.68","8.00","72","000",,"0",,,,,,,,,,,,,,,,,,,,,,,,,,,,,,,,,,,,,"MET10909/11/19 23:51:02 METAR KRDU 120451Z 00000KT 8SM SCT100 SCT250 23/22 A3015 RMK AO2 SLP203 T02330217 403330200","FM-15","7",,,,,,,,,,,,,,,,,,,,,,,,,,,,"2009-07-08"
"72306013722","2019-09-11T23:59:00","SOD  ","6",,,,,,,,,,,,,,,"71","80","75","30.16","29.75","73","3.9","15","6.1","0","92","68","180","15","0.00","0","0.0","170","12","BR FG",,,,,,,,,,,,,,,,,,,,,,,,,,,,,,,,,,,,,,,,,,,,,,,,,,,,,,,,"SOD75724 HR PRECIPITATION (IN): 0.00 SNOW DEPTH (IN):0     24 HR SNOWFALL (IN):0.0  WEATHER(CODE):12  24 HR MAX TEMP (F): 9224 HR MIN TEMP (F): 68AVERAGE STATION PRESSURE:29.755 MINIMUM SEA LEVEL PRESSURE:30.10 TIME OF OCCURRENCE:1712 PEAK WIND SPEED (MPH): 15 PEAK WIND DIR (DEG):180 PEAK WIND TIME (LST):      FASTEST 2MIN SPEED (MPH): 12FASTEST 2MIN DIR (DEG):170 FASTEST 2MIN TIME (LST):     AVERAGE WIND SPEED (MPH): 3.9 24 HR AVG TEMP (F): 80DEPART FROM NORMAL:  6  HEATING DEGREE DAYS:  0 COOLING DEGREE DAYS: 15 LATEST DAY MAX TEMP (0700-1900 LST):92  LATEST NIGHT MIN TEMP(1900-0800 LST):68 HOURLY INCREMENTAL PRECIPITATION VALUES (IN):.00 0.00 0.00 0.00 0.00 0.00 0.00 0.00 0.00 0.00 0.00 0.00 0.00 0.00 0.00 0.00 0.00 0.00 0.00 0.00 0.00 0.00 0.00 0.00","SOD  ","6",,,,,,,,,,,,,,,,,,,,,,,,,"0554","1829",,"2009-07-08"
"72306013722","2019-09-12T00:51:00","FM-15","7",,,,,,,,,,,,,,,,,,,,,,,,,,,,,,,,,,,,,,"30.14","72","76","0.00",,"+0.02","6","88","30.12","BKN:07 140 BKN:07 250","29.67","9.00","73","000",,"0",,,,,,,,,,,,,,,,,,,,,,,,,,,,,,,,,,,,,"MET12309/12/19 00:51:02 METAR KRDU 120551Z 00000KT 9SM BKN140 BKN250 24/22 A3014 RMK AO2 SLP201 T02440222 10278 20233 56007 (AWB)","FM-15","7",,,,,,,,,,,,,,,,,,,,,,,,,,,,"2009-07-08"
"72306013722","2019-09-12T01:00:00","FM-12","4",,,,,,,,,,,,,,,,,,,,,,,,,,,,,,,,,,,,,,,"72","76",,,"+0.02","6","88","30.12",,"29.68","8.70","73","000",,"0",,,,,,,,,,,,,,,,,,,,,,,,,,,,,,,,,,,,,"SYN08072306 32964 60000 10244 20222 30050 40201 56007 90551 333 10278 20200 555 91206=","FM-12","4",,,,,,,,,,,,,,,,,,,,,,,,,,,,"2009-07-08"
"72306013722","2019-09-12T01:51:00","FM-15","7",,,,,,,,,,,,,,,,,,,,,,,,,,,,,,,,,,,,,,"30.12","71","74","0.00",,,,"91","30.10","FEW:02 80 FEW:02 140 FEW:02 250","29.65","8.00","72","230",,"3",,,,,,,,,,,,,,,,,,,,,,,,,,,,,,,,,,,,,"MET11209/12/19 01:51:02 METAR KRDU 120651Z 23003KT 8SM FEW080 FEW140 FEW250 23/22 A3012 RMK AO2 SLP194 T02330217 (AWB)","FM-15","7",,,,,,,,,,,,,,,,,,,,,,,,,,,,"2009-07-08"
"72306013722","2019-09-12T02:51:00","FM-15","7",,,,,,,,,,,,,,,,,,,,,,,,,,,,,,,,,,,,,,"30.10","71","73","0.00",,,,"94","30.09","FEW:02 140 FEW:02 250","29.63","9.00","72","210",,"7",,,,,,,,,,,,,,,,,,,,,,,,,,,,,,,,,,,,,"MET10509/12/19 02:51:02 METAR KRDU 120751Z 21006KT 9SM FEW140 FEW250 23/22 A3010 RMK AO2 SLP188 T02280217 (AWB)","FM-15","7",,,,,,,,,,,,,,,,,,,,,,,,,,,,"2009-07-08"
"72306013722","2019-09-12T03:51:00","FM-15","7",,,,,,,,,,,,,,,,,,,,,,,,,,,,,,,,,,,,,,"30.11","71","74","0.00",,"+0.03","5","91","30.09","BKN:07 140 BKN:07 250","29.64","8.00","72","000",,"0",,,,,,,,,,,,,,,,,,,,,,,,,,,,,,,,,,,,,"MET11109/12/19 03:51:02 METAR KRDU 120851Z 00000KT 8SM BKN140 BKN250 23/22 A3011 RMK AO2 SLP191 T02330217 55010 (AWB)","FM-15","7",,,,,,,,,,,,,,,,,,,,,,,,,,,,"2009-07-08"
"72306013722","2019-09-12T04:51:00","FM-15","7",,,,,,,,,,,,,,,,,,,,,,,,,,,,,,,,,,,,,,"30.12","71","72","0.00",,,,"97","30.11","FEW:02 140 FEW:02 250","29.65","7.00","71","220",,"3",,,,,,,,,,,,,,,,,,,,,,,,,,,,,,,,,,,,,"MET10509/12/19 04:51:02 METAR KRDU 120951Z 22003KT 7SM FEW140 FEW250 22/22 A3012 RMK AO2 SLP195 T02220217 (AWB)","FM-15","7",,,,,,,,,,,,,,,,,,,,,,,,,,,,"2009-07-08"
"72306013722","2019-09-12T05:51:00","FM-15","7",,,,,,,,,,,,,,,,,,,,,,,,,,,,,,,,,,,,,,"30.13","70","72","0.00","BR:1 ||",,,"94","30.11","FEW:02 140 BKN:07 250","29.66","6.00","71","250",,"5",,,,,,,,,,,,,,,,,,,,,,,,,,,,,,,,,,,,,"MET10809/12/19 05:51:02 METAR KRDU 121051Z 25004KT 6SM BR FEW140 BKN250 22/21 A3013 RMK AO2 SLP198 T02220211 (AWB)","FM-15","7",,,,,,,,,,,,,,,,,,,,,,,,,,,,"2009-07-08"
"72306013722","2019-09-12T06:51:00","FM-15","7",,,,,,,,,,,,,,,,,,,,,,,,,,,,,,,,,,,,,,"30.15","71","74","0.00",,"-0.04","3","91","30.13","FEW:02 140 FEW:02 250","29.68","7.00","72","240",,"6",,,,,,,,,,,,,,,,,,,,,,,,,,,,,,,,,,,,,"MET12309/12/19 06:51:02 METAR KRDU 121151Z 24005KT 7SM FEW140 FEW250 23/22 A3015 RMK AO2 SLP204 T02330217 10250 20217 53012 (KAH)","FM-15","7",,,,,,,,,,,,,,,,,,,,,,,,,,,,"2009-07-08"
"72306013722","2019-09-12T07:00:00","FM-12","4",,,,,,,,,,,,,,,,,,,,,,,,,,,,,,,,,,,,,,,"71","74",,,"-0.04","3","91","30.13",,"29.69","6.84","72","240",,"6",,,,,,,,,,,,,,,,,,,,,,,,,,,,,,,,,,,,,"SYN08072306 32961 22405 10233 20217 30053 40204 53012 91151 333 10333 20217 555 91212=","FM-12","4",,,,,,,,,,,,,,,,,,,,,,,,,,,,"2009-07-08"
"72306013722","2019-09-12T07:51:00","FM-15","7",,,,,,,,,,,,,,,,,,,,,,,,,,,,,,,,,,,,,,"30.15","73","78","0.00",,,,"85","30.13","FEW:02 140 FEW:02 250","29.68","10.00","75","220",,"5",,,,,,,,,,,,,,,,,,,,,,,,,,,,,,,,,,,,,"MET10609/12/19 07:51:02 METAR KRDU 121251Z 22004KT 10SM FEW140 FEW250 26/23 A3015 RMK AO2 SLP204 T02560228 (KAH)","FM-15","7",,,,,,,,,,,,,,,,,,,,,,,,,,,,"2009-07-08"
"72306013722","2019-09-12T08:51:00","FM-15","7",,,,,,,,,,,,,,,,,,,,,,,,,,,,,,,,,,,,,,"30.16","72","83","0.00",,,,"70","30.14","FEW:02 250","29.69","10.00","75","260",,"6",,,,,,,,,,,,,,,,,,,,,,,,,,,,,,,,,,,,,"MET09909/12/19 08:51:02 METAR KRDU 121351Z 26005KT 10SM FEW250 28/22 A3016 RMK AO2 SLP206 T02830222 (KAH)","FM-15","7",,,,,,,,,,,,,,,,,,,,,,,,,,,,"2009-07-08"
"72306013722","2019-09-12T09:51:00","FM-15","7",,,,,,,,,,,,,,,,,,,,,,,,,,,,,,,,,,,,,,"30.15","72","86","0.00",,"-0.00","0","63","30.13","FEW:02 250","29.68","10.00","76","VRB",,"3",,,,,,,,,,,,,,,,,,,,,,,,,,,,,,,,,,,,,"MET10509/12/19 09:51:02 METAR KRDU 121451Z VRB03KT 10SM FEW250 30/22 A3015 RMK AO2 SLP204 T03000222 50001 (KAH)","FM-15","7",,,,,,,,,,,,,,,,,,,,,,,,,,,,"2009-07-08"
"72306013722","2019-09-12T10:51:00","FM-15","7",,,,,,,,,,,,,,,,,,,,,,,,,,,,,,,,,,,,,,"30.14","73","90","0.00",,,,"58","30.12","FEW:02 250","29.67","10.00","78","000",,"0",,,,,,,,,,,,,,,,,,,,,,,,,,,,,,,,,,,,,"MET09909/12/19 10:51:02 METAR KRDU 121551Z 00000KT 10SM FEW250 32/23 A3014 RMK AO2 SLP199 T03220228 (KAH)","FM-15","7",,,,,,,,,,,,,,,,,,,,,,,,,,,,"2009-07-08"
"72306013722","2019-09-12T11:51:00","FM-15","7",,,,,,,,,,,,,,,,,,,,,,,,,,,,,,,,,,,,,,"30.13","69","92","0.00",,,,"47","30.11","FEW:02 50 FEW:02 250","29.66","10.00","76","040",,"8",,,,,,,,,,,,,,,,,,,,,,,,,,,,,,,,,,,,,"MET10609/12/19 11:51:02 METAR KRDU 121651Z 04007KT 10SM FEW050 FEW250 33/21 A3013 RMK AO2 SLP196 T03330206 (KAH)","FM-15","7",,,,,,,,,,,,,,,,,,,,,,,,,,,,"2009-07-08"
"72306013722","2019-09-12T12:51:00","FM-15","7",,,,,,,,,,,,,,,,,,,,,,,,,,,,,,,,,,,,,,"30.11","68","93","0.00",,"+0.04","8","44","30.09","FEW:02 55 FEW:02 250","29.64","10.00","76","030",,"7",,,,,,,,,,,,,,,,,,,,,,,,,,,,,,,,,,,,,"MET12409/12/19 12:51:02 METAR KRDU 121751Z 03006KT 10SM FEW055 FEW250 34/20 A3011 RMK AO2 SLP189 T03390200 10339 20233 58015 (KAH)","FM-15","7",,,,,,,,,,,,,,,,,,,,,,,,,,,,"2009-07-08"
"72306013722","2019-09-12T13:00:00","FM-12","4",,,,,,,,,,,,,,,,,,,,,,,,,,,,,,,,,,,,,,,"68","93",,,"+0.04","8","44","30.09","57","29.65","9.94","76","030",,"7",,,,,,,,,,,,,,,,,,,,,,,,,,,,,,,,,,,,,"SYN08072306 32766 20306 10339 20200 30040 40189 58015 91751 333 10339 20233 555 91218=","FM-12","4",,,,,,,,,,,,,,,,,,,,,,,,,,,,"2009-07-08"
"72306013722","2019-09-12T13:51:00","FM-15","7",,,,,,,,,,,,,,,,,,,,,,,,,,,,,,,,,,,,,,"30.08","66","94","0.00",,,,"40","30.07","SCT:04 60 SCT:04 250","29.61","10.00","75","VRB",,"5",,,,,,,,,,,,,,,,,,,,,,,,,,,,,,,,,,,,,"MET12909/12/19 13:51:02 METAR KRDU 121851Z VRB04KT 10SM SCT060TCU SCT250 34/19 A3008 RMK AO2 SLP182 TCU S-W AND DSNT SE T03440189 (KAH)","FM-15","7",,,,,,,,,,,,,,,,,,,,,,,,,,,,"2009-07-08"
"72306013722","2019-09-12T14:51:00","FM-15","7",,,,,,,,,,,,,,,,,,,,,,,,,,,,,,,,,,,,,,"30.07","62","93","0.00",,,,"36","30.05","SCT:04 60 SCT:04 250","29.60","10.00","72","340",,"5",,,,,,,,,,,,,,,,,,,,,,,,,,,,,,,,,,,,,"MET13509/12/19 14:51:02 METAR KRDU 121951Z 34004KT 10SM SCT060CB SCT250 34/17 A3007 RMK AO2 SLP175 CB SW MOV STNRY TCU DSNT E T03390167 (JBA)","FM-15","7",,,,,,,,,,,,,,,,,,,,,,,,,,,,"2009-07-08"
"72306013722","2019-09-12T15:51:00","FM-15","7",,,,,,,,,,,,,,,,,,,,,,,,,,,,,,,,,,,,,,"30.06","68","93","0.00",,"+0.05","6","44","30.04","SCT:04 60 SCT:04 250","29.59","10.00","76","190",,"7",,,,,,,,,,,,,,,,,,,,,,,,,,,,,,,,,,,,,"MET12509/12/19 15:51:02 METAR KRDU 122051Z 19006KT 10SM SCT060 SCT250 34/20 A3006 RMK AO2 SLP173 TCU DSNT E-S T03390200 56016 (JBA)","FM-15","7",,,,,,,,,,,,,,,,,,,,,,,,,,,,"2009-07-08"
"72306013722","2019-09-12T16:51:00","FM-15","7",,,,,,,,,,,,,,,,,,,,,,,,,,,,,,,,,,,,,,"30.06","70","91","0.00",,,,"50","30.05","FEW:02 50 SCT:04 250","29.59","10.00","76","180",,"6",,,,,,,,,,,,,,,,,,,,,,,,,,,,,,,,,,,,,"MET12609/12/19 16:51:02 METAR KRDU 122151Z 18005KT 10SM FEW050 SCT250 33/21 A3006 RMK AO2 SLP175 CB DSNT SW AND NW-N T03280211 (JBA)","FM-15","7",,,,,,,,,,,,,,,,,,,,,,,,,,,,"2009-07-08"
"72306013722","2019-09-12T17:51:00","FM-15","7",,,,,,,,,,,,,,,,,,,,,,,,,,,,,,,,,,,,,,"30.07","70","89","0.00",,,,"53","30.05","FEW:02 50 SCT:04 250","29.60","10.00","76","190",,"5",,,,,,,,,,,,,,,,,,,,,,,,,,,,,,,,,,,,,"MET12409/12/19 17:51:02 METAR KRDU 122251Z 19004KT 10SM FEW050 SCT250 32/21 A3007 RMK AO2 SLP176 CB DSNT NE AND NW T03170211 (JBA)","FM-15","7",,,,,,,,,,,,,,,,,,,,,,,,,,,,"2009-07-08"
"72306013722","2019-09-12T18:51:00","FM-15","7",,,,,,,,,,,,,,,,,,,,,,,,,,,,,,,,,,,,,,"30.08","71","85","0.00",,"-0.02","3","63","30.06","FEW:02 50 SCT:04 250","29.61","10.00","75","190",,"3",,,,,,,,,,,,,,,,,,,,,,,,,,,,,,,,,,,,,"MET12409/12/19 18:51:02 METAR KRDU 122351Z 19003KT 10SM FEW050 SCT250 29/22 A3008 RMK AO2 SLP180 T02940217 10356 20294 53007 (JBA)","FM-15","7",,,,,,,,,,,,,,,,,,,,,,,,,,,,"2009-07-08"
"72306013722","2019-09-12T19:00:00","FM-12","4",,,,,,,,,,,,,,,,,,,,,,,,,,,,,,,,,,,,,,,"71","85",,,"-0.02","3","63","30.06","57","29.62","9.94","75","190",,"3",,,,,,,,,,,,,,,,,,,,,,,,,,,,,,,,,,,,,"SYN08072306 32766 41903 10294 20217 30030 40180 53007 92351 333 10356 20217 555 91300=","FM-12","4",,,,,,,,,,,,,,,,,,,,,,,,,,,,"2009-07-08"
"72306013722","2019-09-12T19:51:00","FM-15","7",,,,,,,,,,,,,,,,,,,,,,,,,,,,,,,,,,,,,,"30.09","73","83","0.00",,,,"72","30.07","FEW:02 250","29.62","10.00","76","160",,"5",,,,,,,,,,,,,,,,,,,,,,,,,,,,,,,,,,,,,"MET09309/12/19 19:51:01 METAR KRDU 130051Z 16004KT 10SM FEW250 28/23 A3009 RMK AO2 SLP184 T02830228","FM-15","7",,,,,,,,,,,,,,,,,,,,,,,,,,,,"2009-07-08"
"72306013722","2019-09-12T20:51:00","FM-15","7",,,,,,,,,,,,,,,,,,,,,,,,,,,,,,,,,,,,,,"30.11","73","82","0.00",,,,"74","30.10","FEW:02 250","29.64","10.00","76","240",,"3",,,,,,,,,,,,,,,,,,,,,,,,,,,,,,,,,,,,,"MET09309/12/19 20:51:01 METAR KRDU 130151Z 24003KT 10SM FEW250 28/23 A3011 RMK AO2 SLP192 T02780228","FM-15","7",,,,,,,,,,,,,,,,,,,,,,,,,,,,"2009-07-08"
"72306013722","2019-09-12T21:51:00","FM-15","7",,,,,,,,,,,,,,,,,,,,,,,,,,,,,,,,,,,,,,"30.11","74","80","0.00",,"-0.03","0","82","30.09","FEW:02 250","29.64","10.00","76","250",,"5",,,,,,,,,,,,,,,,,,,,,,,,,,,,,,,,,,,,,"MET09909/12/19 21:51:01 METAR KRDU 130251Z 25004KT 10SM FEW250 27/23 A3011 RMK AO2 SLP191 T02670233 50010","FM-15","7",,,,,,,,,,,,,,,,,,,,,,,,,,,,"2009-07-08"
"72306013722","2019-09-12T22:51:00","FM-15","7",,,,,,,,,,,,,,,,,,,,,,,,,,,,,,,,,,,,,,"30.11","74","80","0.00",,,,"82","30.09","FEW:02 85 FEW:02 250","29.64","8.00","76","000",,"0",,,,,,,,,,,,,,,,,,,,,,,,,,,,,,,,,,,,,"MET09909/12/19 22:51:02 METAR KRDU 130351Z 00000KT 8SM FEW085 FEW250 27/23 A3011 RMK AO2 SLP190 T02670233","FM-15","7",,,,,,,,,,,,,,,,,,,,,,,,,,,,"2009-07-08"
"72306013722","2019-09-12T23:51:00","FM-15","7",,,,,,,,,,,,,,,,,,,,,,,,,,,,,,,,,,,,,,"30.11","74","78","0.00",,,,"87","30.09","FEW:02 85 FEW:02 250","29.64","8.00","75","000",,"0",,,,,,,,,,,,,,,,,,,,,,,,,,,,,,,,,,,,,"MET10909/12/19 23:51:02 METAR KRDU 130451Z 00000KT 8SM FEW085 FEW250 26/23 A3011 RMK AO2 SLP190 T02560233 403560217","FM-15","7",,,,,,,,,,,,,,,,,,,,,,,,,,,,"2009-07-08"
"72306013722","2019-09-12T23:59:00","SOD  ","6",,,,,,,,,,,,,,,"71","84","70","30.09","29.64","75","4.0","19","10.4","0","96","71","210","16","0.00","0","0.0","190","12","BR",,,,,,,,,,,,,,,,,,,,,,,,,,,,,,,,,,,,,,,,,,,,,,,,,,,,,,,,"SOD75624 HR PRECIPITATION (IN): 0.00 SNOW DEPTH (IN):0     24 HR SNOWFALL (IN):0.0  WEATHER(CODE):1  24 HR MAX TEMP (F): 9624 HR MIN TEMP (F): 71AVERAGE STATION PRESSURE:29.640 MINIMUM SEA LEVEL PRESSURE:30.04 TIME OF OCCURRENCE:1649 PEAK WIND SPEED (MPH): 16 PEAK WIND DIR (DEG):210 PEAK WIND TIME (LST):      FASTEST 2MIN SPEED (MPH): 12FASTEST 2MIN DIR (DEG):190 FASTEST 2MIN TIME (LST):     AVERAGE WIND SPEED (MPH): 4.0 24 HR AVG TEMP (F): 84DEPART FROM NORMAL: 11  HEATING DEGREE DAYS:  0 COOLING DEGREE DAYS: 19 LATEST DAY MAX TEMP (0700-1900 LST):96  LATEST NIGHT MIN TEMP(1900-0800 LST):71 HOURLY INCREMENTAL PRECIPITATION VALUES (IN):.00 0.00 0.00 0.00 0.00 0.00 0.00 0.00 0.00 0.00 0.00 0.00 0.00 0.00 0.00 0.00 0.00 0.00 0.00 0.00 0.00 0.00 0.00 0.00","SOD  ","6",,,,,,,,,,,,,,,,,,,,,,,,,"0555","1827",,"2009-07-08"
"72306013722","2019-09-13T00:51:00","FM-15","7",,,,,,,,,,,,,,,,,,,,,,,,,,,,,,,,,,,,,,"30.12","73","76","0.00",,"-0.01","3","91","30.11","FEW:02 85 FEW:02 250","29.65","7.00","74","140",,"3",,,,,,,,,,,,,,,,,,,,,,,,,,,,,,,,,,,,,"MET12309/13/19 00:51:02 METAR KRDU 130551Z 14003KT 7SM FEW085 FEW250 24/23 A3012 RMK AO2 SLP195 T02440228 10289 20244 53004 (AWB)","FM-15","7",,,,,,,,,,,,,,,,,,,,,,,,,,,,"2009-07-08"
"72306013722","2019-09-13T01:00:00","FM-12","4",,,,,,,,,,,,,,,,,,,,,,,,,,,,,,,,,,,,,,,"73","76",,,"-0.01","3","91","30.11",,"29.66","6.84","74","140",,"3",,,,,,,,,,,,,,,,,,,,,,,,,,,,,,,,,,,,,"SYN08072306 32961 21403 10244 20228 30043 40195 53004 90551 333 10289 20217 555 91306=","FM-12","4",,,,,,,,,,,,,,,,,,,,,,,,,,,,"2009-07-08"
"72306013722","2019-09-13T01:51:00","FM-15","7",,,,,,,,,,,,,,,,,,,,,,,,,,,,,,,,,,,,,,"30.12","73","75","0.00","BR:1 ||",,,"94","30.10","FEW:02 80 FEW:02 250","29.65","6.00","74","000",,"0",,,,,,,,,,,,,,,,,,,,,,,,,,,,,,,,,,,,,"MET10809/13/19 01:51:02 METAR KRDU 130651Z 00000KT 6SM BR FEW080 FEW250 24/23 A3012 RMK AO2 SLP194 T02390228 (AWB)","FM-15","7",,,,,,,,,,,,,,,,,,,,,,,,,,,,"2009-07-08"
"72306013722","2019-09-13T02:51:00","FM-15","7",,,,,,,,,,,,,,,,,,,,,,,,,,,,,,,,,,,,,,"30.12","73","75","0.00","BR:1 ||",,,"94","30.10","FEW:02 75 FEW:02 250","29.65","6.00","74","000",,"0",,,,,,,,,,,,,,,,,,,,,,,,,,,,,,,,,,,,,"MET10809/13/19 02:51:02 METAR KRDU 130751Z 00000KT 6SM BR FEW075 FEW250 24/23 A3012 RMK AO2 SLP194 T02390228 (AWB)","FM-15","7",,,,,,,,,,,,,,,,,,,,,,,,,,,,"2009-07-08"
"72306013722","2019-09-13T03:51:00","FM-15","7",,,,,,,,,,,,,,,,,,,,,,,,,,,,,,,,,,,,,,"30.13","72","73","0.00","BR:1 ||","-0.01","3","96","30.12","FEW:02 85 FEW:02 250","29.66","5.00","72","050",,"6",,,,,,,,,,,,,,,,,,,,,,,,,,,,,,,,,,,,,"MET11409/13/19 03:51:02 METAR KRDU 130851Z 05005KT 5SM BR FEW085 FEW250 23/22 A3013 RMK AO2 SLP199 T02280222 53004 (AWB)","FM-15","7",,,,,,,,,,,,,,,,,,,,,,,,,,,,"2009-07-08"
"72306013722","2019-09-13T04:51:00","FM-15","7",,,,,,,,,,,,,,,,,,,,,,,,,,,,,,,,,,,,,,"30.16","71","74","0.00",,,,"91","30.14","FEW:02 60 SCT:04 80 SCT:04 95","29.69","8.00","72","060",,"6",,,,,,,,,,,,,,,,,,,,,,,,,,,,,,,,,,,,,"MET11209/13/19 04:51:02 METAR KRDU 130951Z 06005KT 8SM FEW060 SCT080 SCT095 23/22 A3016 RMK AO2 SLP208 T02330217 (AWB)","FM-15","7",,,,,,,,,,,,,,,,,,,,,,,,,,,,"2009-07-08"
"72306013722","2019-09-13T05:04:00","FM-16","7",,,,,,,,,,,,,,,,,,,,,,,,,,,,,,,,,,,,,,"30.16","72","74",,,,,"94",,"FEW:02 8 FEW:02 60 FEW:02 80","29.69","8.00","73","080",,"3",,,,,,,,,,,,,,,,,,,,,,,,,,,,,,,,,,,,,"MET10509/13/19 05:04:02 SPECI KRDU 131004Z 08003KT 8SM FEW008 FEW060 FEW080 23/22 A3016 RMK AO2 T02330222 (AWB)","FM-16","7",,,,,,,,,,,,,,,,,,,,,,,,,,,,"2009-07-08"
"72306013722","2019-09-13T05:34:00","FM-16","7",,,,,,,,,,,,,,,,,,,,,,,,,,,,,,,,,,,,,,"30.18","73","75",,,,,"94",,"BKN:07 8 BKN:07 20 BKN:07 70","29.71","6.00","74","070",,"7",,,,,,,,,,,,,,,,,,,,,,,,,,,,,,,,,,,,,"MET10809/13/19 05:34:02 SPECI KRDU 131034Z 07006KT 6SM BR BKN008 BKN020 BKN070 24/23 A3018 RMK AO2 T02390228 (AWB)","FM-16","7",,,,,,,,,,,,,,,,,,,,,,,,,,,,"2009-07-08"
"72306013722","2019-09-13T05:44:00","FM-16","7",,,,,,,,,,,,,,,,,,,,,,,,,,,,,,,,,,,,,,"30.18","72","76",,,,,"88",,"FEW:02 8 BKN:07 12 BKN:07 20","29.71","7.00","73","090",,"10",,,,,,,,,,,,,,,,,,,,,,,,,,,,,,,,,,,,,"MET10509/13/19 05:44:02 SPECI KRDU 131044Z 09009KT 7SM FEW008 BKN012 BKN020 24/22 A3018 RMK AO2 T02440222 (AWB)","FM-16","7",,,,,,,,,,,,,,,,,,,,,,,,,,,,"2009-07-08"
"72306013722","2019-09-13T05:51:00","FM-15","7",,,,,,,,,,,,,,,,,,,,,,,,,,,,,,,,,,,,,,"30.18","72","75","0.00",,,,"90","30.16","FEW:02 8 SCT:04 12 SCT:04 20","29.71","5.00","73","080",,"8",,,,,,,,,,,,,,,,,,,,,,,,,,,,,,,,,,,,,"MET11509/13/19 05:51:02 METAR KRDU 131051Z 08007KT 5SM BR FEW008 SCT012 SCT020 24/22 A3018 RMK AO2 SLP215 T02390222 (AWB)","FM-15","7",,,,,,,,,,,,,,,,,,,,,,,,,,,,"2009-07-08"
"72306013722","2019-09-13T06:01:00","FM-16","7",,,,,,,,,,,,,,,,,,,,,,,,,,,,,,,,,,,,,,"30.19","72","75",,"BR:1 ||",,,"90",,"FEW:02 8 BKN:07 12 BKN:07 250","29.72","6.00","73","090",,"9",,,,,,,,,,,,,,,,,,,,,,,,,,,,,,,,,,,,,"MET10809/13/19 06:01:02 SPECI KRDU 131101Z 09008KT 6SM BR FEW008 BKN012 BKN250 24/22 A3019 RMK AO2 T02390222 (KAH)","FM-16","7",,,,,,,,,,,,,,,,,,,,,,,,,,,,"2009-07-08"
"72306013722","2019-09-13T06:19:00","FM-16","7",,,,,,,,,,,,,,,,,,,,,,,,,,,,,,,,,,,,,,"30.19","71","75",,,,,"88",,"FEW:02 8 SCT:04 12 SCT:04 250","29.72","8.00","72","110",,"5",,,,,,,,,,,,,,,,,,,,,,,,,,,,,,,,,,,,,"MET10509/13/19 06:19:02 SPECI KRDU 131119Z 11004KT 8SM FEW008 SCT012 SCT250 24/22 A3019 RMK AO2 T02390217 (KAH)","FM-16","7",,,,,,,,,,,,,,,,,,,,,,,,,,,,"2009-07-08"
"72306013722","2019-09-13T06:51:00","FM-15","7",,,,,,,,,,,,,,,,,,,,,,,,,,,,,,,,,,,,,,"30.19","71","75","0.00",,"-0.06","1","88","30.17","FEW:02 12 FEW:02 250","29.72","10.00","72","070",,"5",,,,,,,,,,,,,,,,,,,,,,,,,,,,,,,,,,,,,"MET12409/13/19 06:51:02 METAR KRDU 131151Z 07004KT 10SM FEW012 FEW250 24/22 A3019 RMK AO2 SLP218 T02390217 10250 20228 51019 (KAH)","FM-15","7",,,,,,,,,,,,,,,,,,,,,,,,,,,,"2009-07-08"
"72306013722","2019-09-13T07:00:00","FM-12","4",,,,,,,,,,,,,,,,,,,,,,,,,,,,,,,,,,,,,,,"71","75",,,"-0.06","1","88","30.17","15","29.73","9.94","72","070",,"5",,,,,,,,,,,,,,,,,,,,,,,,,,,,,,,,,,,,,"SYN08072306 32466 20704 10239 20217 30067 40218 51019 91151 333 10356 20228 555 91312=","FM-12","4",,,,,,,,,,,,,,,,,,,,,,,,,,,,"2009-07-08"
"72306013722","2019-09-13T07:26:00","FM-16","7",,,,,,,,,,,,,,,,,,,,,,,,,,,,,,,,,,,,,,"30.21","71","74",,,,,"91",,"FEW:02 8 BKN:07 12 BKN:07 250","29.74","10.00","72","040",,"10",,,,,,,,,,,,,,,,,,,,,,,,,,,,,,,,,,,,,"MET10609/13/19 07:26:02 SPECI KRDU 131226Z 04009KT 10SM FEW008 BKN012 BKN250 23/22 A3021 RMK AO2 T02330217 (KAH)","FM-16","7",,,,,,,,,,,,,,,,,,,,,,,,,,,,"2009-07-08"
"72306013722","2019-09-13T07:51:00","FM-15","7",,,,,,,,,,,,,,,,,,,,,,,,,,,,,,,,,,,,,,"30.22","70","75","0.00",,,,"84","30.20","FEW:02 8 BKN:07 12 BKN:07 250","29.75","10.00","72","050",,"10",,,,,,,,,,,,,,,,,,,,,,,,,,,,,,,,,,,,,"MET11309/13/19 07:51:02 METAR KRDU 131251Z 05009KT 10SM FEW008 BKN012 BKN250 24/21 A3022 RMK AO2 SLP227 T02390211 (KAH)","FM-15","7",,,,,,,,,,,,,,,,,,,,,,,,,,,,"2009-07-08"
"72306013722","2019-09-13T08:14:00","FM-16","7",,,,,,,,,,,,,,,,,,,,,,,,,,,,,,,,,,,,,,"30.22","71","76",,,,,"85",,"SCT:04 11 SCT:04 250","29.75","10.00","73","070",,"8",,,,,,,,,,,,,,,,,,,,,,,,,,,,,,,,,,,,,"MET09909/13/19 08:14:02 SPECI KRDU 131314Z 07007KT 10SM SCT011 SCT250 24/22 A3022 RMK AO2 T02440217 (KAH)","FM-16","7",,,,,,,,,,,,,,,,,,,,,,,,,,,,"2009-07-08"
"72306013722","2019-09-13T08:51:00","FM-15","7",,,,,,,,,,,,,,,,,,,,,,,,,,,,,,,,,,,,,,"30.24","70","78","0.00",,,,"76","30.22","BKN:07 16 BKN:07 250","29.77","10.00","73","070",,"11",,,,,,,,,,,,,,,,,,,,,,,,,,,,,,,,,,,,,"MET11909/13/19 08:51:02 METAR KRDU 131351Z 07010KT 10SM BKN016 BKN250 26/21 A3024 RMK AO2 SLP233 BKN016 V SCT T02560211 (KAH)","FM-15","7",,,,,,,,,,,,,,,,,,,,,,,,,,,,"2009-07-08"
"72306013722","2019-09-13T09:51:00","FM-15","7",,,,,,,,,,,,,,,,,,,,,,,,,,,,,,,,,,,,,,"30.25","70","77","0.00",,"-0.06","1","79","30.24","BKN:07 16 BKN:07 250","29.78","10.00","72","080",,"14",,,,,,,,,,,,,,,,,,,,,,,,,,,,,,,,,,,,,"MET11209/13/19 09:51:02 METAR KRDU 131451Z 08012KT 10SM BKN016 BKN250 25/21 A3025 RMK AO2 SLP239 T02500211 51020 (KAH)","FM-15","7",,,,,,,,,,,,,,,,,,,,,,,,,,,,"2009-07-08"
"72306013722","2019-09-13T10:51:00","FM-15","7",,,,,,,,,,,,,,,,,,,,,,,,,,,,,,,,,,,,,,"30.27","70","76","0.00",,,,"82","30.25","OVC:08 15","29.80","10.00","72","080",,"13",,,,,,,,,,,,,,,,,,,,,,,,,,,,,,,,,,,,,"MET09909/13/19 10:51:02 METAR KRDU 131551Z 08011KT 10SM OVC015 24/21 A3027 RMK AO2 SLP245 T02440211 (KAH)","FM-15","7",,,,,,,,,,,,,,,,,,,,,,,,,,,,"2009-07-08"
"72306013722","2019-09-13T11:51:00","FM-15","7",,,,,,,,,,,,,,,,,,,,,,,,,,,,,,,,,,,,,,"30.27","70","78","0.00",,,,"76","30.26","BKN:07 17 OVC:08 28","29.80","10.00","73","090",,"8",,,,,,,,,,,,,,,,,,,,,,,,,,,,,,,,,,,,,"MET11109/13/19 11:51:02 METAR KRDU 131651Z 09007KT 10SM BKN017 OVC028 26/21 A3027 RMK AO2 SLP246 T02560211 FIBI (KAH)","FM-15","7",,,,,,,,,,,,,,,,,,,,,,,,,,,,"2009-07-08"
"72306013722","2019-09-13T12:51:00","FM-15","7",,,,,,,,,,,,,,,,,,,,,,,,,,,,,,,,,,,,,,"30.26","70","79","0.00",,"-0.01","0","74","30.24","BKN:07 19 BKN:07 32 OVC:08 250","29.79","10.00","73","060",,"10",,,,,,,,,,,,,,,,,,,,,,,,,,,,,,,,,,,,,"MET13609/13/19 12:51:02 METAR KRDU 131751Z 06009KT 10SM BKN019 BKN032 OVC250 26/21 A3026 RMK AO2 SLP242 T02610211 10267 20233 50002 FIBI (KAH)","FM-15","7",,,,,,,,,,,,,,,,,,,,,,,,,,,,"2009-07-08"
"72306013722","2019-09-13T13:00:00","FM-12","4",,,,,,,,,,,,,,,,,,,,,,,,,,,,,,,,,,,,,,,"70","79",,,"0.01","9","74","30.24","15","29.80","9.94","73","060",,"10",,,,,,,,,,,,,,,,,,,,,,,,,,,,,,,,,,,,,"SYN08072306 32466 80609 10261 20211 30090 40242 50002 91751 333 10267 20233 555 91318=","FM-12","4",,,,,,,,,,,,,,,,,,,,,,,,,,,,"2009-07-08"
"72306013722","2019-09-13T13:20:00","FM-16","7",,,,,,,,,,,,,,,,,,,,,,,,,,,,,,,,,,,,,,"30.25","71","81",,,,,"72",,"SCT:04 20 BKN:07 35 OVC:08 250","29.78","10.00","74","090",,"13",,,,,,,,,,,,,,,,,,,,,,,,,,,,,,,,,,,,,"MET11109/13/19 13:20:02 SPECI KRDU 131820Z 09011KT 10SM SCT020 BKN035 OVC250 27/22 A3025 RMK AO2 T02720217 FIBI (KAH)","FM-16","7",,,,,,,,,,,,,,,,,,,,,,,,,,,,"2009-07-08"
"72306013722","2019-09-13T13:51:00","FM-15","7",,,,,,,,,,,,,,,,,,,,,,,,,,,,,,,,,,,,,,"30.24","70","81","0.00",,,,"69","30.23","SCT:04 22 BKN:07 35 BKN:07 250","29.77","10.00","74","070",,"10",,,,,,,,,,,,,,,,,,,,,,,,,,,,,,,,,,,,,"MET11809/13/19 13:51:02 METAR KRDU 131851Z 07009KT 10SM SCT022 BKN035 BKN250 27/21 A3024 RMK AO2 SLP236 T02720211 FIBI (KAH)","FM-15","7",,,,,,,,,,,,,,,,,,,,,,,,,,,,"2009-07-08"
"72306013722","2019-09-13T14:51:00","FM-15","7",,,,,,,,,,,,,,,,,,,,,,,,,,,,,,,,,,,,,,"30.23","72","77","0.01","-RA:02 |RA |RA",,,"85","30.22","BKN:07 20 OVC:08 40","29.76","10.00","74","070",,"11",,,,,,,,,,,,,,,,,,,,,,,,,,,,,,,,,,,,,"MET12709/13/19 14:51:02 METAR KRDU 131951Z 07010KT 10SM -RA BKN020 OVC040 25/22 A3023 RMK AO2 RAB47 SLP234 P0001 T02500222 FIBI (JBA)","FM-15","7",,,,,,,,,,,,,,,,,,,,,,,,,,,,"2009-07-08"
"72306013722","2019-09-13T15:51:00","FM-15","6",,,,,,,,,,,,,,,,,,,,,,,,,,,,,,,,,,,,,,"30.25","71","77","T","-RA:02 |RA |RA","+0.01","5","82","30.23","BKN:07 20 OVC:08 45","29.78","10.00","73","080",,"13",,,,,,,,,,,,,,,,,,,,,,,,,,,,,,,,,,,,,"MET15209/13/19 15:51:02 METAR KRDU 132051Z 08011KT 10SM -RA BKN020 OVC045 25/22 A3025 RMK AO2 RAE00B49 SLP237 BKN V SCT P0000 60001 T02500217 55004 FIBI (JBA)","FM-15","6",,,,,,,,,,,,,,,,,,,,,,,,,,,,"2009-07-08"
"72306013722","2019-09-13T16:19:00","FM-16","6",,,,,,,,,,,,,,,,,,,,,,,,,,,,,,,,,,,,,,"30.25","72","75",,,,,"90",,"FEW:02 20 BKN:07 45 OVC:08 250","29.78","10.00","73","060",,"9",,,,,,,,,,,,,,,,,,,,,,,,,,,,,,,,,,,,,"MET12309/13/19 16:19:02 SPECI KRDU 132119Z 06008KT 10SM FEW020 BKN045 OVC250 24/22 A3025 RMK AO2 RAE17 P0000 T02390222 FIBI (JBA)","FM-16","6",,,,,,,,,,,,,,,,,,,,,,,,,,,,"2009-07-08"
"72306013722","2019-09-13T16:40:00","FM-16","7",,,,,,,,,,,,,,,,,,,,,,,,,,,,,,,,,,,,,,"30.26","72","75","T",,,,"90",,"BKN:07 12 BKN:07 42 OVC:08 250","29.79","10.00","73","050","17","10",,,,,,,,,,,,,,,,,,,,,,,,,,,,,,,,,,,,,"MET13909/13/19 16:40:02 SPECI KRDU 132140Z 05009G15KT 10SM BKN012 BKN042 OVC250 24/22 A3026 RMK AO2 RAE17 BKN012 V SCT P0000 T02390222 FIBI (JBA)","FM-16","7",,,,,,,,,,,,,,,,,,,,,,,,,,,,"2009-07-08"
"72306013722","2019-09-13T16:51:00","FM-15","7",,,,,,,,,,,,,,,,,,,,,,,,,,,,,,,,,,,,,,"30.26","71","75","T",,,,"88","30.24","BKN:07 12 OVC:08 20","29.79","10.00","72","060",,"10",,,,,,,,,,,,,,,,,,,,,,,,,,,,,,,,,,,,,"MET12309/13/19 16:51:02 METAR KRDU 132151Z 06009KT 10SM BKN012 OVC020 24/22 A3026 RMK AO2 RAE17 SLP241 P0000 T02390217 FIBI (JBA)","FM-15","7",,,,,,,,,,,,,,,,,,,,,,,,,,,,"2009-07-08"
"72306013722","2019-09-13T17:49:00","FM-16","6",,,,,,,,,,,,,,,,,,,,,,,,,,,,,,,,,,,,,,"30.26","70","73",,,,,"89",,"SCT:04 14 BKN:07 24 BKN:07 50","29.79","10.00","71","080","21","10",,,,,,,,,,,,,,,,,,,,,,,,,,,,,,,,,,,,,"MET11409/13/19 17:49:02 SPECI KRDU 132249Z 08009G18KT 10SM SCT014 BKN024 BKN050 23/21 A3026 RMK AO2 SCT V BKN FIBI (JBA)","FM-16","6",,,,,,,,,,,,,,,,,,,,,,,,,,,,"2009-07-08"
"72306013722","2019-09-13T17:51:00","FM-15","7",,,,,,,,,,,,,,,,,,,,,,,,,,,,,,,,,,,,,,"30.26","69","74","0.00",,,,"85","30.24","SCT:04 14 BKN:07 24 BKN:07 50","29.79","10.00","71","080","21","13",,,,,,,,,,,,,,,,,,,,,,,,,,,,,,,,,,,,,"MET13109/13/19 17:51:02 METAR KRDU 132251Z 08011G18KT 10SM SCT014 BKN024 BKN050 23/21 A3026 RMK AO2 SLP242 SCT V BKN T02330206 FIBI (JBA)","FM-15","7",,,,,,,,,,,,,,,,,,,,,,,,,,,,"2009-07-08"
"72306013722","2019-09-13T18:29:00","FM-16","7",,,,,,,,,,,,,,,,,,,,,,,,,,,,,,,,,,,,,,"30.27","68","74",,,,,"82",,"SCT:04 14 BKN:07 50 OVC:08 250","29.80","10.00","70","080",,"14",,,,,,,,,,,,,,,,,,,,,,,,,,,,,,,,,,,,,"MET12109/13/19 18:29:02 SPECI KRDU 132329Z 08012KT 10SM SCT014 BKN050 OVC250 23/20 A3027 RMK AO2 SCT V BKN T02330200 FIBI (JBA)","FM-16","7",,,,,,,,,,,,,,,,,,,,,,,,,,,,"2009-07-08"
"72306013722","2019-09-13T18:51:00","FM-15","7",,,,,,,,,,,,,,,,,,,,,,,,,,,,,,,,,,,,,,"30.27","68","73","0.00",,"-0.02","3","84","30.26","SCT:04 14 BKN:07 50 OVC:08 250","29.80","10.00","70","090",,"13",,,,,,,,,,,,,,,,,,,,,,,,,,,,,,,,,,,,,"MET15209/13/19 18:51:02 METAR KRDU 132351Z 09011KT 10SM SCT014 BKN050 OVC250 23/20 A3027 RMK AO2 SLP246 SCT V BKN 60001 T02280200 10278 20228 53008 FIBI (JBA)","FM-15","7",,,,,,,,,,,,,,,,,,,,,,,,,,,,"2009-07-08"
"72306013722","2019-09-13T19:00:00","FM-12","4",,,,,,,,,,,,,,,,,,,,,,,,,,,,,,,,,,,,,,,"68","73",,,"-0.02","3","84","30.25","15","29.80","9.94","70","090",,"13",,,,,,,,,,,,,,,,,,,,,,,,,,,,,,,,,,,,,"SYN08672306 12466 80911 10228 20200 30093 40245 53008 69931 92351 333 10278 20228 555 91400=","FM-12","4",,,,,,,,,,,,,,,,,,,,,,,,,,,,"2009-07-08"
"72306013722","2019-09-13T19:49:00","FM-16","6",,,,,,,,,,,,,,,,,,,,,,,,,,,,,,,,,,,,,,"30.29","70","73",,,,,"89",,"BKN:07 14 OVC:08 50","29.82","10.00","71","080",,"8",,,,,,,,,,,,,,,,,,,,,,,,,,,,,,,,,,,,,"MET09409/13/19 19:49:03 SPECI KRDU 140049Z 08007KT 10SM BKN014 OVC050 23/21 A3029 RMK AO2 FIBI (JBA)","FM-16","6",,,,,,,,,,,,,,,,,,,,,,,,,,,,"2009-07-08"
"72306013722","2019-09-13T19:51:00","FM-15","7",,,,,,,,,,,,,,,,,,,,,,,,,,,,,,,,,,,,,,"30.29","69","73","0.00",,,,"87","30.28","BKN:07 14 OVC:08 50","29.82","10.00","70","080",,"9",,,,,,,,,,,,,,,,,,,,,,,,,,,,,,,,,,,,,"MET10009/13/19 19:51:01 METAR KRDU 140051Z 08008KT 10SM BKN014 OVC050 23/21 A3029 RMK AO2 SLP253 T02280206","FM-15","7",,,,,,,,,,,,,,,,,,,,,,,,,,,,"2009-07-08"
"72306013722","2019-09-13T20:21:00","FM-16","7",,,,,,,,,,,,,,,,,,,,,,,,,,,,,,,,,,,,,,"30.30","67","73",,,,,"81",,"SCT:04 14 BKN:07 50 BKN:07 250","29.83","10.00","69","080",,"14",,,,,,,,,,,,,,,,,,,,,,,,,,,,,,,,,,,,,"MET10009/13/19 20:21:01 SPECI KRDU 140121Z 08012KT 10SM SCT014 BKN050 BKN250 23/19 A3030 RMK AO2 T02280194","FM-16","7",,,,,,,,,,,,,,,,,,,,,,,,,,,,"2009-07-08"
"72306013722","2019-09-13T20:51:00","FM-15","7",,,,,,,,,,,,,,,,,,,,,,,,,,,,,,,,,,,,,,"30.31","67","73","0.00",,,,"81","30.29","FEW:02 14 BKN:07 42 BKN:07 250","29.84","10.00","69","080",,"10",,,,,,,,,,,,,,,,,,,,,,,,,,,,,,,,,,,,,"MET10709/13/19 20:51:01 METAR KRDU 140151Z 08009KT 10SM FEW014 BKN042 BKN250 23/19 A3031 RMK AO2 SLP258 T02280194","FM-15","7",,,,,,,,,,,,,,,,,,,,,,,,,,,,"2009-07-08"
"72306013722","2019-09-13T21:51:00","FM-15","7",,,,,,,,,,,,,,,,,,,,,,,,,,,,,,,,,,,,,,"30.30","66","72","0.00",,"-0.03","0","82","30.29","FEW:02 14 OVC:08 38","29.83","10.00","68","070",,"11",,,,,,,,,,,,,,,,,,,,,,,,,,,,,,,,,,,,,"MET10609/13/19 21:51:01 METAR KRDU 140251Z 07010KT 10SM FEW014 OVC038 22/19 A3030 RMK AO2 SLP257 T02220189 50011","FM-15","7",,,,,,,,,,,,,,,,,,,,,,,,,,,,"2009-07-08"
"72306013722","2019-09-13T22:51:00","FM-15","7",,,,,,,,,,,,,,,,,,,,,,,,,,,,,,,,,,,,,,"30.30","66","71","0.00",,,,"84","30.29","SCT:04 17 BKN:07 38 OVC:08 250","29.83","10.00","68","080",,"10",,,,,,,,,,,,,,,,,,,,,,,,,,,,,,,,,,,,,"MET10709/13/19 22:51:02 METAR KRDU 140351Z 08009KT 10SM SCT017 BKN038 OVC250 22/19 A3030 RMK AO2 SLP257 T02170189","FM-15","7",,,,,,,,,,,,,,,,,,,,,,,,,,,,"2009-07-08"
"72306013722","2019-09-13T23:25:00","FM-16","7",,,,,,,,,,,,,,,,,,,,,,,,,,,,,,,,,,,,,,"30.30","66","71",,,,,"84",,"BKN:07 17 BKN:07 38 OVC:08 250","29.83","10.00","68","080",,"9",,,,,,,,,,,,,,,,,,,,,,,,,,,,,,,,,,,,,"MET10009/13/19 23:25:02 SPECI KRDU 140425Z 08008KT 10SM BKN017 BKN038 OVC250 22/19 A3030 RMK AO2 T02170189","FM-16","7",,,,,,,,,,,,,,,,,,,,,,,,,,,,"2009-07-08"
"72306013722","2019-09-13T23:51:00","FM-15","7",,,,,,,,,,,,,,,,,,,,,,,,,,,,,,,,,,,,,,"30.29","66","71","0.00",,,,"84","30.27","BKN:07 17 BKN:07 38 OVC:08 250","29.82","10.00","68","080",,"8",,,,,,,,,,,,,,,,,,,,,,,,,,,,,,,,,,,,,"MET11709/13/19 23:51:02 METAR KRDU 140451Z 08007KT 10SM BKN017 BKN038 OVC250 22/19 A3029 RMK AO2 SLP252 T02170189 402780217","FM-15","7",,,,,,,,,,,,,,,,,,,,,,,,,,,,"2009-07-08"
"72306013722","2019-09-13T23:59:00","SOD  ","6",,,,,,,,,,,,,,,"70","77","84","30.21","29.73","72","8.9","12","3.7","0","82","71","080","21","0.01","0","0.0","080","17","RA BR",,,,,,,,,,,,,,,,,,,,,,,,,,,,,,,,,,,,,,,,,,,,,,,,,,,,,,,,"SOD75624 HR PRECIPITATION (IN): 0.01 SNOW DEPTH (IN):0     24 HR SNOWFALL (IN):0.0  WEATHER(CODE):1  24 HR MAX TEMP (F): 8224 HR MIN TEMP (F): 71AVERAGE STATION PRESSURE:29.735 MINIMUM SEA LEVEL PRESSURE:30.09 TIME OF OCCURRENCE:0006 PEAK WIND SPEED (MPH): 21 PEAK WIND DIR (DEG): 80 PEAK WIND TIME (LST):      FASTEST 2MIN SPEED (MPH): 17FASTEST 2MIN DIR (DEG): 80 FASTEST 2MIN TIME (LST):     AVERAGE WIND SPEED (MPH): 8.9 24 HR AVG TEMP (F): 77DEPART FROM NORMAL:  4  HEATING DEGREE DAYS:  0 COOLING DEGREE DAYS: 12 LATEST DAY MAX TEMP (0700-1900 LST):82  LATEST NIGHT MIN TEMP(1900-0800 LST):73 HOURLY INCREMENTAL PRECIPITATION VALUES (IN):.00 0.00 0.00 0.00 0.00 0.00 0.00 0.00 0.00 0.00 0.00 0.00 0.00 0.00 0.01 T    T    0.00 0.00 0.00 0.00 0.00 0.00 0.00","SOD  ","6",,,,,,,,,,,,,,,,,,,,,,,,,"0556","1826",,"2009-07-08"
"72306013722","2019-09-14T00:10:00","FM-16","7",,,,,,,,,,,,,,,,,,,,,,,,,,,,,,,,,,,,,,"30.29","66","70",,,,,"87",,"BKN:07 13 OVC:08 38","29.82","10.00","67","080",,"6",,,,,,,,,,,,,,,,,,,,,,,,,,,,,,,,,,,,,"MET09909/14/19 00:10:02 SPECI KRDU 140510Z 08005KT 10SM BKN013 OVC038 21/19 A3029 RMK AO2 T02110189 (SMK)","FM-16","7",,,,,,,,,,,,,,,,,,,,,,,,,,,,"2009-07-08"
"72306013722","2019-09-14T00:51:00","FM-15","7",,,,,,,,,,,,,,,,,,,,,,,,,,,,,,,,,,,,,,"30.28","66","70","0.00",,"+0.02","8","87","30.27","BKN:07 12 OVC:08 24","29.81","10.00","67","070",,"5",,,,,,,,,,,,,,,,,,,,,,,,,,,,,,,,,,,,,"MET12409/14/19 00:51:02 METAR KRDU 140551Z 07004KT 10SM BKN012 OVC024 21/19 A3028 RMK AO2 SLP249 T02110189 10233 20211 58007 (SMK)","FM-15","7",,,,,,,,,,,,,,,,,,,,,,,,,,,,"2009-07-08"
"72306013722","2019-09-14T01:00:00","FM-12","4",,,,,,,,,,,,,,,,,,,,,,,,,,,,,,,,,,,,,,,"66","70",,,"+0.02","8","87","30.27","15","29.82","9.94","67","070",,"5",,,,,,,,,,,,,,,,,,,,,,,,,,,,,,,,,,,,,"SYN08072306 32466 80704 10211 20189 30097 40249 58007 90551 333 10250 20211 555 91406=","FM-12","4",,,,,,,,,,,,,,,,,,,,,,,,,,,,"2009-07-08"
"72306013722","2019-09-14T01:51:00","FM-15","7",,,,,,,,,,,,,,,,,,,,,,,,,,,,,,,,,,,,,,"30.27","66","70","0.00",,,,"87","30.25","BKN:07 12 OVC:08 23","29.80","10.00","67","030",,"6",,,,,,,,,,,,,,,,,,,,,,,,,,,,,,,,,,,,,"MET10609/14/19 01:51:02 METAR KRDU 140651Z 03005KT 10SM BKN012 OVC023 21/19 A3027 RMK AO2 SLP245 T02110189 (SMK)","FM-15","7",,,,,,,,,,,,,,,,,,,,,,,,,,,,"2009-07-08"
"72306013722","2019-09-14T02:51:00","FM-15","7",,,,,,,,,,,,,,,,,,,,,,,,,,,,,,,,,,,,,,"30.27","66","70","0.00",,,,"87","30.25","BKN:07 10 OVC:08 23","29.80","10.00","67","040",,"5",,,,,,,,,,,,,,,,,,,,,,,,,,,,,,,,,,,,,"MET10609/14/19 02:51:02 METAR KRDU 140751Z 04004KT 10SM BKN010 OVC023 21/19 A3027 RMK AO2 SLP245 T02110189 (SMK)","FM-15","7",,,,,,,,,,,,,,,,,,,,,,,,,,,,"2009-07-08"
"72306013722","2019-09-14T03:51:00","FM-15","7",,,,,,,,,,,,,,,,,,,,,,,,,,,,,,,,,,,,,,"30.26","66","69","0.00",,"+0.01","6","90","30.25","BKN:07 10 OVC:08 21","29.79","9.00","67","050",,"5",,,,,,,,,,,,,,,,,,,,,,,,,,,,,,,,,,,,,"MET11109/14/19 03:51:02 METAR KRDU 140851Z 05004KT 9SM BKN010 OVC021 21/19 A3026 RMK AO2 SLP244 T02060189 56005 (SMK)","FM-15","7",,,,,,,,,,,,,,,,,,,,,,,,,,,,"2009-07-08"
"72306013722","2019-09-14T04:51:00","FM-15","7",,,,,,,,,,,,,,,,,,,,,,,,,,,,,,,,,,,,,,"30.27","66","69","0.00",,,,"90","30.26","BKN:07 10 OVC:08 21","29.80","9.00","67","050",,"6",,,,,,,,,,,,,,,,,,,,,,,,,,,,,,,,,,,,,"MET10509/14/19 04:51:02 METAR KRDU 140951Z 05005KT 9SM BKN010 OVC021 21/19 A3027 RMK AO2 SLP246 T02060189 (SMK)","FM-15","7",,,,,,,,,,,,,,,,,,,,,,,,,,,,"2009-07-08"
"72306013722","2019-09-14T05:03:00","FM-16","7",,,,,,,,,,,,,,,,,,,,,,,,,,,,,,,,,,,,,,"30.27","66","69",,,,,"90",,"OVC:08 8","29.80","9.00","67","050",,"6",,,,,,,,,,,,,,,,,,,,,,,,,,,,,,,,,,,,,"MET09109/14/19 05:03:02 SPECI KRDU 141003Z 05005KT 9SM OVC008 21/19 A3027 RMK AO2 T02060189 (SMK)","FM-16","7",,,,,,,,,,,,,,,,,,,,,,,,,,,,"2009-07-08"
"72306013722","2019-09-14T05:51:00","FM-15","7",,,,,,,,,,,,,,,,,,,,,,,,,,,,,,,,,,,,,,"30.28","66","69","0.00",,,,"90","30.27","OVC:08 8","29.81","9.00","67","040",,"5",,,,,,,,,,,,,,,,,,,,,,,,,,,,,,,,,,,,,"MET09809/14/19 05:51:02 METAR KRDU 141051Z 04004KT 9SM OVC008 21/19 A3028 RMK AO2 SLP249 T02060189 (SMK)","FM-15","7",,,,,,,,,,,,,,,,,,,,,,,,,,,,"2009-07-08"
"72306013722","2019-09-14T06:51:00","FM-15","7",,,,,,,,,,,,,,,,,,,,,,,,,,,,,,,,,,,,,,"30.29","67","69","0.00",,"-0.03","3","93","30.28","BKN:07 9 OVC:08 33","29.82","10.00","68","030",,"5",,,,,,,,,,,,,,,,,,,,,,,,,,,,,,,,,,,,,"MET12909/14/19 06:51:02 METAR KRDU 141151Z 03004KT 10SM BKN009 OVC033 21/19 A3029 RMK AO2 SLP255 70001 T02060194 10211 20206 53009 (RP)","FM-15","7",,,,,,,,,,,,,,,,,,,,,,,,,,,,"2009-07-08"
"72306013722","2019-09-14T07:00:00","FM-12","4",,,,,,,,,,,,,,,,,,,,,,,,,,,,,,,,,,,,,,,"67","69",,,"-0.03","3","93","30.28","8","29.83","9.94","68","030",,"5",,,,,,,,,,,,,,,,,,,,,,,,,,,,,,,,,,,,,"SYN08672306 32366 80304 10206 20194 30100 40255 53009 91151 333 10278 20206 70003 555 91412=","FM-12","4",,,,,,,,,,,,,,,,,,,,,,,,,,,,"2009-07-08"
"72306013722","2019-09-14T07:21:00","FM-16","7",,,,,,,,,,,,,,,,,,,,,,,,,,,,,,,,,,,,,,"30.30","66","69",,,,,"90",,"FEW:02 10 BKN:07 22 OVC:08 33","29.83","10.00","67","030",,"7",,,,,,,,,,,,,,,,,,,,,,,,,,,,,,,,,,,,,"MET10509/14/19 07:21:02 SPECI KRDU 141221Z 03006KT 10SM FEW010 BKN022 OVC033 21/19 A3030 RMK AO2 T02060189 (RP)","FM-16","7",,,,,,,,,,,,,,,,,,,,,,,,,,,,"2009-07-08"
"72306013722","2019-09-14T07:51:00","FM-15","7",,,,,,,,,,,,,,,,,,,,,,,,,,,,,,,,,,,,,,"30.29","66","70","0.00",,,,"87","30.28","FEW:02 12 SCT:04 22 OVC:08 34","29.82","10.00","67","050",,"5",,,,,,,,,,,,,,,,,,,,,,,,,,,,,,,,,,,,,"MET11209/14/19 07:51:02 METAR KRDU 141251Z 05004KT 10SM FEW012 SCT022 OVC034 21/19 A3029 RMK AO2 SLP255 T02110189 (RP)","FM-15","7",,,,,,,,,,,,,,,,,,,,,,,,,,,,"2009-07-08"
"72306013722","2019-09-14T08:51:00","FM-15","7",,,,,,,,,,,,,,,,,,,,,,,,,,,,,,,,,,,,,,"30.30","67","73","0.00",,,,"81","30.29","FEW:02 12 FEW:02 22 OVC:08 37","29.83","10.00","69","070",,"7",,,,,,,,,,,,,,,,,,,,,,,,,,,,,,,,,,,,,"MET11209/14/19 08:51:02 METAR KRDU 141351Z 07006KT 10SM FEW012 FEW022 OVC037 23/19 A3030 RMK AO2 SLP256 T02280194 (RP)","FM-15","7",,,,,,,,,,,,,,,,,,,,,,,,,,,,"2009-07-08"
"72306013722","2019-09-14T09:51:00","FM-15","7",,,,,,,,,,,,,,,,,,,,,,,,,,,,,,,,,,,,,,"30.29","68","77","0.00",,"+0.00","8","74","30.28","FEW:02 14 FEW:02 40","29.82","10.00","71","VRB",,"3",,,,,,,,,,,,,,,,,,,,,,,,,,,,,,,,,,,,,"MET11109/14/19 09:51:02 METAR KRDU 141451Z VRB03KT 10SM FEW014 FEW040 25/20 A3029 RMK AO2 SLP253 T02500200 58001 (RP)","FM-15","7",,,,,,,,,,,,,,,,,,,,,,,,,,,,"2009-07-08"
"72306013722","2019-09-14T10:51:00","FM-15","7",,,,,,,,,,,,,,,,,,,,,,,,,,,,,,,,,,,,,,"30.28","68","80","0.00",,,,"67","30.27","SCT:04 20 BKN:07 37","29.81","10.00","72","150",,"6",,,,,,,,,,,,,,,,,,,,,,,,,,,,,,,,,,,,,"MET10509/14/19 10:51:02 METAR KRDU 141551Z 15005KT 10SM SCT020 BKN037 27/20 A3028 RMK AO2 SLP250 T02670200 (RP)","FM-15","7",,,,,,,,,,,,,,,,,,,,,,,,,,,,"2009-07-08"
"72306013722","2019-09-14T11:51:00","FM-15","7",,,,,,,,,,,,,,,,,,,,,,,,,,,,,,,,,,,,,,"30.26","68","80","0.00",,,,"67","30.24","SCT:04 26 BKN:07 37","29.79","10.00","72","090",,"9",,,,,,,,,,,,,,,,,,,,,,,,,,,,,,,,,,,,,"MET10509/14/19 11:51:02 METAR KRDU 141651Z 09008KT 10SM SCT026 BKN037 27/20 A3026 RMK AO2 SLP242 T02670200 (RP)","FM-15","7",,,,,,,,,,,,,,,,,,,,,,,,,,,,"2009-07-08"
"72306013722","2019-09-14T12:51:00","FM-15","7",,,,,,,,,,,,,,,,,,,,,,,,,,,,,,,,,,,,,,"30.25","67","82","0.00",,"+0.04","8","60","30.24","FEW:02 28 BKN:07 40","29.78","10.00","72","000",,"0",,,,,,,,,,,,,,,,,,,,,,,,,,,,,,,,,,,,,"MET12309/14/19 12:51:02 METAR KRDU 141751Z 00000KT 10SM FEW028 BKN040 28/19 A3025 RMK AO2 SLP239 T02780194 10278 20206 58014 (RP)","FM-15","7",,,,,,,,,,,,,,,,,,,,,,,,,,,,"2009-07-08"
"72306013722","2019-09-14T13:00:00","FM-12","4",,,,,,,,,,,,,,,,,,,,,,,,,,,,,,,,,,,,,,,"67","82",,,"+0.04","8","60","30.24","26","29.79","9.94","72","000",,"0",,,,,,,,,,,,,,,,,,,,,,,,,,,,,,,,,,,,,"SYN08072306 32566 60000 10278 20194 30087 40239 58014 91751 333 10278 20206 555 91418=","FM-12","4",,,,,,,,,,,,,,,,,,,,,,,,,,,,"2009-07-08"
"72306013722","2019-09-14T13:51:00","FM-15","7",,,,,,,,,,,,,,,,,,,,,,,,,,,,,,,,,,,,,,"30.23","67","81","0.00",,,,"62","30.22","BKN:07 33 BKN:07 41","29.76","10.00","72","070",,"5",,,,,,,,,,,,,,,,,,,,,,,,,,,,,,,,,,,,,"MET10509/14/19 13:51:02 METAR KRDU 141851Z 07004KT 10SM BKN033 BKN041 27/19 A3023 RMK AO2 SLP232 T02720194 (RP)","FM-15","7",,,,,,,,,,,,,,,,,,,,,,,,,,,,"2009-07-08"
"72306013722","2019-09-14T14:51:00","FM-15","7",,,,,,,,,,,,,,,,,,,,,,,,,,,,,,,,,,,,,,"30.21","67","82","0.00",,,,"60","30.19","BKN:07 32 OVC:08 40","29.74","10.00","72","080",,"6",,,,,,,,,,,,,,,,,,,,,,,,,,,,,,,,,,,,,"MET10509/14/19 14:51:02 METAR KRDU 141951Z 08005KT 10SM BKN032 OVC040 28/19 A3021 RMK AO2 SLP225 T02780194 (HA)","FM-15","7",,,,,,,,,,,,,,,,,,,,,,,,,,,,"2009-07-08"
"72306013722","2019-09-14T15:51:00","FM-15","7",,,,,,,,,,,,,,,,,,,,,,,,,,,,,,,,,,,,,,"30.20","67","82","0.00",,"+0.05","6","60","30.19","BKN:07 44","29.73","10.00","72","100",,"5",,,,,,,,,,,,,,,,,,,,,,,,,,,,,,,,,,,,,"MET10409/14/19 15:51:02 METAR KRDU 142051Z 10004KT 10SM BKN044 28/19 A3020 RMK AO2 SLP222 T02780194 56017 (HA)","FM-15","7",,,,,,,,,,,,,,,,,,,,,,,,,,,,"2009-07-08"
"72306013722","2019-09-14T16:51:00","FM-15","7",,,,,,,,,,,,,,,,,,,,,,,,,,,,,,,,,,,,,,"30.19","67","82","0.00",,,,"60","30.17","BKN:07 45","29.72","10.00","72","100",,"6",,,,,,,,,,,,,,,,,,,,,,,,,,,,,,,,,,,,,"MET09809/14/19 16:51:02 METAR KRDU 142151Z 10005KT 10SM BKN045 28/19 A3019 RMK AO2 SLP218 T02780194 (HA)","FM-15","7",,,,,,,,,,,,,,,,,,,,,,,,,,,,"2009-07-08"
"72306013722","2019-09-14T17:51:00","FM-15","7",,,,,,,,,,,,,,,,,,,,,,,,,,,,,,,,,,,,,,"30.19","67","80","0.00",,,,"64","30.18","BKN:07 45","29.72","10.00","71","150",,"3",,,,,,,,,,,,,,,,,,,,,,,,,,,,,,,,,,,,,"MET09809/14/19 17:51:02 METAR KRDU 142251Z 15003KT 10SM BKN045 27/19 A3019 RMK AO2 SLP219 T02670194 (HA)","FM-15","7",,,,,,,,,,,,,,,,,,,,,,,,,,,,"2009-07-08"
"72306013722","2019-09-14T18:51:00","FM-15","7",,,,,,,,,,,,,,,,,,,,,,,,,,,,,,,,,,,,,,"30.19","68","76","0.00",,"+0.01","5","77","30.18","SCT:04 45 BKN:07 250","29.72","10.00","71","000",,"0",,,,,,,,,,,,,,,,,,,,,,,,,,,,,,,,,,,,,"MET12309/14/19 18:51:02 METAR KRDU 142351Z 00000KT 10SM SCT045 BKN250 24/20 A3019 RMK AO2 SLP220 T02440200 10283 20244 55002 (HA)","FM-15","7",,,,,,,,,,,,,,,,,,,,,,,,,,,,"2009-07-08"
"72306013722","2019-09-14T19:00:00","FM-12","4",,,,,,,,,,,,,,,,,,,,,,,,,,,,,,,,,,,,,,,"68","76",,,"+0.01","5","77","30.18","41","29.73","9.94","71","000",,"0",,,,,,,,,,,,,,,,,,,,,,,,,,,,,,,,,,,,,"SYN08072306 32666 60000 10244 20200 30067 40220 55002 92351 333 10283 20206 555 91500=","FM-12","4",,,,,,,,,,,,,,,,,,,,,,,,,,,,"2009-07-08"
"72306013722","2019-09-14T19:51:00","FM-15","7",,,,,,,,,,,,,,,,,,,,,,,,,,,,,,,,,,,,,,"30.19","69","75","0.00",,,,"82","30.17","SCT:04 45 BKN:07 250","29.72","10.00","71","110",,"3",,,,,,,,,,,,,,,,,,,,,,,,,,,,,,,,,,,,,"MET10009/14/19 19:51:01 METAR KRDU 150051Z 11003KT 10SM SCT045 BKN250 24/21 A3019 RMK AO2 SLP217 T02390206","FM-15","7",,,,,,,,,,,,,,,,,,,,,,,,,,,,"2009-07-08"
"72306013722","2019-09-14T20:51:00","FM-15","7",,,,,,,,,,,,,,,,,,,,,,,,,,,,,,,,,,,,,,"30.19","69","73","0.00",,,,"87","30.17","SCT:04 45 BKN:07 250","29.72","10.00","70","000",,"0",,,,,,,,,,,,,,,,,,,,,,,,,,,,,,,,,,,,,"MET10009/14/19 20:51:01 METAR KRDU 150151Z 00000KT 10SM SCT045 BKN250 23/21 A3019 RMK AO2 SLP217 T02280206","FM-15","7",,,,,,,,,,,,,,,,,,,,,,,,,,,,"2009-07-08"
"72306013722","2019-09-14T21:51:00","FM-15","7",,,,,,,,,,,,,,,,,,,,,,,,,,,,,,,,,,,,,,"30.18","69","72","0.00",,"+0.01","6","91","30.17","FEW:02 45 SCT:04 250","29.71","10.00","70","000",,"0",,,,,,,,,,,,,,,,,,,,,,,,,,,,,,,,,,,,,"MET10609/14/19 21:51:01 METAR KRDU 150251Z 00000KT 10SM FEW045 SCT250 22/21 A3018 RMK AO2 SLP216 T02220206 56003","FM-15","7",,,,,,,,,,,,,,,,,,,,,,,,,,,,"2009-07-08"
"72306013722","2019-09-14T22:51:00","FM-15","7",,,,,,,,,,,,,,,,,,,,,,,,,,,,,,,,,,,,,,"30.18","68","70","0.00",,,,"93","30.16","FEW:02 45 SCT:04 250","29.71","10.00","69","000",,"0",,,,,,,,,,,,,,,,,,,,,,,,,,,,,,,,,,,,,"MET10009/14/19 22:51:02 METAR KRDU 150351Z 00000KT 10SM FEW045 SCT250 21/20 A3018 RMK AO2 SLP215 T02110200","FM-15","7",,,,,,,,,,,,,,,,,,,,,,,,,,,,"2009-07-08"
"72306013722","2019-09-14T23:51:00","FM-15","7",,,,,,,,,,,,,,,,,,,,,,,,,,,,,,,,,,,,,,"30.17","68","70","0.00",,,,"93","30.16","FEW:02 45 SCT:04 250","29.70","10.00","69","000",,"0",,,,,,,,,,,,,,,,,,,,,,,,,,,,,,,,,,,,,"MET11009/14/19 23:51:02 METAR KRDU 150451Z 00000KT 10SM FEW045 SCT250 21/20 A3017 RMK AO2 SLP213 T02110200 402830206","FM-15","7",,,,,,,,,,,,,,,,,,,,,,,,,,,,"2009-07-08"
"72306013722","2019-09-14T23:59:00","SOD  ","6",,,,,,,,,,,,,,,"67","76","78","30.22","29.78","70","3.8","11","3.0","0","83","69","150","16","0.00","0","0.0","110","8",,,,,,,,,,,,,,,,,,,,,,,,,,,,,,,,,,,,,,,,,,,,,,,,,,,,,,,,,"SOD73924 HR PRECIPITATION (IN): 0.00 SNOW DEPTH (IN):0     24 HR SNOWFALL (IN):0.0  24 HR MAX TEMP (F): 8324 HR MIN TEMP (F): 69AVERAGE STATION PRESSURE:29.775 MINIMUM SEA LEVEL PRESSURE:30.16 TIME OF OCCURRENCE:2359 PEAK WIND SPEED (MPH): 16 PEAK WIND DIR (DEG):150 PEAK WIND TIME (LST):      FASTEST 2MIN SPEED (MPH):  8FASTEST 2MIN DIR (DEG):110 FASTEST 2MIN TIME (LST):     AVERAGE WIND SPEED (MPH): 3.8 24 HR AVG TEMP (F): 76DEPART FROM NORMAL:  3  HEATING DEGREE DAYS:  0 COOLING DEGREE DAYS: 11 LATEST DAY MAX TEMP (0700-1900 LST):83  LATEST NIGHT MIN TEMP(1900-0800 LST):69 HOURLY INCREMENTAL PRECIPITATION VALUES (IN):.00 0.00 0.00 0.00 0.00 0.00 0.00 0.00 0.00 0.00 0.00 0.00 0.00 0.00 0.00 0.00 0.00 0.00 0.00 0.00 0.00 0.00 0.00 0.00","SOD  ","6",,,,,,,,,,,,,,,,,,,,,,,,,"0557","1824",,"2009-07-08"
"72306013722","2019-09-15T00:51:00","FM-15","7",,,,,,,,,,,,,,,,,,,,,,,,,,,,,,,,,,,,,,"30.18","68","70","0.00",,"+0.01","5","93","30.16","SCT:04 250","29.71","10.00","69","000",,"0",,,,,,,,,,,,,,,,,,,,,,,,,,,,,,,,,,,,,"MET11709/15/19 00:51:02 METAR KRDU 150551Z 00000KT 10SM SCT250 21/20 A3018 RMK AO2 SLP214 T02110200 10244 20211 55003 (SMK)","FM-15","7",,,,,,,,,,,,,,,,,,,,,,,,,,,,"2009-07-08"
"72306013722","2019-09-15T01:00:00","FM-12","4",,,,,,,,,,,,,,,,,,,,,,,,,,,,,,,,,,,,,,,"68","70",,,"+0.01","5","93","30.16",,"29.72","9.94","69","000",,"0",,,,,,,,,,,,,,,,,,,,,,,,,,,,,,,,,,,,,"SYN08072306 32966 40000 10211 20200 30063 40214 55003 90551 333 10244 20206 555 91506=","FM-12","4",,,,,,,,,,,,,,,,,,,,,,,,,,,,"2009-07-08"
"72306013722","2019-09-15T01:51:00","FM-15","7",,,,,,,,,,,,,,,,,,,,,,,,,,,,,,,,,,,,,,"30.17","68","70","0.00",,,,"93","30.15","SCT:04 250","29.70","10.00","69","000",,"0",,,,,,,,,,,,,,,,,,,,,,,,,,,,,,,,,,,,,"MET09909/15/19 01:51:02 METAR KRDU 150651Z 00000KT 10SM SCT250 21/20 A3017 RMK AO2 SLP210 T02110200 (SMK)","FM-15","7",,,,,,,,,,,,,,,,,,,,,,,,,,,,"2009-07-08"
"72306013722","2019-09-15T02:51:00","FM-15","7",,,,,,,,,,,,,,,,,,,,,,,,,,,,,,,,,,,,,,"30.16","68","69","0.00",,,,"96","30.14","SCT:04 250","29.69","7.00","68","000",,"0",,,,,,,,,,,,,,,,,,,,,,,,,,,,,,,,,,,,,"MET09809/15/19 02:51:02 METAR KRDU 150751Z 00000KT 7SM SCT250 21/20 A3016 RMK AO2 SLP208 T02060200 (SMK)","FM-15","7",,,,,,,,,,,,,,,,,,,,,,,,,,,,"2009-07-08"
"72306013722","2019-09-15T03:51:00","FM-15","7",,,,,,,,,,,,,,,,,,,,,,,,,,,,,,,,,,,,,,"30.15","67","68","0.00","BR:1 ||","+0.02","6","96","30.14","SCT:04 250","29.68","4.00","67","000",,"0",,,,,,,,,,,,,,,,,,,,,,,,,,,,,,,,,,,,,"MET10709/15/19 03:51:02 METAR KRDU 150851Z 00000KT 4SM BR SCT250 20/19 A3015 RMK AO2 SLP206 T02000194 56007 (SMK)","FM-15","7",,,,,,,,,,,,,,,,,,,,,,,,,,,,"2009-07-08"
"72306013722","2019-09-15T04:51:00","FM-15","7",,,,,,,,,,,,,,,,,,,,,,,,,,,,,,,,,,,,,,"30.16","67","67","0.00","BR:1 ||",,,"100","30.14","SCT:04 250","29.69","6.00","67","000",,"0",,,,,,,,,,,,,,,,,,,,,,,,,,,,,,,,,,,,,"MET11909/15/19 04:51:02 METAR KRDU 150951Z 00000KT 6SM BR SCT250 19/19 A3016 RMK AO2 VIS 2 1/2 RWY 23R SLP207 T01940194 (SMK)","FM-15","7",,,,,,,,,,,,,,,,,,,,,,,,,,,,"2009-07-08"
"72306013722","2019-09-15T05:51:00","FM-15","7",,,,,,,,,,,,,,,,,,,,,,,,,,,,,,,,,,,,,,"30.16","67","67","0.00",,,,"100","30.15","FEW:02 250","29.69","10.00","67","000",,"0",,,,,,,,,,,,,,,,,,,,,,,,,,,,,,,,,,,,,"MET09909/15/19 05:51:02 METAR KRDU 151051Z 00000KT 10SM FEW250 19/19 A3016 RMK AO2 SLP210 T01940194 (SMK)","FM-15","7",,,,,,,,,,,,,,,,,,,,,,,,,,,,"2009-07-08"
"72306013722","2019-09-15T06:51:00","FM-15","7",,,,,,,,,,,,,,,,,,,,,,,,,,,,,,,,,,,,,,"30.18","68","69","0.00",,"-0.02","3","96","30.16","FEW:02 250","29.71","10.00","68","000",,"0",,,,,,,,,,,,,,,,,,,,,,,,,,,,,,,,,,,,,"MET11609/15/19 06:51:02 METAR KRDU 151151Z 00000KT 10SM FEW250 21/20 A3018 RMK AO2 SLP214 T02060200 10217 20194 53008 (RP)","FM-15","7",,,,,,,,,,,,,,,,,,,,,,,,,,,,"2009-07-08"
"72306013722","2019-09-15T07:00:00","FM-12","4",,,,,,,,,,,,,,,,,,,,,,,,,,,,,,,,,,,,,,,"68","69",,,"-0.02","3","96","30.16",,"29.72","9.94","68","000",,"0",,,,,,,,,,,,,,,,,,,,,,,,,,,,,,,,,,,,,"SYN08072306 32966 20000 10206 20200 30063 40214 53008 91151 333 10283 20194 555 91512=","FM-12","4",,,,,,,,,,,,,,,,,,,,,,,,,,,,"2009-07-08"
"72306013722","2019-09-15T07:51:00","FM-15","7",,,,,,,,,,,,,,,,,,,,,,,,,,,,,,,,,,,,,,"30.18","71","75","0.00",,,,"88","30.16","FEW:02 250","29.71","10.00","72","000",,"0",,,,,,,,,,,,,,,,,,,,,,,,,,,,,,,,,,,,,"MET09809/15/19 07:51:02 METAR KRDU 151251Z 00000KT 10SM FEW250 24/22 A3018 RMK AO2 SLP213 T02390217 (RP)","FM-15","7",,,,,,,,,,,,,,,,,,,,,,,,,,,,"2009-07-08"
"72306013722","2019-09-15T08:51:00","FM-15","7",,,,,,,,,,,,,,,,,,,,,,,,,,,,,,,,,,,,,,"30.18","69","79","0.00",,,,"72","30.16","FEW:02 250","29.71","10.00","72","000",,"0",,,,,,,,,,,,,,,,,,,,,,,,,,,,,,,,,,,,,"MET09809/15/19 08:51:02 METAR KRDU 151351Z 00000KT 10SM FEW250 26/21 A3018 RMK AO2 SLP215 T02610206 (RP)","FM-15","7",,,,,,,,,,,,,,,,,,,,,,,,,,,,"2009-07-08"
"72306013722","2019-09-15T09:51:00","FM-15","7",,,,,,,,,,,,,,,,,,,,,,,,,,,,,,,,,,,,,,"30.17","69","82","0.00",,"+0.01","8","65","30.16","FEW:02 27 FEW:02 250","29.70","10.00","73","130",,"6",,,,,,,,,,,,,,,,,,,,,,,,,,,,,,,,,,,,,"MET11109/15/19 09:51:02 METAR KRDU 151451Z 13005KT 10SM FEW027 FEW250 28/21 A3017 RMK AO2 SLP212 T02780206 58002 (RP)","FM-15","7",,,,,,,,,,,,,,,,,,,,,,,,,,,,"2009-07-08"
"72306013722","2019-09-15T10:51:00","FM-15","7",,,,,,,,,,,,,,,,,,,,,,,,,,,,,,,,,,,,,,"30.16","68","82","0.00",,,,"63","30.14","BKN:07 31","29.69","10.00","73","VRB",,"6",,,,,,,,,,,,,,,,,,,,,,,,,,,,,,,,,,,,,"MET09809/15/19 10:51:02 METAR KRDU 151551Z VRB05KT 10SM BKN031 28/20 A3016 RMK AO2 SLP208 T02780200 (RP)","FM-15","7",,,,,,,,,,,,,,,,,,,,,,,,,,,,"2009-07-08"
"72306013722","2019-09-15T11:51:00","FM-15","7",,,,,,,,,,,,,,,,,,,,,,,,,,,,,,,,,,,,,,"30.15","68","82","0.00",,,,"63","30.14","SCT:04 35 BKN:07 50","29.68","10.00","73","060",,"3",,,,,,,,,,,,,,,,,,,,,,,,,,,,,,,,,,,,,"MET10509/15/19 11:51:02 METAR KRDU 151651Z 06003KT 10SM SCT035 BKN050 28/20 A3015 RMK AO2 SLP206 T02780200 (RP)","FM-15","7",,,,,,,,,,,,,,,,,,,,,,,,,,,,"2009-07-08"
"72306013722","2019-09-15T12:51:00","FM-15","7",,,,,,,,,,,,,,,,,,,,,,,,,,,,,,,,,,,,,,"30.13","69","86","0.00",,"+0.04","8","57","30.12","FEW:02 35 BKN:07 55","29.66","10.00","74","090",,"8",,,,,,,,,,,,,,,,,,,,,,,,,,,,,,,,,,,,,"MET12309/15/19 12:51:02 METAR KRDU 151751Z 09007KT 10SM FEW035 BKN055 30/21 A3013 RMK AO2 SLP200 T03000206 10300 20206 58012 (RP)","FM-15","7",,,,,,,,,,,,,,,,,,,,,,,,,,,,"2009-07-08"
"72306013722","2019-09-15T13:00:00","FM-12","4",,,,,,,,,,,,,,,,,,,,,,,,,,,,,,,,,,,,,,,"69","86",,,"+0.04","8","57","30.12","41","29.67","9.94","74","090",,"8",,,,,,,,,,,,,,,,,,,,,,,,,,,,,,,,,,,,,"SYN08072306 32666 60907 10300 20206 30047 40200 58012 91751 333 10300 20206 555 91518=","FM-12","4",,,,,,,,,,,,,,,,,,,,,,,,,,,,"2009-07-08"
"72306013722","2019-09-15T13:51:00","FM-15","7",,,,,,,,,,,,,,,,,,,,,,,,,,,,,,,,,,,,,,"30.11","69","84","0.00",,,,"61","30.10","BKN:07 35 BKN:07 60","29.64","10.00","74","050",,"7",,,,,,,,,,,,,,,,,,,,,,,,,,,,,,,,,,,,,"MET10509/15/19 13:51:02 METAR KRDU 151851Z 05006KT 10SM BKN035 BKN060 29/21 A3011 RMK AO2 SLP193 T02890206 (RP)","FM-15","7",,,,,,,,,,,,,,,,,,,,,,,,,,,,"2009-07-08"
"72306013722","2019-09-15T14:51:00","FM-15","7",,,,,,,,,,,,,,,,,,,,,,,,,,,,,,,,,,,,,,"30.09","69","85","0.00",,,,"59","30.08","SCT:04 33 BKN:07 50 BKN:07 70","29.62","10.00","74","070",,"6",,,,,,,,,,,,,,,,,,,,,,,,,,,,,,,,,,,,,"MET11209/15/19 14:51:02 METAR KRDU 151951Z 07005KT 10SM SCT033 BKN050 BKN070 29/21 A3009 RMK AO2 SLP185 T02940206 (HA)","FM-15","7",,,,,,,,,,,,,,,,,,,,,,,,,,,,"2009-07-08"
"72306013722","2019-09-15T15:51:00","FM-15","7",,,,,,,,,,,,,,,,,,,,,,,,,,,,,,,,,,,,,,"30.08","69","85","0.00",,"+0.05","6","59","30.07","SCT:04 37 BKN:07 65","29.61","10.00","74","050",,"8",,,,,,,,,,,,,,,,,,,,,,,,,,,,,,,,,,,,,"MET11109/15/19 15:51:02 METAR KRDU 152051Z 05007KT 10SM SCT037 BKN065 29/21 A3008 RMK AO2 SLP182 T02940206 56017 (HA)","FM-15","7",,,,,,,,,,,,,,,,,,,,,,,,,,,,"2009-07-08"
"72306013722","2019-09-15T16:51:00","FM-15","7",,,,,,,,,,,,,,,,,,,,,,,,,,,,,,,,,,,,,,"30.08","69","84","0.00",,,,"61","30.07","FEW:02 41 SCT:04 60 BKN:07 250","29.61","10.00","74","060",,"7",,,,,,,,,,,,,,,,,,,,,,,,,,,,,,,,,,,,,"MET11209/15/19 16:51:02 METAR KRDU 152151Z 06006KT 10SM FEW041 SCT060 BKN250 29/21 A3008 RMK AO2 SLP182 T02890206 (HA)","FM-15","7",,,,,,,,,,,,,,,,,,,,,,,,,,,,"2009-07-08"
"72306013722","2019-09-15T17:51:00","FM-15","7",,,,,,,,,,,,,,,,,,,,,,,,,,,,,,,,,,,,,,"30.08","69","83","0.00",,,,"63","30.07","FEW:02 41 BKN:07 250","29.61","10.00","74","090",,"5",,,,,,,,,,,,,,,,,,,,,,,,,,,,,,,,,,,,,"MET10509/15/19 17:51:02 METAR KRDU 152251Z 09004KT 10SM FEW041 BKN250 28/21 A3008 RMK AO2 SLP182 T02830206 (HA)","FM-15","7",,,,,,,,,,,,,,,,,,,,,,,,,,,,"2009-07-08"
"72306013722","2019-09-15T18:51:00","FM-15","7",,,,,,,,,,,,,,,,,,,,,,,,,,,,,,,,,,,,,,"30.08","70","80","0.00",,"0.00","4","71","30.07","FEW:02 40 BKN:07 250","29.61","10.00","73","090",,"3",,,,,,,,,,,,,,,,,,,,,,,,,,,,,,,,,,,,,"MET12309/15/19 18:51:02 METAR KRDU 152351Z 09003KT 10SM FEW040 BKN250 27/21 A3008 RMK AO2 SLP182 T02670211 10300 20261 54000 (HA)","FM-15","7",,,,,,,,,,,,,,,,,,,,,,,,,,,,"2009-07-08"
"72306013722","2019-09-15T19:00:00","FM-12","4",,,,,,,,,,,,,,,,,,,,,,,,,,,,,,,,,,,,,,,"70","80",,,"0.00","4","71","30.07","41","29.62","9.94","73","090",,"3",,,,,,,,,,,,,,,,,,,,,,,,,,,,,,,,,,,,,"SYN08072306 32666 60903 10267 20211 30030 40182 54000 92351 333 10300 20194 555 91600=","FM-12","4",,,,,,,,,,,,,,,,,,,,,,,,,,,,"2009-07-08"
"72306013722","2019-09-15T19:51:00","FM-15","7",,,,,,,,,,,,,,,,,,,,,,,,,,,,,,,,,,,,,,"30.09","71","75","0.00",,,,"88","30.07","FEW:02 40 BKN:07 250","29.62","9.00","72","040",,"3",,,,,,,,,,,,,,,,,,,,,,,,,,,,,,,,,,,,,"MET09909/15/19 19:51:01 METAR KRDU 160051Z 04003KT 9SM FEW040 BKN250 24/22 A3009 RMK AO2 SLP184 T02390217","FM-15","7",,,,,,,,,,,,,,,,,,,,,,,,,,,,"2009-07-08"
"72306013722","2019-09-15T20:51:00","FM-15","7",,,,,,,,,,,,,,,,,,,,,,,,,,,,,,,,,,,,,,"30.09","70","73","0.00",,,,"90","30.08","BKN:07 250","29.62","9.00","71","030",,"3",,,,,,,,,,,,,,,,,,,,,,,,,,,,,,,,,,,,,"MET09209/15/19 20:51:01 METAR KRDU 160151Z 03003KT 9SM BKN250 23/21 A3009 RMK AO2 SLP185 T02280211","FM-15","7",,,,,,,,,,,,,,,,,,,,,,,,,,,,"2009-07-08"
"72306013722","2019-09-15T21:51:00","FM-15","7",,,,,,,,,,,,,,,,,,,,,,,,,,,,,,,,,,,,,,"30.09","70","73","0.00",,"-0.01","1","90","30.08","BKN:07 250","29.62","10.00","71","060",,"5",,,,,,,,,,,,,,,,,,,,,,,,,,,,,,,,,,,,,"MET09909/15/19 21:51:01 METAR KRDU 160251Z 06004KT 10SM BKN250 23/21 A3009 RMK AO2 SLP185 T02280211 51003","FM-15","7",,,,,,,,,,,,,,,,,,,,,,,,,,,,"2009-07-08"
"72306013722","2019-09-15T22:51:00","FM-15","7",,,,,,,,,,,,,,,,,,,,,,,,,,,,,,,,,,,,,,"30.10","70","74","0.00",,,,"88","30.08","SCT:04 250","29.63","10.00","71","070",,"6",,,,,,,,,,,,,,,,,,,,,,,,,,,,,,,,,,,,,"MET09309/15/19 22:51:01 METAR KRDU 160351Z 07005KT 10SM SCT250 23/21 A3010 RMK AO2 SLP187 T02330211","FM-15","7",,,,,,,,,,,,,,,,,,,,,,,,,,,,"2009-07-08"
"72306013722","2019-09-15T23:51:00","FM-15","7",,,,,,,,,,,,,,,,,,,,,,,,,,,,,,,,,,,,,,"30.09","70","74","0.00",,,,"88","30.08","SCT:04 250","29.62","10.00","71","090",,"6",,,,,,,,,,,,,,,,,,,,,,,,,,,,,,,,,,,,,"MET10309/15/19 23:51:01 METAR KRDU 160451Z 09005KT 10SM SCT250 23/21 A3009 RMK AO2 SLP185 T02330211 403000194","FM-15","7",,,,,,,,,,,,,,,,,,,,,,,,,,,,"2009-07-08"
"72306013722","2019-09-15T23:59:00","SOD  ","6",,,,,,,,,,,,,,,"69","77","79","30.12","29.67","71","3.4","12","4.4","0","86","67","130","19","0.00","0","0.0","030","10","BR",,,,,,,,,,,,,,,,,,,,,,,,,,,,,,,,,,,,,,,,,,,,,,,,,,,,,,,,"SOD75624 HR PRECIPITATION (IN): 0.00 SNOW DEPTH (IN):0     24 HR SNOWFALL (IN):0.0  WEATHER(CODE):1  24 HR MAX TEMP (F): 8624 HR MIN TEMP (F): 67AVERAGE STATION PRESSURE:29.665 MINIMUM SEA LEVEL PRESSURE:30.07 TIME OF OCCURRENCE:2359 PEAK WIND SPEED (MPH): 19 PEAK WIND DIR (DEG):130 PEAK WIND TIME (LST):      FASTEST 2MIN SPEED (MPH): 10FASTEST 2MIN DIR (DEG): 30 FASTEST 2MIN TIME (LST):     AVERAGE WIND SPEED (MPH): 3.4 24 HR AVG TEMP (F): 77DEPART FROM NORMAL:  5  HEATING DEGREE DAYS:  0 COOLING DEGREE DAYS: 12 LATEST DAY MAX TEMP (0700-1900 LST):86  LATEST NIGHT MIN TEMP(1900-0800 LST):67 HOURLY INCREMENTAL PRECIPITATION VALUES (IN):.00 0.00 0.00 0.00 0.00 0.00 0.00 0.00 0.00 0.00 0.00 0.00 0.00 0.00 0.00 0.00 0.00 0.00 0.00 0.00 0.00 0.00 0.00 0.00","SOD  ","6",,,,,,,,,,,,,,,,,,,,,,,,,"0557","1823",,"2009-07-08"
"72306013722","2019-09-16T00:51:00","FM-15","7",,,,,,,,,,,,,,,,,,,,,,,,,,,,,,,,,,,,,,"30.09","70","72","0.00",,"+0.01","8","94","30.07","FEW:02 250","29.62","9.00","71","080",,"3",,,,,,,,,,,,,,,,,,,,,,,,,,,,,,,,,,,,,"MET11609/16/19 00:51:02 METAR KRDU 160551Z 08003KT 9SM FEW250 22/21 A3009 RMK AO2 SLP183 T02220211 10267 20222 58002 (SMK)","FM-15","7",,,,,,,,,,,,,,,,,,,,,,,,,,,,"2009-07-08"
"72306013722","2019-09-16T01:00:00","FM-12","4",,,,,,,,,,,,,,,,,,,,,,,,,,,,,,,,,,,,,,,"70","72",,,"+0.01","8","94","30.07",,"29.63","8.70","71","080",,"3",,,,,,,,,,,,,,,,,,,,,,,,,,,,,,,,,,,,,"SYN08072306 32964 20803 10222 20211 30033 40183 58002 90551 333 10267 20194 555 91606=","FM-12","4",,,,,,,,,,,,,,,,,,,,,,,,,,,,"2009-07-08"
"72306013722","2019-09-16T01:51:00","FM-15","7",,,,,,,,,,,,,,,,,,,,,,,,,,,,,,,,,,,,,,"30.08","70","71","0.00",,,,"96","30.06","FEW:02 250","29.61","8.00","70","000",,"0",,,,,,,,,,,,,,,,,,,,,,,,,,,,,,,,,,,,,"MET09809/16/19 01:51:02 METAR KRDU 160651Z 00000KT 8SM FEW250 22/21 A3008 RMK AO2 SLP181 T02170211 (SMK)","FM-15","7",,,,,,,,,,,,,,,,,,,,,,,,,,,,"2009-07-08"
"72306013722","2019-09-16T02:51:00","FM-15","7",,,,,,,,,,,,,,,,,,,,,,,,,,,,,,,,,,,,,,"30.07","69","70","0.00",,,,"97","30.05","FEW:02 250","29.60","10.00","69","340",,"3",,,,,,,,,,,,,,,,,,,,,,,,,,,,,,,,,,,,,"MET09909/16/19 02:51:02 METAR KRDU 160751Z 34003KT 10SM FEW250 21/21 A3007 RMK AO2 SLP177 T02110206 (SMK)","FM-15","7",,,,,,,,,,,,,,,,,,,,,,,,,,,,"2009-07-08"
"72306013722","2019-09-16T03:28:00","FM-16","7",,,,,,,,,,,,,,,,,,,,,,,,,,,,,,,,,,,,,,"30.07","70","71",,,,,"96",,"FEW:02 3","29.60","10.00","70","010",,"5",,,,,,,,,,,,,,,,,,,,,,,,,,,,,,,,,,,,,"MET09209/16/19 03:28:02 SPECI KRDU 160828Z 01004KT 10SM FEW003 22/21 A3007 RMK AO2 T02170211 (SMK)","FM-16","7",,,,,,,,,,,,,,,,,,,,,,,,,,,,"2009-07-08"
"72306013722","2019-09-16T03:51:00","FM-15","7",,,,,,,,,,,,,,,,,,,,,,,,,,,,,,,,,,,,,,"30.07","70","70","0.00","BR:1 ||","+0.02","5","100","30.06","FEW:02 3 SCT:04 250","29.60","6.00","70","030",,"3",,,,,,,,,,,,,,,,,,,,,,,,,,,,,,,,,,,,,"MET11409/16/19 03:51:02 METAR KRDU 160851Z 03003KT 6SM BR FEW003 SCT250 21/21 A3007 RMK AO2 SLP178 T02110211 55006 (SMK)","FM-15","7",,,,,,,,,,,,,,,,,,,,,,,,,,,,"2009-07-08"
"72306013722","2019-09-16T04:01:00","FM-16","7",,,,,,,,,,,,,,,,,,,,,,,,,,,,,,,,,,,,,,"30.07","70","70",,"BR:1 ||",,,"100",,"VV:09 2","29.60","2.00","70","010",,"3",,,,,,,,,,,,,,,,,,,,,,,,,,,,,,,,,,,,,"MET09309/16/19 04:01:02 SPECI KRDU 160901Z 01003KT 2SM BR VV002 21/21 A3007 RMK AO2 T02110211 (SMK)","FM-16","7",,,,,,,,,,,,,,,,,,,,,,,,,,,,"2009-07-08"
"72306013722","2019-09-16T04:15:00","FM-16","7",,,,,,,,,,,,,,,,,,,,,,,,,,,,,,,,,,,,,,"30.07","69","70",,"|FG |",,,"97",,"2",,"0.50",,"030",,"3",,,,,,,,,,,,,,,,,,,,,,,,,,,,,,,,,,,,,"MET06009/16/19 04:15:02 SPECI KRDU 160915Z 03003KT 1/2SM RVRNO RMK","FM-16","7",,,,,,,,,,,,,,,,,,,,,,,,,,,,"2009-07-08"
"72306013722","2019-09-16T04:51:00","FM-15","7",,,,,,,,,,,,,,,,,,,,,,,,,,,,,,,,,,,,,,"30.07","69","69","0.00","|FG |",,,"100","30.06","2",,"0.25",,"000",,"0",,,,,,,,,,,,,,,,,,,,,,,,,,,,,,,,,,,,,"MET06009/16/19 04:51:02 METAR KRDU 160951Z 00000KT 1/4SM RVRNO RMK","FM-15","7",,,,,,,,,,,,,,,,,,,,,,,,,,,,"2009-07-08"
"72306013722","2019-09-16T05:37:00","FM-16","7",,,,,,,,,,,,,,,,,,,,,,,,,,,,,,,,,,,,,,"30.08","69","69",,"|FG |",,,"100",,"2",,"0.25",,"040",,"3",,,,,,,,,,,,,,,,,,,,,,,,,,,,,,,,,,,,,"MET06009/16/19 05:37:02 SPECI KRDU 161037Z 04003KT 1/4SM RVRNO RMK","FM-16","7",,,,,,,,,,,,,,,,,,,,,,,,,,,,"2009-07-08"
"72306013722","2019-09-16T05:51:00","FM-15","7",,,,,,,,,,,,,,,,,,,,,,,,,,,,,,,,,,,,,,"30.08","69","69","0.00","|FG |",,,"100","30.07","2",,"0.25",,"040",,"3",,,,,,,,,,,,,,,,,,,,,,,,,,,,,,,,,,,,,"MET06009/16/19 05:51:02 METAR KRDU 161051Z 04003KT 1/4SM RVRNO RMK","FM-15","7",,,,,,,,,,,,,,,,,,,,,,,,,,,,"2009-07-08"
"72306013722","2019-09-16T06:51:00","FM-15","7",,,,,,,,,,,,,,,,,,,,,,,,,,,,,,,,,,,,,,"30.09","70","70","0.00","|FG |","0.02","9","100","30.08","3",,"0.25",,"000",,"0",,,,,,,,,,,,,,,,,,,,,,,,,,,,,,,,,,,,,"MET06009/16/19 06:51:02 METAR KRDU 161151Z 00000KT 1/4SM RVRNO RMK","FM-15","7",,,,,,,,,,,,,,,,,,,,,,,,,,,,"2009-07-08"
"72306013722","2019-09-16T07:00:00","FM-12","4",,,,,,,,,,,,,,,,,,,,,,,,,,,,,,,,,,,,,,,"70","70",,"||FG","-0.02","3","100","30.08","2","29.63","0.25","70","000",,"0",,,,,,,,,,,,,,,,,,,,,,,,,,,,,,,,,,,,,"SYN08672306 31104 90000 10211 20211 30033 40185 53007 741// 91151 333 10300 20206 555 91612=","FM-12","4",,,,,,,,,,,,,,,,,,,,,,,,,,,,"2009-07-08"
"72306013722","2019-09-16T07:51:00","FM-15","7",,,,,,,,,,,,,,,,,,,,,,,,,,,,,,,,,,,,,,"30.10","71","71","0.00",,,,"100","30.09",,,"0.25",,"020",,"6",,,,,,,,,,,,,,,,,,,,,,,,,,,,,,,,,,,,,"MET06009/16/19 07:51:02 METAR KRDU 161251Z 02005KT 1/4SM RVRNO RMK","FM-15","7",,,,,,,,,,,,,,,,,,,,,,,,,,,,"2009-07-08"
"72306013722","2019-09-16T08:43:00","FM-16","7",,,,,,,,,,,,,,,,,,,,,,,,,,,,,,,,,,,,,,"30.11","71","73",,,,,"94",,"BKN:07 4","29.64","10.00","72","020",,"6",,,,,,,,,,,,,,,,,,,,,,,,,,,,,,,,,,,,,"MET10209/16/19 08:43:02 SPECI KRDU 161343Z 02005KT 10SM BKN004 23/22 A3011 RMK AO2 BKN V SCT T02280217 (KAH)","FM-16","7",,,,,,,,,,,,,,,,,,,,,,,,,,,,"2009-07-08"
"72306013722","2019-09-16T08:51:00","FM-15","7",,,,,,,,,,,,,,,,,,,,,,,,,,,,,,,,,,,,,,"30.11","72","75","0.00",,,,"90","30.09","SCT:04 6","29.64","10.00","73","050",,"5",,,,,,,,,,,,,,,,,,,,,,,,,,,,,,,,,,,,,"MET09909/16/19 08:51:02 METAR KRDU 161351Z 05004KT 10SM SCT006 24/22 A3011 RMK AO2 SLP190 T02390222 (KAH)","FM-15","7",,,,,,,,,,,,,,,,,,,,,,,,,,,,"2009-07-08"
"72306013722","2019-09-16T09:51:00","FM-15","7",,,,,,,,,,,,,,,,,,,,,,,,,,,,,,,,,,,,,,"30.10","71","80","0.00",,"-0.00","0","74","30.08","FEW:02 20","29.63","10.00","74","060",,"10",,,,,,,,,,,,,,,,,,,,,,,,,,,,,,,,,,,,,"MET10509/16/19 09:51:02 METAR KRDU 161451Z 06009KT 10SM FEW020 27/22 A3010 RMK AO2 SLP186 T02670217 50001 (KAH)","FM-15","7",,,,,,,,,,,,,,,,,,,,,,,,,,,,"2009-07-08"
"72306013722","2019-09-16T10:51:00","FM-15","7",,,,,,,,,,,,,,,,,,,,,,,,,,,,,,,,,,,,,,"30.08","65","83","0.00",,,,"55","30.06","SCT:04 32","29.61","10.00","71","020",,"7",,,,,,,,,,,,,,,,,,,,,,,,,,,,,,,,,,,,,"MET09909/16/19 10:51:02 METAR KRDU 161551Z 02006KT 10SM SCT032 28/18 A3008 RMK AO2 SLP180 T02830183 (KAH)","FM-15","7",,,,,,,,,,,,,,,,,,,,,,,,,,,,"2009-07-08"
"72306013722","2019-09-16T11:51:00","FM-15","7",,,,,,,,,,,,,,,,,,,,,,,,,,,,,,,,,,,,,,"30.06","62","86","0.00",,,,"45","30.04","FEW:02 55 FEW:02 250","29.59","10.00","70","080",,"5",,,,,,,,,,,,,,,,,,,,,,,,,,,,,,,,,,,,,"MET10609/16/19 11:51:02 METAR KRDU 161651Z 08004KT 10SM FEW055 FEW250 30/17 A3006 RMK AO2 SLP173 T03000167 (KAH)","FM-15","7",,,,,,,,,,,,,,,,,,,,,,,,,,,,"2009-07-08"
"72306013722","2019-09-16T12:51:00","FM-15","7",,,,,,,,,,,,,,,,,,,,,,,,,,,,,,,,,,,,,,"30.03","61","88","0.00",,"+0.06","8","40","30.02","FEW:02 55 FEW:02 250","29.56","10.00","70","VRB",,"3",,,,,,,,,,,,,,,,,,,,,,,,,,,,,,,,,,,,,"MET12409/16/19 12:51:02 METAR KRDU 161751Z VRB03KT 10SM FEW055 FEW250 31/16 A3003 RMK AO2 SLP165 T03110161 10311 20211 58020 (KAH)","FM-15","7",,,,,,,,,,,,,,,,,,,,,,,,,,,,"2009-07-08"
"72306013722","2019-09-16T13:00:00","FM-12","4",,,,,,,,,,,,,,,,,,,,,,,,,,,,,,,,,,,,,,,"61","88",,,"+0.06","8","40","30.02","57","29.57","9.94","70",,,"3",,,,,,,,,,,,,,,,,,,,,,,,,,,,,,,,,,,,,"SYN08072306 32766 2//03 10311 20161 30013 40165 58020 91751 333 10311 20211 555 91618=","FM-12","4",,,,,,,,,,,,,,,,,,,,,,,,,,,,"2009-07-08"
"72306013722","2019-09-16T13:51:00","FM-15","7",,,,,,,,,,,,,,,,,,,,,,,,,,,,,,,,,,,,,,"30.01","63","89","0.00",,,,"42","29.99","FEW:02 60 FEW:02 250","29.54","10.00","72","050",,"6",,,,,,,,,,,,,,,,,,,,,,,,,,,,,,,,,,,,,"MET10609/16/19 13:51:02 METAR KRDU 161851Z 05005KT 10SM FEW060 FEW250 32/17 A3001 RMK AO2 SLP156 T03170172 (KAH)","FM-15","7",,,,,,,,,,,,,,,,,,,,,,,,,,,,"2009-07-08"
"72306013722","2019-09-16T14:51:00","FM-15","7",,,,,,,,,,,,,,,,,,,,,,,,,,,,,,,,,,,,,,"29.98","62","89","0.00",,,,"41","29.96","FEW:02 60 FEW:02 250","29.51","10.00","71","090",,"10",,,,,,,,,,,,,,,,,,,,,,,,,,,,,,,,,,,,,"MET10609/16/19 14:51:02 METAR KRDU 161951Z 09009KT 10SM FEW060 FEW250 32/17 A2998 RMK AO2 SLP146 T03170167 (JBA)","FM-15","7",,,,,,,,,,,,,,,,,,,,,,,,,,,,"2009-07-08"
"72306013722","2019-09-16T15:51:00","FM-15","7",,,,,,,,,,,,,,,,,,,,,,,,,,,,,,,,,,,,,,"29.96","61","89","0.00",,"+0.07","6","39","29.94","FEW:02 60 FEW:02 250","29.49","10.00","71","060",,"7",,,,,,,,,,,,,,,,,,,,,,,,,,,,,,,,,,,,,"MET11209/16/19 15:51:02 METAR KRDU 162051Z 06006KT 10SM FEW060 FEW250 32/16 A2996 RMK AO2 SLP140 T03170161 56024 (JBA)","FM-15","7",,,,,,,,,,,,,,,,,,,,,,,,,,,,"2009-07-08"
"72306013722","2019-09-16T16:51:00","FM-15","7",,,,,,,,,,,,,,,,,,,,,,,,,,,,,,,,,,,,,,"29.97","59","88","0.00",,,,"38","29.95","FEW:02 60 FEW:02 250","29.50","10.00","69","090",,"5",,,,,,,,,,,,,,,,,,,,,,,,,,,,,,,,,,,,,"MET10609/16/19 16:51:02 METAR KRDU 162151Z 09004KT 10SM FEW060 FEW250 31/15 A2997 RMK AO2 SLP142 T03110150 (JBA)","FM-15","7",,,,,,,,,,,,,,,,,,,,,,,,,,,,"2009-07-08"
"72306013722","2019-09-16T17:51:00","FM-15","7",,,,,,,,,,,,,,,,,,,,,,,,,,,,,,,,,,,,,,"29.97","65","85","0.00",,,,"51","29.95","FEW:02 250","29.50","10.00","72","140",,"7",,,,,,,,,,,,,,,,,,,,,,,,,,,,,,,,,,,,,"MET09909/16/19 17:51:02 METAR KRDU 162251Z 14006KT 10SM FEW250 29/18 A2997 RMK AO2 SLP143 T02940183 (JBA)","FM-15","7",,,,,,,,,,,,,,,,,,,,,,,,,,,,"2009-07-08"
"72306013722","2019-09-16T18:51:00","FM-15","7",,,,,,,,,,,,,,,,,,,,,,,,,,,,,,,,,,,,,,"29.97","65","80","0.00",,"-0.01","1","60","29.96","FEW:02 250","29.50","10.00","70","130",,"6",,,,,,,,,,,,,,,,,,,,,,,,,,,,,,,,,,,,,"MET11709/16/19 18:51:02 METAR KRDU 162351Z 13005KT 10SM FEW250 27/18 A2997 RMK AO2 SLP144 T02670183 10322 20267 51003 (JBA)","FM-15","7",,,,,,,,,,,,,,,,,,,,,,,,,,,,"2009-07-08"
"72306013722","2019-09-16T19:00:00","FM-12","4",,,,,,,,,,,,,,,,,,,,,,,,,,,,,,,,,,,,,,,"65","80",,,"-0.01","1","60","29.96",,"29.51","9.94","70","130",,"6",,,,,,,,,,,,,,,,,,,,,,,,,,,,,,,,,,,,,"SYN08072306 32966 21305 10267 20183 39993 40144 51003 92351 333 10322 20206 555 91700=","FM-12","4",,,,,,,,,,,,,,,,,,,,,,,,,,,,"2009-07-08"
"72306013722","2019-09-16T19:51:00","FM-15","7",,,,,,,,,,,,,,,,,,,,,,,,,,,,,,,,,,,,,,"29.97","66","78","0.00",,,,"67","29.96","FEW:02 250","29.50","10.00","70","130",,"6",,,,,,,,,,,,,,,,,,,,,,,,,,,,,,,,,,,,,"MET09309/16/19 19:51:01 METAR KRDU 170051Z 13005KT 10SM FEW250 26/19 A2997 RMK AO2 SLP145 T02560189","FM-15","7",,,,,,,,,,,,,,,,,,,,,,,,,,,,"2009-07-08"
"72306013722","2019-09-16T20:51:00","FM-15","7",,,,,,,,,,,,,,,,,,,,,,,,,,,,,,,,,,,,,,"29.99","66","74","0.00",,,,"76","29.97","FEW:02 250","29.52","10.00","69","000",,"0",,,,,,,,,,,,,,,,,,,,,,,,,,,,,,,,,,,,,"MET09309/16/19 20:51:01 METAR KRDU 170151Z 00000KT 10SM FEW250 23/19 A2999 RMK AO2 SLP149 T02330189","FM-15","7",,,,,,,,,,,,,,,,,,,,,,,,,,,,"2009-07-08"
"72306013722","2019-09-16T21:51:00","FM-15","7",,,,,,,,,,,,,,,,,,,,,,,,,,,,,,,,,,,,,,"29.99","67","73","0.00",,"-0.01","2","81","29.97","FEW:02 250","29.52","10.00","69","000",,"0",,,,,,,,,,,,,,,,,,,,,,,,,,,,,,,,,,,,,"MET09909/16/19 21:51:01 METAR KRDU 170251Z 00000KT 10SM FEW250 23/19 A2999 RMK AO2 SLP149 T02280194 52005","FM-15","7",,,,,,,,,,,,,,,,,,,,,,,,,,,,"2009-07-08"
"72306013722","2019-09-16T22:51:00","FM-15","7",,,,,,,,,,,,,,,,,,,,,,,,,,,,,,,,,,,,,,"29.99","66","73","0.00",,,,"79","29.98","FEW:02 100 FEW:02 250","29.52","10.00","68","000",,"0",,,,,,,,,,,,,,,,,,,,,,,,,,,,,,,,,,,,,"MET10009/16/19 22:51:01 METAR KRDU 170351Z 00000KT 10SM FEW100 FEW250 23/19 A2999 RMK AO2 SLP151 T02280189","FM-15","7",,,,,,,,,,,,,,,,,,,,,,,,,,,,"2009-07-08"
"72306013722","2019-09-16T23:51:00","FM-15","7",,,,,,,,,,,,,,,,,,,,,,,,,,,,,,,,,,,,,,"29.98","67","71","0.00",,,,"87","29.97","FEW:02 100 FEW:02 250","29.51","10.00","68","000",,"0",,,,,,,,,,,,,,,,,,,,,,,,,,,,,,,,,,,,,"MET11009/16/19 23:51:01 METAR KRDU 170451Z 00000KT 10SM FEW100 FEW250 22/19 A2998 RMK AO2 SLP148 T02170194 403220206","FM-15","7",,,,,,,,,,,,,,,,,,,,,,,,,,,,"2009-07-08"
"72306013722","2019-09-16T23:59:00","SOD  ","6",,,,,,,,,,,,,,,"67","80","71","30.00","29.57","70","3.8","15","7.7","0","90","69","080","16","0.00","0","0.0","090","12","BR FG",,,,,,,,,,,,,,,,,,,,,,,,,,,,,,,,,,,,,,,,,,,,,,,,,,,,,,,,"SOD75724 HR PRECIPITATION (IN): 0.00 SNOW DEPTH (IN):0     24 HR SNOWFALL (IN):0.0  WEATHER(CODE):12  24 HR MAX TEMP (F): 9024 HR MIN TEMP (F): 69AVERAGE STATION PRESSURE:29.570 MINIMUM SEA LEVEL PRESSURE:29.94 TIME OF OCCURRENCE:1638 PEAK WIND SPEED (MPH): 16 PEAK WIND DIR (DEG): 80 PEAK WIND TIME (LST):      FASTEST 2MIN SPEED (MPH): 12FASTEST 2MIN DIR (DEG): 90 FASTEST 2MIN TIME (LST):     AVERAGE WIND SPEED (MPH): 3.8 24 HR AVG TEMP (F): 80DEPART FROM NORMAL:  8  HEATING DEGREE DAYS:  0 COOLING DEGREE DAYS: 15 LATEST DAY MAX TEMP (0700-1900 LST):90  LATEST NIGHT MIN TEMP(1900-0800 LST):69 HOURLY INCREMENTAL PRECIPITATION VALUES (IN):.00 0.00 0.00 0.00 0.00 0.00 0.00 0.00 0.00 0.00 0.00 0.00 0.00 0.00 0.00 0.00 0.00 0.00 0.00 0.00 0.00 0.00 0.00 0.00","SOD  ","6",,,,,,,,,,,,,,,,,,,,,,,,,"0558","1821",,"2009-07-08"
"72306013722","2019-09-17T00:51:00","FM-15","7",,,,,,,,,,,,,,,,,,,,,,,,,,,,,,,,,,,,,,"29.98","67","69","0.00",,"+0.00","8","93","29.96","FEW:02 100 FEW:02 250","29.51","10.00","68","000",,"0",,,,,,,,,,,,,,,,,,,,,,,,,,,,,,,,,,,,,"MET12409/17/19 00:51:02 METAR KRDU 170551Z 00000KT 10SM FEW100 FEW250 21/19 A2998 RMK AO2 SLP147 T02060194 10267 20206 58001 (AWB)","FM-15","7",,,,,,,,,,,,,,,,,,,,,,,,,,,,"2009-07-08"
"72306013722","2019-09-17T01:00:00","FM-12","4",,,,,,,,,,,,,,,,,,,,,,,,,,,,,,,,,,,,,,,"67","69",,,"+0.00","8","93","29.96",,"29.52","9.94","68","000",,"0",,,,,,,,,,,,,,,,,,,,,,,,,,,,,,,,,,,,,"SYN08072306 32966 20000 10206 20194 39996 40147 58001 90551 333 10267 20206 555 91706=","FM-12","4",,,,,,,,,,,,,,,,,,,,,,,,,,,,"2009-07-08"
"72306013722","2019-09-17T01:51:00","FM-15","7",,,,,,,,,,,,,,,,,,,,,,,,,,,,,,,,,,,,,,"29.97","66","70","0.00",,,,"87","29.96","FEW:02 100 FEW:02 250","29.50","10.00","67","000",,"0",,,,,,,,,,,,,,,,,,,,,,,,,,,,,,,,,,,,,"MET10609/17/19 01:51:02 METAR KRDU 170651Z 00000KT 10SM FEW100 FEW250 21/19 A2997 RMK AO2 SLP144 T02110189 (AWB)","FM-15","7",,,,,,,,,,,,,,,,,,,,,,,,,,,,"2009-07-08"
"72306013722","2019-09-17T02:51:00","FM-15","7",,,,,,,,,,,,,,,,,,,,,,,,,,,,,,,,,,,,,,"29.96","66","69","0.00",,,,"90","29.94","FEW:02 100 FEW:02 250","29.49","10.00","67","000",,"0",,,,,,,,,,,,,,,,,,,,,,,,,,,,,,,,,,,,,"MET10609/17/19 02:51:02 METAR KRDU 170751Z 00000KT 10SM FEW100 FEW250 21/19 A2996 RMK AO2 SLP140 T02060189 (AWB)","FM-15","7",,,,,,,,,,,,,,,,,,,,,,,,,,,,"2009-07-08"
"72306013722","2019-09-17T03:51:00","FM-15","7",,,,,,,,,,,,,,,,,,,,,,,,,,,,,,,,,,,,,,"29.96","66","67","0.00",,"+0.02","6","97","29.94","FEW:02 100 FEW:02 250","29.49","8.00","66","000",,"0",,,,,,,,,,,,,,,,,,,,,,,,,,,,,,,,,,,,,"MET11109/17/19 03:51:02 METAR KRDU 170851Z 00000KT 8SM FEW100 FEW250 19/19 A2996 RMK AO2 SLP139 T01940189 56008 (AWB)","FM-15","7",,,,,,,,,,,,,,,,,,,,,,,,,,,,"2009-07-08"
"72306013722","2019-09-17T04:51:00","FM-15","7",,,,,,,,,,,,,,,,,,,,,,,,,,,,,,,,,,,,,,"29.97","66","67","0.00",,,,"97","29.95","FEW:02 100 FEW:02 250","29.50","8.00","66","000",,"0",,,,,,,,,,,,,,,,,,,,,,,,,,,,,,,,,,,,,"MET10509/17/19 04:51:02 METAR KRDU 170951Z 00000KT 8SM FEW100 FEW250 19/19 A2997 RMK AO2 SLP142 T01940189 (AWB)","FM-15","7",,,,,,,,,,,,,,,,,,,,,,,,,,,,"2009-07-08"
"72306013722","2019-09-17T05:51:00","FM-15","7",,,,,,,,,,,,,,,,,,,,,,,,,,,,,,,,,,,,,,"29.98","66","67","0.00",,,,"97","29.96","FEW:02 100","29.51","7.00","66","000",,"0",,,,,,,,,,,,,,,,,,,,,,,,,,,,,,,,,,,,,"MET09809/17/19 05:51:02 METAR KRDU 171051Z 00000KT 7SM FEW100 19/19 A2998 RMK AO2 SLP146 T01940189 (AWB)","FM-15","7",,,,,,,,,,,,,,,,,,,,,,,,,,,,"2009-07-08"
"72306013722","2019-09-17T06:51:00","FM-15","7",,,,,,,,,,,,,,,,,,,,,,,,,,,,,,,,,,,,,,"30.00","67","69","0.00",,"-0.04","3","93","29.98","FEW:02 100 FEW:02 250","29.53","10.00","68","000",,"0",,,,,,,,,,,,,,,,,,,,,,,,,,,,,,,,,,,,,"MET12409/17/19 06:51:02 METAR KRDU 171151Z 00000KT 10SM FEW100 FEW250 21/19 A3000 RMK AO2 SLP152 T02060194 10211 20189 53013 (KAH)","FM-15","7",,,,,,,,,,,,,,,,,,,,,,,,,,,,"2009-07-08"
"72306013722","2019-09-17T07:00:00","FM-12","4",,,,,,,,,,,,,,,,,,,,,,,,,,,,,,,,,,,,,,,"67","69",,,"-0.04","3","93","29.98",,"29.54","9.94","68","000",,"0",,,,,,,,,,,,,,,,,,,,,,,,,,,,,,,,,,,,,"SYN08072306 32966 20000 10206 20194 30003 40152 53013 91151 333 10322 20189 555 91712=","FM-12","4",,,,,,,,,,,,,,,,,,,,,,,,,,,,"2009-07-08"
"72306013722","2019-09-17T07:51:00","FM-15","7",,,,,,,,,,,,,,,,,,,,,,,,,,,,,,,,,,,,,,"30.01","67","75","0.00",,,,"76","29.99","FEW:02 250","29.54","10.00","70","VRB",,"5",,,,,,,,,,,,,,,,,,,,,,,,,,,,,,,,,,,,,"MET09909/17/19 07:51:02 METAR KRDU 171251Z VRB04KT 10SM FEW250 24/19 A3001 RMK AO2 SLP157 T02390194 (KAH)","FM-15","7",,,,,,,,,,,,,,,,,,,,,,,,,,,,"2009-07-08"
"72306013722","2019-09-17T08:51:00","FM-15","7",,,,,,,,,,,,,,,,,,,,,,,,,,,,,,,,,,,,,,"30.01","68","79","0.00",,,,"69","30.00","FEW:02 250","29.54","10.00","72","070",,"7",,,,,,,,,,,,,,,,,,,,,,,,,,,,,,,,,,,,,"MET09909/17/19 08:51:02 METAR KRDU 171351Z 07006KT 10SM FEW250 26/20 A3001 RMK AO2 SLP159 T02610200 (KAH)","FM-15","7",,,,,,,,,,,,,,,,,,,,,,,,,,,,"2009-07-08"
"72306013722","2019-09-17T09:51:00","FM-15","7",,,,,,,,,,,,,,,,,,,,,,,,,,,,,,,,,,,,,,"30.02","68","82","0.00",,"-0.03","1","63","30.01","FEW:02 28 FEW:02 250","29.55","10.00","73","050",,"10",,,,,,,,,,,,,,,,,,,,,,,,,,,,,,,,,,,,,"MET11209/17/19 09:51:02 METAR KRDU 171451Z 05009KT 10SM FEW028 FEW250 28/20 A3002 RMK AO2 SLP162 T02780200 51009 (KAH)","FM-15","7",,,,,,,,,,,,,,,,,,,,,,,,,,,,"2009-07-08"
"72306013722","2019-09-17T10:51:00","FM-15","7",,,,,,,,,,,,,,,,,,,,,,,,,,,,,,,,,,,,,,"30.02","63","84","0.00",,,,"49","30.00","FEW:02 45 FEW:02 250","29.55","10.00","70","060",,"10",,,,,,,,,,,,,,,,,,,,,,,,,,,,,,,,,,,,,"MET10609/17/19 10:51:02 METAR KRDU 171551Z 06009KT 10SM FEW045 FEW250 29/17 A3002 RMK AO2 SLP160 T02890172 (KAH)","FM-15","7",,,,,,,,,,,,,,,,,,,,,,,,,,,,"2009-07-08"
"72306013722","2019-09-17T11:51:00","FM-15","7",,,,,,,,,,,,,,,,,,,,,,,,,,,,,,,,,,,,,,"30.01","62","85","0.00",,,,"46","30.00","FEW:02 55 FEW:02 250","29.54","10.00","70","070",,"8",,,,,,,,,,,,,,,,,,,,,,,,,,,,,,,,,,,,,"MET10609/17/19 11:51:02 METAR KRDU 171651Z 07007KT 10SM FEW055 FEW250 29/17 A3001 RMK AO2 SLP158 T02940167 (KAH)","FM-15","7",,,,,,,,,,,,,,,,,,,,,,,,,,,,"2009-07-08"
"72306013722","2019-09-17T12:51:00","FM-15","7",,,,,,,,,,,,,,,,,,,,,,,,,,,,,,,,,,,,,,"30.00","62","87","0.00",,"+0.02","8","43","29.99","FEW:02 55 FEW:02 250","29.53","10.00","71","040",,"8",,,,,,,,,,,,,,,,,,,,,,,,,,,,,,,,,,,,,"MET12409/17/19 12:51:02 METAR KRDU 171751Z 04007KT 10SM FEW055 FEW250 31/17 A3000 RMK AO2 SLP155 T03060167 10306 20206 58007 (KAH)","FM-15","7",,,,,,,,,,,,,,,,,,,,,,,,,,,,"2009-07-08"
"72306013722","2019-09-17T13:00:00","FM-12","4",,,,,,,,,,,,,,,,,,,,,,,,,,,,,,,,,,,,,,,"62","87",,,"+0.02","8","43","29.99","57","29.54","9.94","71","040",,"8",,,,,,,,,,,,,,,,,,,,,,,,,,,,,,,,,,,,,"SYN08072306 32766 20407 10306 20167 30003 40155 58007 91751 333 10306 20206 555 91718=","FM-12","4",,,,,,,,,,,,,,,,,,,,,,,,,,,,"2009-07-08"
"72306013722","2019-09-17T13:51:00","FM-15","7",,,,,,,,,,,,,,,,,,,,,,,,,,,,,,,,,,,,,,"29.99","63","86","0.00",,,,"46","29.98","FEW:02 55 FEW:02 250","29.52","10.00","71","100",,"9",,,,,,,,,,,,,,,,,,,,,,,,,,,,,,,,,,,,,"MET10609/17/19 13:51:02 METAR KRDU 171851Z 10008KT 10SM FEW055 FEW250 30/17 A2999 RMK AO2 SLP151 T03000172 (KAH)","FM-15","7",,,,,,,,,,,,,,,,,,,,,,,,,,,,"2009-07-08"
"72306013722","2019-09-17T14:51:00","FM-15","7",,,,,,,,,,,,,,,,,,,,,,,,,,,,,,,,,,,,,,"29.98","64","86","0.00",,,,"48","29.97","SCT:04 55 SCT:04 250","29.51","10.00","71","130",,"11",,,,,,,,,,,,,,,,,,,,,,,,,,,,,,,,,,,,,"MET10609/17/19 14:51:02 METAR KRDU 171951Z 13010KT 10SM SCT055 SCT250 30/18 A2998 RMK AO2 SLP148 T03000178 (JBA)","FM-15","7",,,,,,,,,,,,,,,,,,,,,,,,,,,,"2009-07-08"
"72306013722","2019-09-17T15:51:00","FM-15","7",,,,,,,,,,,,,,,,,,,,,,,,,,,,,,,,,,,,,,"29.97","65","85","0.00",,"+0.03","7","51","29.96","BKN:07 50 BKN:07 110 BKN:07 250","29.50","10.00","72","070",,"9",,,,,,,,,,,,,,,,,,,,,,,,,,,,,,,,,,,,,"MET11909/17/19 15:51:02 METAR KRDU 172051Z 07008KT 10SM BKN050 BKN110 BKN250 29/18 A2997 RMK AO2 SLP145 T02940183 57009 (JBA)","FM-15","7",,,,,,,,,,,,,,,,,,,,,,,,,,,,"2009-07-08"
"72306013722","2019-09-17T16:51:00","FM-15","7",,,,,,,,,,,,,,,,,,,,,,,,,,,,,,,,,,,,,,"29.99","65","82","0.00",,,,"56","29.97","SCT:04 50 BKN:07 110 BKN:07 250","29.52","10.00","71","080",,"7",,,,,,,,,,,,,,,,,,,,,,,,,,,,,,,,,,,,,"MET13109/17/19 16:51:02 METAR KRDU 172151Z 08006KT 10SM SCT050TCU BKN110 BKN250 28/18 A2999 RMK AO2 SLP149 TCU NE-E AND W T02780183 (JBA)","FM-15","7",,,,,,,,,,,,,,,,,,,,,,,,,,,,"2009-07-08"
"72306013722","2019-09-17T17:51:00","FM-15","7",,,,,,,,,,,,,,,,,,,,,,,,,,,,,,,,,,,,,,"30.02","69","72","0.06","|RA |",,,"91","30.00","SCT:04 37 BKN:07 50","29.55","8.00","70","050","21","11",,,,,,,,,,,,,,,,,,,,,,,,,,,,,,,,,,,,,"MET14709/17/19 17:51:02 METAR KRDU 172251Z 05010G18KT 8SM -RA SCT037CB BKN050 BKN1 22/21 A3002 RMK AO2 RAB26 SLP160 CB SE-SW MOV SE P0006 T02220206 (JBA)","FM-15","7",,,,,,,,,,,,,,,,,,,,,,,,,,,,"2009-07-08"
"72306013722","2019-09-17T18:51:00","FM-15","7",,,,,,,,,,,,,,,,,,,,,,,,,,,,,,,,,,,,,,"30.04","69","71","0.01",,"-0.06","3","94","30.02","SCT:04 13 BKN:07 50 BKN:07 110","29.57","10.00","70","060",,"9",,,,,,,,,,,,,,,,,,,,,,,,,,,,,,,,,,,,,"MET15909/17/19 18:51:02 METAR KRDU 172351Z 06008KT 10SM SCT013 BKN050 BKN110 22/21 A3004 RMK AO2 RAE19 SLP167 SCT V BKN P0001 60007 T02170206 10311 20217 53021 (JBA)","FM-15","7",,,,,,,,,,,,,,,,,,,,,,,,,,,,"2009-07-08"
"72306013722","2019-09-17T19:00:00","FM-12","4",,,,,,,,,,,,,,,,,,,,,,,,,,,,,,,,,,,,,,,"69","71",,,"-0.06","3","94","30.02","15","29.58","9.94","70","060",,"9",,,,,,,,,,,,,,,,,,,,,,,,,,,,,,,,,,,,,"SYN08672306 12466 80608 10217 20206 30017 40167 53021 60021 92351 333 10311 20189 555 91800=","FM-12","4",,,,,,,,,,,,,,,,,,,,,,,,,,,,"2009-07-08"
"72306013722","2019-09-17T19:51:00","FM-15","7",,,,,,,,,,,,,,,,,,,,,,,,,,,,,,,,,,,,,,"30.06","68","71","0.00",,,,"90","30.04","FEW:02 13 OVC:08 60","29.59","10.00","69","050",,"7",,,,,,,,,,,,,,,,,,,,,,,,,,,,,,,,,,,,,"MET10009/17/19 19:51:01 METAR KRDU 180051Z 05006KT 10SM FEW013 OVC060 22/20 A3006 RMK AO2 SLP174 T02170200","FM-15","7",,,,,,,,,,,,,,,,,,,,,,,,,,,,"2009-07-08"
"72306013722","2019-09-17T20:51:00","FM-15","7",,,,,,,,,,,,,,,,,,,,,,,,,,,,,,,,,,,,,,"30.07","66","70","0.00",,,,"87","30.05","SCT:04 60 BKN:07 250","29.60","10.00","67","070",,"7",,,,,,,,,,,,,,,,,,,,,,,,,,,,,,,,,,,,,"MET10009/17/19 20:51:01 METAR KRDU 180151Z 07006KT 10SM SCT060 BKN250 21/19 A3007 RMK AO2 SLP177 T02110189","FM-15","7",,,,,,,,,,,,,,,,,,,,,,,,,,,,"2009-07-08"
"72306013722","2019-09-17T21:51:00","FM-15","7",,,,,,,,,,,,,,,,,,,,,,,,,,,,,,,,,,,,,,"30.08","66","69","0.00",,"-0.05","1","90","30.07","SCT:04 60 BKN:07 250","29.61","10.00","67","030",,"5",,,,,,,,,,,,,,,,,,,,,,,,,,,,,,,,,,,,,"MET10609/17/19 21:51:01 METAR KRDU 180251Z 03004KT 10SM SCT060 BKN250 21/19 A3008 RMK AO2 SLP183 T02060189 51016","FM-15","7",,,,,,,,,,,,,,,,,,,,,,,,,,,,"2009-07-08"
"72306013722","2019-09-17T22:51:00","FM-15","7",,,,,,,,,,,,,,,,,,,,,,,,,,,,,,,,,,,,,,"30.08","66","69","0.00",,,,"90","30.07","FEW:02 50 BKN:07 80 BKN:07 110","29.61","10.00","67","050",,"5",,,,,,,,,,,,,,,,,,,,,,,,,,,,,,,,,,,,,"MET10709/17/19 22:51:02 METAR KRDU 180351Z 05004KT 10SM FEW050 BKN080 BKN110 21/19 A3008 RMK AO2 SLP182 T02060189","FM-15","7",,,,,,,,,,,,,,,,,,,,,,,,,,,,"2009-07-08"
"72306013722","2019-09-17T23:51:00","FM-15","7",,,,,,,,,,,,,,,,,,,,,,,,,,,,,,,,,,,,,,"30.07","63","69","0.00",,,,"81","30.06","FEW:02 50 BKN:07 90","29.60","10.00","65","080",,"9",,,,,,,,,,,,,,,,,,,,,,,,,,,,,,,,,,,,,"MET11009/17/19 23:51:02 METAR KRDU 180451Z 08008KT 10SM FEW050 BKN090 21/17 A3007 RMK AO2 SLP179 T02060172 403110189","FM-15","7",,,,,,,,,,,,,,,,,,,,,,,,,,,,"2009-07-08"
"72306013722","2019-09-17T23:59:00","SOD  ","6",,,,,,,,,,,,,,,"66","77","75","29.99","29.53","69","5.8","12","5.0","0","88","66","030","29","0.07","0","0.0","040","21","RA",,,,,,,,,,,,,,,,,,,,,,,,,,,,,,,,,,,,,,,,,,,,,,,,,,,,,,,,"SOD75624 HR PRECIPITATION (IN): 0.07 SNOW DEPTH (IN):0     24 HR SNOWFALL (IN):0.0  WEATHER(CODE):1  24 HR MAX TEMP (F): 8824 HR MIN TEMP (F): 66AVERAGE STATION PRESSURE:29.530 MINIMUM SEA LEVEL PRESSURE:29.94 TIME OF OCCURRENCE:0437 PEAK WIND SPEED (MPH): 29 PEAK WIND DIR (DEG): 30 PEAK WIND TIME (LST):      FASTEST 2MIN SPEED (MPH): 21FASTEST 2MIN DIR (DEG): 40 FASTEST 2MIN TIME (LST):     AVERAGE WIND SPEED (MPH): 5.8 24 HR AVG TEMP (F): 77DEPART FROM NORMAL:  5  HEATING DEGREE DAYS:  0 COOLING DEGREE DAYS: 12 LATEST DAY MAX TEMP (0700-1900 LST):88  LATEST NIGHT MIN TEMP(1900-0800 LST):66 HOURLY INCREMENTAL PRECIPITATION VALUES (IN):.00 0.00 0.00 0.00 0.00 0.00 0.00 0.00 0.00 0.00 0.00 0.00 0.00 0.00 0.00 0.00 0.00 0.06 0.01 0.00 0.00 0.00 0.00 0.00","SOD  ","6",,,,,,,,,,,,,,,,,,,,,,,,,"0559","1820",,"2009-07-08"
"72306013722","2019-09-18T00:51:00","FM-15","7",,,,,,,,,,,,,,,,,,,,,,,,,,,,,,,,,,,,,,"30.09","64","67","0.00",,"-0.01","3","91","30.08","FEW:02 50 BKN:07 70 BKN:07 90","29.62","10.00","65","060",,"3",,,,,,,,,,,,,,,,,,,,,,,,,,,,,,,,,,,,,"MET13109/18/19 00:51:02 METAR KRDU 180551Z 06003KT 10SM FEW050 BKN070 BKN090 19/18 A3009 RMK AO2 SLP185 T01940178 10217 20194 53003 (AWB)","FM-15","7",,,,,,,,,,,,,,,,,,,,,,,,,,,,"2009-07-08"
"72306013722","2019-09-18T01:00:00","FM-12","4",,,,,,,,,,,,,,,,,,,,,,,,,,,,,,,,,,,,,,,"64","67",,,"-0.01","3","91","30.08","57","29.63","9.94","65","060",,"3",,,,,,,,,,,,,,,,,,,,,,,,,,,,,,,,,,,,,"SYN08072306 32766 60603 10194 20178 30033 40185 53003 90551 333 10217 20189 555 91806=","FM-12","4",,,,,,,,,,,,,,,,,,,,,,,,,,,,"2009-07-08"
"72306013722","2019-09-18T01:51:00","FM-15","6",,,,,,,,,,,,,,,,,,,,,,,,,,,,,,,,,,,,,,"30.10","61","67","0.00",,,,"81","30.08","BKN:07 75 OVC:08 90","29.63","10.00","63","040",,"8",,,,,,,,,,,,,,,,,,,,,,,,,,,,,,,,,,,,,"MET10609/18/19 01:51:02 METAR KRDU 180651Z 04007KT 10SM BKN075 OVC090 19/16 A3010 RMK AO2 SLP187 T01940161 (AWB)","FM-15","6",,,,,,,,,,,,,,,,,,,,,,,,,,,,"2009-07-08"
"72306013722","2019-09-18T02:51:00","FM-15","6",,,,,,,,,,,,,,,,,,,,,,,,,,,,,,,,,,,,,,"30.11","62","67","0.00",,,,"84","30.10","FEW:02 20 FEW:02 70 BKN:07 85","29.64","10.00","64","030",,"5",,,,,,,,,,,,,,,,,,,,,,,,,,,,,,,,,,,,,"MET11309/18/19 02:51:02 METAR KRDU 180751Z 03004KT 10SM FEW020 FEW070 BKN085 19/17 A3011 RMK AO2 SLP192 T01940167 (AWB)","FM-15","6",,,,,,,,,,,,,,,,,,,,,,,,,,,,"2009-07-08"
"72306013722","2019-09-18T03:51:00","FM-15","6",,,,,,,,,,,,,,,,,,,,,,,,,,,,,,,,,,,,,,"30.12","60","65","0.00",,"-0.02","3","84","30.10","FEW:02 20 FEW:02 70 BKN:07 85","29.65","10.00","62","020",,"5",,,,,,,,,,,,,,,,,,,,,,,,,,,,,,,,,,,,,"MET11909/18/19 03:51:02 METAR KRDU 180851Z 02004KT 10SM FEW020 FEW070 BKN085 18/16 A3012 RMK AO2 SLP193 T01830156 53008 (AWB)","FM-15","6",,,,,,,,,,,,,,,,,,,,,,,,,,,,"2009-07-08"
"72306013722","2019-09-18T04:51:00","FM-15","7",,,,,,,,,,,,,,,,,,,,,,,,,,,,,,,,,,,,,,"30.12","59","63","0.00",,,,"87","30.10","FEW:02 80","29.65","10.00","61","000",,"0",,,,,,,,,,,,,,,,,,,,,,,,,,,,,,,,,,,,,"MET09909/18/19 04:51:02 METAR KRDU 180951Z 00000KT 10SM FEW080 17/15 A3012 RMK AO2 SLP194 T01720150 (AWB)","FM-15","7",,,,,,,,,,,,,,,,,,,,,,,,,,,,"2009-07-08"
"72306013722","2019-09-18T05:51:00","FM-15","7",,,,,,,,,,,,,,,,,,,,,,,,,,,,,,,,,,,,,,"30.13","58","61","0.00",,,,"90","30.12","FEW:02 80","29.66","10.00","59","050",,"6",,,,,,,,,,,,,,,,,,,,,,,,,,,,,,,,,,,,,"MET09909/18/19 05:51:02 METAR KRDU 181051Z 05005KT 10SM FEW080 16/14 A3013 RMK AO2 SLP199 T01610144 (AWB)","FM-15","7",,,,,,,,,,,,,,,,,,,,,,,,,,,,"2009-07-08"
"72306013722","2019-09-18T06:51:00","FM-15","7",,,,,,,,,,,,,,,,,,,,,,,,,,,,,,,,,,,,,,"30.15","59","64","0.00",,"-0.04","3","84","30.14","SCT:04 80","29.68","10.00","61","030",,"5",,,,,,,,,,,,,,,,,,,,,,,,,,,,,,,,,,,,,"MET12309/18/19 06:51:02 METAR KRDU 181151Z 03004KT 10SM SCT080 18/15 A3015 RMK AO2 SLP207 70007 T01780150 10200 20161 53012 (KAH)","FM-15","7",,,,,,,,,,,,,,,,,,,,,,,,,,,,"2009-07-08"
"72306013722","2019-09-18T07:00:00","FM-12","4",,,,,,,,,,,,,,,,,,,,,,,,,,,,,,,,,,,,,,,"59","64",,,"-0.04","3","84","30.14","74","29.69","9.94","61","030",,"5",,,,,,,,,,,,,,,,,,,,,,,,,,,,,,,,,,,,,"SYN08672306 32866 40304 10178 20150 30053 40207 53012 91151 333 10311 20161 70018 555 91812=","FM-12","4",,,,,,,,,,,,,,,,,,,,,,,,,,,,"2009-07-08"
"72306013722","2019-09-18T07:51:00","FM-15","7",,,,,,,,,,,,,,,,,,,,,,,,,,,,,,,,,,,,,,"30.15","59","65","0.00",,,,"81","30.14","BKN:07 80","29.68","10.00","61","040",,"6",,,,,,,,,,,,,,,,,,,,,,,,,,,,,,,,,,,,,"MET09909/18/19 07:51:02 METAR KRDU 181251Z 04005KT 10SM BKN080 18/15 A3015 RMK AO2 SLP206 T01830150 (KAH)","FM-15","7",,,,,,,,,,,,,,,,,,,,,,,,,,,,"2009-07-08"
"72306013722","2019-09-18T08:51:00","FM-15","7",,,,,,,,,,,,,,,,,,,,,,,,,,,,,,,,,,,,,,"30.17","59","68","0.00",,,,"73","30.15","BKN:07 85","29.70","10.00","63","040",,"6",,,,,,,,,,,,,,,,,,,,,,,,,,,,,,,,,,,,,"MET09909/18/19 08:51:02 METAR KRDU 181351Z 04005KT 10SM BKN085 20/15 A3017 RMK AO2 SLP211 T02000150 (KAH)","FM-15","7",,,,,,,,,,,,,,,,,,,,,,,,,,,,"2009-07-08"
"72306013722","2019-09-18T09:51:00","FM-15","7",,,,,,,,,,,,,,,,,,,,,,,,,,,,,,,,,,,,,,"30.17","56","73","0.00",,"-0.01","2","55","30.15","SCT:04 36 SCT:04 85","29.70","10.00","63","050",,"11",,,,,,,,,,,,,,,,,,,,,,,,,,,,,,,,,,,,,"MET11209/18/19 09:51:02 METAR KRDU 181451Z 05010KT 10SM SCT036 SCT085 23/13 A3017 RMK AO2 SLP211 T02280133 52004 (KAH)","FM-15","7",,,,,,,,,,,,,,,,,,,,,,,,,,,,"2009-07-08"
"72306013722","2019-09-18T10:51:00","FM-15","7",,,,,,,,,,,,,,,,,,,,,,,,,,,,,,,,,,,,,,"30.16","54","74","0.00",,,,"50","30.15","SCT:04 45 SCT:04 85","29.69","10.00","62","050",,"16",,,,,,,,,,,,,,,,,,,,,,,,,,,,,,,,,,,,,"MET10609/18/19 10:51:02 METAR KRDU 181551Z 05014KT 10SM SCT045 SCT085 23/12 A3016 RMK AO2 SLP210 T02330122 (KAH)","FM-15","7",,,,,,,,,,,,,,,,,,,,,,,,,,,,"2009-07-08"
"72306013722","2019-09-18T11:51:00","FM-15","7",,,,,,,,,,,,,,,,,,,,,,,,,,,,,,,,,,,,,,"30.16","55","75","0.00",,,,"50","30.15","SCT:04 45 SCT:04 85","29.69","10.00","63","080","18","9",,,,,,,,,,,,,,,,,,,,,,,,,,,,,,,,,,,,,"MET10909/18/19 11:51:02 METAR KRDU 181651Z 08008G16KT 10SM SCT045 SCT085 24/13 A3016 RMK AO2 SLP209 T02390128 (KAH)","FM-15","7",,,,,,,,,,,,,,,,,,,,,,,,,,,,"2009-07-08"
"72306013722","2019-09-18T12:51:00","FM-15","7",,,,,,,,,,,,,,,,,,,,,,,,,,,,,,,,,,,,,,"30.15","53","77","0.00",,"+0.02","8","43","30.14","SCT:04 50","29.68","10.00","63","060","21","11",,,,,,,,,,,,,,,,,,,,,,,,,,,,,,,,,,,,,"MET12009/18/19 12:51:02 METAR KRDU 181751Z 06010G18KT 10SM SCT050 25/12 A3015 RMK AO2 SLP205 T02500117 10256 20178 58006 (KAH)","FM-15","7",,,,,,,,,,,,,,,,,,,,,,,,,,,,"2009-07-08"
"72306013722","2019-09-18T13:00:00","FM-12","4",,,,,,,,,,,,,,,,,,,,,,,,,,,,,,,,,,,,,,,"53","77",,,"+0.02","8","43","30.14","57","29.69","9.94","63","060",,"11",,,,,,,,,,,,,,,,,,,,,,,,,,,,,,,,,,,,,"SYN08672306 32766 40610 10250 20117 30053 40205 58006 91751 333 10256 20178 91018 555 91818=","FM-12","4",,,,,,,,,,,,,,,,,,,,,,,,,,,,"2009-07-08"
"72306013722","2019-09-18T13:51:00","FM-15","7",,,,,,,,,,,,,,,,,,,,,,,,,,,,,,,,,,,,,,"30.14","51","78","0.00",,,,"39","30.13","SCT:04 55","29.67","10.00","62","VRB",,"13",,,,,,,,,,,,,,,,,,,,,,,,,,,,,,,,,,,,,"MET09909/18/19 13:51:02 METAR KRDU 181851Z 08011KT 10SM SCT055 26/11 A3014 RMK AO2 SLP203 T02560106 (KAH)","FM-15","7",,,,,,,,,,,,,,,,,,,,,,,,,,,,"2009-07-08"
"72306013722","2019-09-18T14:51:00","FM-15","7",,,,,,,,,,,,,,,,,,,,,,,,,,,,,,,,,,,,,,"30.13","52","78","0.00",,,,"40","30.11","SCT:04 55","29.66","10.00","63","070",,"10",,,,,,,,,,,,,,,,,,,,,,,,,,,,,,,,,,,,,"MET09909/18/19 14:51:02 METAR KRDU 181951Z 07009KT 10SM SCT055 26/11 A3013 RMK AO2 SLP198 T02560111 (JBA)","FM-15","7",,,,,,,,,,,,,,,,,,,,,,,,,,,,"2009-07-08"
"72306013722","2019-09-18T15:51:00","FM-15","7",,,,,,,,,,,,,,,,,,,,,,,,,,,,,,,,,,,,,,"30.13","51","76","0.00",,"+0.01","5","42","30.12","SCT:04 55","29.66","10.00","62","070",,"7",,,,,,,,,,,,,,,,,,,,,,,,,,,,,,,,,,,,,"MET10509/18/19 15:51:02 METAR KRDU 182051Z 07006KT 10SM SCT055 24/11 A3013 RMK AO2 SLP200 T02440106 55005 (JBA)","FM-15","7",,,,,,,,,,,,,,,,,,,,,,,,,,,,"2009-07-08"
"72306013722","2019-09-18T16:51:00","FM-15","7",,,,,,,,,,,,,,,,,,,,,,,,,,,,,,,,,,,,,,"30.14","51","75","0.00",,,,"43","30.12","SCT:04 55","29.67","10.00","61","060",,"9",,,,,,,,,,,,,,,,,,,,,,,,,,,,,,,,,,,,,"MET09909/18/19 16:51:02 METAR KRDU 182151Z 06008KT 10SM SCT055 24/11 A3014 RMK AO2 SLP201 T02390106 (JBA)","FM-15","7",,,,,,,,,,,,,,,,,,,,,,,,,,,,"2009-07-08"
"72306013722","2019-09-18T17:51:00","FM-15","7",,,,,,,,,,,,,,,,,,,,,,,,,,,,,,,,,,,,,,"30.14","51","73","0.00",,,,"46","30.14","FEW:02 55","29.67","10.00","60","080",,"8",,,,,,,,,,,,,,,,,,,,,,,,,,,,,,,,,,,,,"MET09909/18/19 17:51:02 METAR KRDU 182251Z 08007KT 10SM FEW055 23/11 A3014 RMK AO2 SLP205 T02280106 (JBA)","FM-15","7",,,,,,,,,,,,,,,,,,,,,,,,,,,,"2009-07-08"
"72306013722","2019-09-18T18:51:00","FM-15","7",,,,,,,,,,,,,,,,,,,,,,,,,,,,,,,,,,,,,,"30.16","53","69","0.00",,"-0.02","3","57","30.15","FEW:02 55 FEW:02 250","29.69","10.00","60","090",,"8",,,,,,,,,,,,,,,,,,,,,,,,,,,,,,,,,,,,,"MET12409/18/19 18:51:02 METAR KRDU 182351Z 09007KT 10SM FEW055 FEW250 21/12 A3016 RMK AO2 SLP210 T02060117 10261 20206 53008 (JBA)","FM-15","7",,,,,,,,,,,,,,,,,,,,,,,,,,,,"2009-07-08"
"72306013722","2019-09-18T19:00:00","FM-12","4",,,,,,,,,,,,,,,,,,,,,,,,,,,,,,,,,,,,,,,"53","69",,,"-0.02","3","57","30.15","57","29.70","9.94","60","090",,"8",,,,,,,,,,,,,,,,,,,,,,,,,,,,,,,,,,,,,"SYN08072306 32766 20907 10206 20117 30057 40210 53008 92351 333 10261 20161 555 91900=","FM-12","4",,,,,,,,,,,,,,,,,,,,,,,,,,,,"2009-07-08"
"72306013722","2019-09-18T19:51:00","FM-15","7",,,,,,,,,,,,,,,,,,,,,,,,,,,,,,,,,,,,,,"30.17","53","65","0.00",,,,"66","30.16","FEW:02 250","29.70","10.00","58","080",,"6",,,,,,,,,,,,,,,,,,,,,,,,,,,,,,,,,,,,,"MET09309/18/19 19:51:01 METAR KRDU 190051Z 08005KT 10SM FEW250 18/12 A3017 RMK AO2 SLP213 T01830117","FM-15","7",,,,,,,,,,,,,,,,,,,,,,,,,,,,"2009-07-08"
"72306013722","2019-09-18T20:51:00","FM-15","7",,,,,,,,,,,,,,,,,,,,,,,,,,,,,,,,,,,,,,"30.19","53","67","0.00",,,,"61","30.18","FEW:02 250","29.72","10.00","59","090",,"10",,,,,,,,,,,,,,,,,,,,,,,,,,,,,,,,,,,,,"MET09309/18/19 20:51:01 METAR KRDU 190151Z 09009KT 10SM FEW250 19/12 A3019 RMK AO2 SLP220 T01940117","FM-15","7",,,,,,,,,,,,,,,,,,,,,,,,,,,,"2009-07-08"
"72306013722","2019-09-18T21:51:00","FM-15","7",,,,,,,,,,,,,,,,,,,,,,,,,,,,,,,,,,,,,,"30.21","54","65","0.00",,"-0.05","3","68","30.19","FEW:02 250","29.74","10.00","59","090",,"9",,,,,,,,,,,,,,,,,,,,,,,,,,,,,,,,,,,,,"MET09909/18/19 21:51:01 METAR KRDU 190251Z 09008KT 10SM FEW250 18/12 A3021 RMK AO2 SLP225 T01830122 53016","FM-15","7",,,,,,,,,,,,,,,,,,,,,,,,,,,,"2009-07-08"
"72306013722","2019-09-18T22:51:00","FM-15","7",,,,,,,,,,,,,,,,,,,,,,,,,,,,,,,,,,,,,,"30.21","54","63","0.00",,,,"73","30.20","CLR:00","29.74","10.00","58","090",,"8",,,,,,,,,,,,,,,,,,,,,,,,,,,,,,,,,,,,,"MET09009/18/19 22:51:02 METAR KRDU 190351Z 09007KT 10SM CLR 17/12 A3021 RMK AO2 SLP227 T01720122","FM-15","7",,,,,,,,,,,,,,,,,,,,,,,,,,,,"2009-07-08"
"72306013722","2019-09-18T23:51:00","FM-15","7",,,,,,,,,,,,,,,,,,,,,,,,,,,,,,,,,,,,,,"30.23","54","61","0.00",,,,"78","30.21","CLR:00","29.76","10.00","57","080",,"5",,,,,,,,,,,,,,,,,,,,,,,,,,,,,,,,,,,,,"MET10009/18/19 23:51:02 METAR KRDU 190451Z 08004KT 10SM CLR 16/12 A3023 RMK AO2 SLP231 T01610122 402610161","FM-15","7",,,,,,,,,,,,,,,,,,,,,,,,,,,,"2009-07-08"
"72306013722","2019-09-18T23:59:00","SOD  ","6",,,,,,,,,,,,,,,"56","70","64","30.14","29.66","61","7.7","5","-1.6","0","79","60","080","23","0.00","0","0.0","070","17",,,,,,,,,,,,,,,,,,,,,,,,,,,,,,,,,,,,,,,,,,,,,,,,,,,,,,,,,"SOD73924 HR PRECIPITATION (IN): 0.00 SNOW DEPTH (IN):0     24 HR SNOWFALL (IN):0.0  24 HR MAX TEMP (F): 7924 HR MIN TEMP (F): 60AVERAGE STATION PRESSURE:29.660 MINIMUM SEA LEVEL PRESSURE:30.07 TIME OF OCCURRENCE:0044 PEAK WIND SPEED (MPH): 23 PEAK WIND DIR (DEG): 80 PEAK WIND TIME (LST):      FASTEST 2MIN SPEED (MPH): 17FASTEST 2MIN DIR (DEG): 70 FASTEST 2MIN TIME (LST):     AVERAGE WIND SPEED (MPH): 7.7 24 HR AVG TEMP (F): 70DEPART FROM NORMAL: -1  HEATING DEGREE DAYS:  0 COOLING DEGREE DAYS:  5 LATEST DAY MAX TEMP (0700-1900 LST):79  LATEST NIGHT MIN TEMP(1900-0800 LST):61 HOURLY INCREMENTAL PRECIPITATION VALUES (IN):.00 0.00 0.00 0.00 0.00 0.00 0.00 0.00 0.00 0.00 0.00 0.00 0.00 0.00 0.00 0.00 0.00 0.00 0.00 0.00 0.00 0.00 0.00 0.00","SOD  ","6",,,,,,,,,,,,,,,,,,,,,,,,,"0600","1818",,"2009-07-08"
"72306013722","2019-09-19T00:51:00","FM-15","7",,,,,,,,,,,,,,,,,,,,,,,,,,,,,,,,,,,,,,"30.23","54","59","0.00",,"-0.02","1","83","30.22","CLR:00","29.76","10.00","56","030",,"3",,,,,,,,,,,,,,,,,,,,,,,,,,,,,,,,,,,,,"MET11409/19/19 00:51:02 METAR KRDU 190551Z 03003KT 10SM CLR 15/12 A3023 RMK AO2 SLP233 T01500122 10206 20150 51008 (AWB)","FM-15","7",,,,,,,,,,,,,,,,,,,,,,,,,,,,"2009-07-08"
"72306013722","2019-09-19T01:00:00","FM-12","4",,,,,,,,,,,,,,,,,,,,,,,,,,,,,,,,,,,,,,,"54","59",,,"-0.02","1","83","30.22",,"29.77","9.94","56","030",,"3",,,,,,,,,,,,,,,,,,,,,,,,,,,,,,,,,,,,,"SYN08072306 32966 00303 10150 20122 30080 40233 51008 90551 333 10206 20150 555 91906=","FM-12","4",,,,,,,,,,,,,,,,,,,,,,,,,,,,"2009-07-08"
"72306013722","2019-09-19T01:51:00","FM-15","7",,,,,,,,,,,,,,,,,,,,,,,,,,,,,,,,,,,,,,"30.23","54","56","0.00",,,,"93","30.22","CLR:00","29.76","10.00","55","030",,"3",,,,,,,,,,,,,,,,,,,,,,,,,,,,,,,,,,,,,"MET09609/19/19 01:51:02 METAR KRDU 190651Z 03003KT 10SM CLR 13/12 A3023 RMK AO2 SLP235 T01330122 (AWB)","FM-15","7",,,,,,,,,,,,,,,,,,,,,,,,,,,,"2009-07-08"
"72306013722","2019-09-19T02:51:00","FM-15","7",,,,,,,,,,,,,,,,,,,,,,,,,,,,,,,,,,,,,,"30.24","54","55","0.00",,,,"96","30.23","CLR:00","29.77","10.00","54","040",,"5",,,,,,,,,,,,,,,,,,,,,,,,,,,,,,,,,,,,,"MET09609/19/19 02:51:02 METAR KRDU 190751Z 04004KT 10SM CLR 13/12 A3024 RMK AO2 SLP236 T01280122 (AWB)","FM-15","7",,,,,,,,,,,,,,,,,,,,,,,,,,,,"2009-07-08"
"72306013722","2019-09-19T03:51:00","FM-15","7",,,,,,,,,,,,,,,,,,,,,,,,,,,,,,,,,,,,,,"30.24","54","56","0.00",,"-0.01","3","93","30.23","CLR:00","29.77","10.00","55","000",,"0",,,,,,,,,,,,,,,,,,,,,,,,,,,,,,,,,,,,,"MET10209/19/19 03:51:02 METAR KRDU 190851Z 00000KT 10SM CLR 13/12 A3024 RMK AO2 SLP238 T01330122 53004 (AWB)","FM-15","7",,,,,,,,,,,,,,,,,,,,,,,,,,,,"2009-07-08"
"72306013722","2019-09-19T04:51:00","FM-15","7",,,,,,,,,,,,,,,,,,,,,,,,,,,,,,,,,,,,,,"30.26","53","54","0.00",,,,"97","30.25","FEW:02 42","29.79","10.00","53","000",,"0",,,,,,,,,,,,,,,,,,,,,,,,,,,,,,,,,,,,,"MET09909/19/19 04:51:02 METAR KRDU 190951Z 00000KT 10SM FEW042 12/12 A3026 RMK AO2 SLP243 T01220117 (AWB)","FM-15","7",,,,,,,,,,,,,,,,,,,,,,,,,,,,"2009-07-08"
"72306013722","2019-09-19T05:51:00","FM-15","7",,,,,,,,,,,,,,,,,,,,,,,,,,,,,,,,,,,,,,"30.27","53","54","0.00",,,,"97","30.27","FEW:02 42","29.80","10.00","53","030",,"5",,,,,,,,,,,,,,,,,,,,,,,,,,,,,,,,,,,,,"MET09909/19/19 05:51:02 METAR KRDU 191051Z 03004KT 10SM FEW042 12/12 A3027 RMK AO2 SLP249 T01220117 (AWB)","FM-15","7",,,,,,,,,,,,,,,,,,,,,,,,,,,,"2009-07-08"
"72306013722","2019-09-19T06:51:00","FM-15","7",,,,,,,,,,,,,,,,,,,,,,,,,,,,,,,,,,,,,,"30.29","55","57","0.00",,"-0.05","3","93","30.28","FEW:02 45","29.82","10.00","56","040",,"7",,,,,,,,,,,,,,,,,,,,,,,,,,,,,,,,,,,,,"MET11709/19/19 06:51:02 METAR KRDU 191151Z 04006KT 10SM FEW045 14/13 A3029 RMK AO2 SLP254 T01390128 10150 20122 53016 (KAH)","FM-15","7",,,,,,,,,,,,,,,,,,,,,,,,,,,,"2009-07-08"
"72306013722","2019-09-19T07:00:00","FM-12","4",,,,,,,,,,,,,,,,,,,,,,,,,,,,,,,,,,,,,,,"55","57",,,"-0.05","3","93","30.28","41","29.83","9.94","56","040",,"7",,,,,,,,,,,,,,,,,,,,,,,,,,,,,,,,,,,,,"SYN08072306 32666 20406 10139 20128 30100 40254 53016 91151 333 10261 20122 555 91912=","FM-12","4",,,,,,,,,,,,,,,,,,,,,,,,,,,,"2009-07-08"
"72306013722","2019-09-19T07:51:00","FM-15","7",,,,,,,,,,,,,,,,,,,,,,,,,,,,,,,,,,,,,,"30.29","56","62","0.00",,,,"80","30.28","FEW:02 50","29.82","10.00","59","040",,"7",,,,,,,,,,,,,,,,,,,,,,,,,,,,,,,,,,,,,"MET09909/19/19 07:51:02 METAR KRDU 191251Z 04006KT 10SM FEW050 17/13 A3029 RMK AO2 SLP255 T01670133 (KAH)","FM-15","7",,,,,,,,,,,,,,,,,,,,,,,,,,,,"2009-07-08"
"72306013722","2019-09-19T08:51:00","FM-15","7",,,,,,,,,,,,,,,,,,,,,,,,,,,,,,,,,,,,,,"30.30","53","65","0.00",,,,"66","30.29","FEW:02 20 FEW:02 250","29.83","10.00","58","070",,"13",,,,,,,,,,,,,,,,,,,,,,,,,,,,,,,,,,,,,"MET10609/19/19 08:51:02 METAR KRDU 191351Z 07011KT 10SM FEW020 FEW250 18/12 A3030 RMK AO2 SLP259 T01830117 (KAH)","FM-15","7",,,,,,,,,,,,,,,,,,,,,,,,,,,,"2009-07-08"
"72306013722","2019-09-19T09:51:00","FM-15","7",,,,,,,,,,,,,,,,,,,,,,,,,,,,,,,,,,,,,,"30.30","51","67","0.00",,"-0.01","0","57","30.29","FEW:02 35 FEW:02 250","29.83","10.00","58","030","20","11",,,,,,,,,,,,,,,,,,,,,,,,,,,,,,,,,,,,,"MET11509/19/19 09:51:02 METAR KRDU 191451Z 03010G17KT 10SM FEW035 FEW250 19/11 A3030 RMK AO2 SLP258 T01940106 50004 (KAH)","FM-15","7",,,,,,,,,,,,,,,,,,,,,,,,,,,,"2009-07-08"
"72306013722","2019-09-19T10:51:00","FM-15","7",,,,,,,,,,,,,,,,,,,,,,,,,,,,,,,,,,,,,,"30.30","47","70","0.00",,,,"44","30.29","SCT:04 50 SCT:04 250","29.83","10.00","57","VRB",,"9",,,,,,,,,,,,,,,,,,,,,,,,,,,,,,,,,,,,,"MET10609/19/19 10:51:02 METAR KRDU 191551Z 06008KT 10SM SCT050 SCT250 21/08 A3030 RMK AO2 SLP258 T02110083 (KAH)","FM-15","7",,,,,,,,,,,,,,,,,,,,,,,,,,,,"2009-07-08"
"72306013722","2019-09-19T11:51:00","FM-15","7",,,,,,,,,,,,,,,,,,,,,,,,,,,,,,,,,,,,,,"30.29","47","71","0.00",,,,"42","30.28","SCT:04 50 SCT:04 250","29.82","10.00","58","VRB","16","8",,,,,,,,,,,,,,,,,,,,,,,,,,,,,,,,,,,,,"MET10909/19/19 11:51:02 METAR KRDU 191651Z 10007G14KT 10SM SCT050 SCT250 22/08 A3029 RMK AO2 SLP255 T02170083 (KAH)","FM-15","7",,,,,,,,,,,,,,,,,,,,,,,,,,,,"2009-07-08"
"72306013722","2019-09-19T12:51:00","FM-15","7",,,,,,,,,,,,,,,,,,,,,,,,,,,,,,,,,,,,,,"30.28","48","73","0.00",,"+0.02","8","41","30.27","SCT:04 55 SCT:04 250","29.81","10.00","59","050",,"10",,,,,,,,,,,,,,,,,,,,,,,,,,,,,,,,,,,,,"MET12409/19/19 12:51:02 METAR KRDU 191751Z 05009KT 10SM SCT055 SCT250 23/09 A3028 RMK AO2 SLP251 T02280089 10228 20139 58007 (KAH)","FM-15","7",,,,,,,,,,,,,,,,,,,,,,,,,,,,"2009-07-08"
"72306013722","2019-09-19T13:00:00","FM-12","4",,,,,,,,,,,,,,,,,,,,,,,,,,,,,,,,,,,,,,,"48","73",,,"+0.02","8","41","30.27","57","29.82","9.94","59","050",,"10",,,,,,,,,,,,,,,,,,,,,,,,,,,,,,,,,,,,,"SYN08072306 32766 40509 10228 20089 30097 40251 58007 91751 333 10228 20139 555 91918=","FM-12","4",,,,,,,,,,,,,,,,,,,,,,,,,,,,"2009-07-08"
"72306013722","2019-09-19T13:51:00","FM-15","7",,,,,,,,,,,,,,,,,,,,,,,,,,,,,,,,,,,,,,"30.27","47","73","0.00",,,,"40","30.26","SCT:04 55 SCT:04 250","29.80","10.00","59","100","21","13",,,,,,,,,,,,,,,,,,,,,,,,,,,,,,,,,,,,,"MET10909/19/19 13:51:02 METAR KRDU 191851Z 10011G18KT 10SM SCT055 SCT250 23/08 A3027 RMK AO2 SLP247 T02280083 (KAH)","FM-15","7",,,,,,,,,,,,,,,,,,,,,,,,,,,,"2009-07-08"
"72306013722","2019-09-19T14:51:00","FM-15","7",,,,,,,,,,,,,,,,,,,,,,,,,,,,,,,,,,,,,,"30.26","47","74","0.00",,,,"38","30.25","SCT:04 55 SCT:04 250","29.79","10.00","59","080",,"8",,,,,,,,,,,,,,,,,,,,,,,,,,,,,,,,,,,,,"MET10609/19/19 14:51:02 METAR KRDU 191951Z 08007KT 10SM SCT055 SCT250 23/08 A3026 RMK AO2 SLP243 T02330083 (JBA)","FM-15","7",,,,,,,,,,,,,,,,,,,,,,,,,,,,"2009-07-08"
"72306013722","2019-09-19T15:51:00","FM-15","7",,,,,,,,,,,,,,,,,,,,,,,,,,,,,,,,,,,,,,"30.25","48","74","0.00",,"+0.04","6","40","30.24","FEW:02 55 SCT:04 250","29.78","10.00","59","050",,"11",,,,,,,,,,,,,,,,,,,,,,,,,,,,,,,,,,,,,"MET11209/19/19 15:51:02 METAR KRDU 192051Z 05010KT 10SM FEW055 SCT250 23/09 A3025 RMK AO2 SLP240 T02330089 56012 (JBA)","FM-15","7",,,,,,,,,,,,,,,,,,,,,,,,,,,,"2009-07-08"
"72306013722","2019-09-19T16:51:00","FM-15","7",,,,,,,,,,,,,,,,,,,,,,,,,,,,,,,,,,,,,,"30.25","49","72","0.00",,,,"44","30.24","FEW:02 55 SCT:04 250","29.78","10.00","59","VRB",,"9",,,,,,,,,,,,,,,,,,,,,,,,,,,,,,,,,,,,,"MET10609/19/19 16:51:02 METAR KRDU 192151Z 07008KT 10SM FEW055 SCT250 22/09 A3025 RMK AO2 SLP242 T02220094 (JBA)","FM-15","7",,,,,,,,,,,,,,,,,,,,,,,,,,,,"2009-07-08"
"72306013722","2019-09-19T17:51:00","FM-15","7",,,,,,,,,,,,,,,,,,,,,,,,,,,,,,,,,,,,,,"30.25","49","69","0.00",,,,"49","30.24","FEW:02 55 FEW:02 250","29.78","10.00","58","090",,"7",,,,,,,,,,,,,,,,,,,,,,,,,,,,,,,,,,,,,"MET10609/19/19 17:51:02 METAR KRDU 192251Z 09006KT 10SM FEW055 FEW250 21/09 A3025 RMK AO2 SLP242 T02060094 (JBA)","FM-15","7",,,,,,,,,,,,,,,,,,,,,,,,,,,,"2009-07-08"
"72306013722","2019-09-19T18:51:00","FM-15","7",,,,,,,,,,,,,,,,,,,,,,,,,,,,,,,,,,,,,,"30.26","50","66","0.00",,"-0.01","1","56","30.25","FEW:02 55 FEW:02 250","29.79","10.00","57","090",,"8",,,,,,,,,,,,,,,,,,,,,,,,,,,,,,,,,,,,,"MET12409/19/19 18:51:02 METAR KRDU 192351Z 09007KT 10SM FEW055 FEW250 19/10 A3026 RMK AO2 SLP243 T01890100 10239 20189 51004 (JBA)","FM-15","7",,,,,,,,,,,,,,,,,,,,,,,,,,,,"2009-07-08"
"72306013722","2019-09-19T19:00:00","FM-12","4",,,,,,,,,,,,,,,,,,,,,,,,,,,,,,,,,,,,,,,"50","66",,,"-0.01","1","56","30.25","57","29.80","9.94","57","090",,"8",,,,,,,,,,,,,,,,,,,,,,,,,,,,,,,,,,,,,"SYN08072306 32766 20907 10189 20100 30090 40243 51004 92351 333 10239 20122 555 92000=","FM-12","4",,,,,,,,,,,,,,,,,,,,,,,,,,,,"2009-07-08"
"72306013722","2019-09-19T19:51:00","FM-15","7",,,,,,,,,,,,,,,,,,,,,,,,,,,,,,,,,,,,,,"30.28","50","63","0.00",,,,"63","30.27","FEW:02 250","29.81","10.00","56","090",,"7",,,,,,,,,,,,,,,,,,,,,,,,,,,,,,,,,,,,,"MET09309/19/19 19:51:01 METAR KRDU 200051Z 09006KT 10SM FEW250 17/10 A3028 RMK AO2 SLP251 T01720100","FM-15","7",,,,,,,,,,,,,,,,,,,,,,,,,,,,"2009-07-08"
"72306013722","2019-09-19T20:51:00","FM-15","7",,,,,,,,,,,,,,,,,,,,,,,,,,,,,,,,,,,,,,"30.29","51","61","0.00",,,,"70","30.28","FEW:02 250","29.82","10.00","56","070",,"7",,,,,,,,,,,,,,,,,,,,,,,,,,,,,,,,,,,,,"MET09309/19/19 20:51:01 METAR KRDU 200151Z 07006KT 10SM FEW250 16/11 A3029 RMK AO2 SLP255 T01610106","FM-15","7",,,,,,,,,,,,,,,,,,,,,,,,,,,,"2009-07-08"
"72306013722","2019-09-19T21:51:00","FM-15","7",,,,,,,,,,,,,,,,,,,,,,,,,,,,,,,,,,,,,,"30.29","51","60","0.00",,"-0.04","1","72","30.29","FEW:02 250","29.82","10.00","55","090",,"6",,,,,,,,,,,,,,,,,,,,,,,,,,,,,,,,,,,,,"MET09909/19/19 21:51:01 METAR KRDU 200251Z 09005KT 10SM FEW250 16/11 A3029 RMK AO2 SLP256 T01560106 51013","FM-15","7",,,,,,,,,,,,,,,,,,,,,,,,,,,,"2009-07-08"
"72306013722","2019-09-19T22:51:00","FM-15","7",,,,,,,,,,,,,,,,,,,,,,,,,,,,,,,,,,,,,,"30.29","51","59","0.00",,,,"75","30.28","FEW:02 250","29.82","10.00","55","110",,"5",,,,,,,,,,,,,,,,,,,,,,,,,,,,,,,,,,,,,"MET09309/19/19 22:51:02 METAR KRDU 200351Z 11004KT 10SM FEW250 15/11 A3029 RMK AO2 SLP254 T01500106","FM-15","7",,,,,,,,,,,,,,,,,,,,,,,,,,,,"2009-07-08"
"72306013722","2019-09-19T23:51:00","FM-15","7",,,,,,,,,,,,,,,,,,,,,,,,,,,,,,,,,,,,,,"30.29","52","59","0.00",,,,"78","30.28","FEW:02 250","29.82","10.00","55","110",,"7",,,,,,,,,,,,,,,,,,,,,,,,,,,,,,,,,,,,,"MET10309/19/19 23:51:02 METAR KRDU 200451Z 11006KT 10SM FEW250 15/11 A3029 RMK AO2 SLP254 T01500111 402390122","FM-15","7",,,,,,,,,,,,,,,,,,,,,,,,,,,,"2009-07-08"
"72306013722","2019-09-19T23:59:00","SOD  ","6",,,,,,,,,,,,,,,"51","65","66","30.26","29.78","57","7.0","0","-6.2","0","75","54","060","23","0.00","0","0.0","040","17",,,,,,,,,,,,,,,,,,,,,,,,,,,,,,,,,,,,,,,,,,,,,,,,,,,,,,,,,"SOD73924 HR PRECIPITATION (IN): 0.00 SNOW DEPTH (IN):0     24 HR SNOWFALL (IN):0.0  24 HR MAX TEMP (F): 7524 HR MIN TEMP (F): 54AVERAGE STATION PRESSURE:29.785 MINIMUM SEA LEVEL PRESSURE:30.21 TIME OF OCCURRENCE:0014 PEAK WIND SPEED (MPH): 23 PEAK WIND DIR (DEG): 60 PEAK WIND TIME (LST):      FASTEST 2MIN SPEED (MPH): 17FASTEST 2MIN DIR (DEG): 40 FASTEST 2MIN TIME (LST):     AVERAGE WIND SPEED (MPH): 7.0 24 HR AVG TEMP (F): 65DEPART FROM NORMAL: -6  HEATING DEGREE DAYS:  0 COOLING DEGREE DAYS:  0 LATEST DAY MAX TEMP (0700-1900 LST):75  LATEST NIGHT MIN TEMP(1900-0800 LST):54 HOURLY INCREMENTAL PRECIPITATION VALUES (IN):.00 0.00 0.00 0.00 0.00 0.00 0.00 0.00 0.00 0.00 0.00 0.00 0.00 0.00 0.00 0.00 0.00 0.00 0.00 0.00 0.00 0.00 0.00 0.00","SOD  ","6",,,,,,,,,,,,,,,,,,,,,,,,,"0601","1817",,"2009-07-08"
"72306013722","2019-09-20T00:51:00","FM-15","7",,,,,,,,,,,,,,,,,,,,,,,,,,,,,,,,,,,,,,"30.30","52","57","0.00",,"-0.00","3","83","30.29","CLR:00","29.83","10.00","54","110",,"6",,,,,,,,,,,,,,,,,,,,,,,,,,,,,,,,,,,,,"MET11409/20/19 00:51:02 METAR KRDU 200551Z 11005KT 10SM CLR 14/11 A3030 RMK AO2 SLP257 T01390111 10189 20139 53000 (AWB)","FM-15","7",,,,,,,,,,,,,,,,,,,,,,,,,,,,"2009-07-08"
"72306013722","2019-09-20T01:00:00","FM-12","4",,,,,,,,,,,,,,,,,,,,,,,,,,,,,,,,,,,,,,,"52","57",,,,,"83","30.29",,"29.83","9.94","54","110",,"6",,,,,,,,,,,,,,,,,,,,,,,,,,,,,,,,,,,,,"SYN08072306 32966 01105 10139 20111 30103 40257 53000 90551 333 10189 20122 555 92006=","FM-12","4",,,,,,,,,,,,,,,,,,,,,,,,,,,,"2009-07-08"
"72306013722","2019-09-20T01:51:00","FM-15","7",,,,,,,,,,,,,,,,,,,,,,,,,,,,,,,,,,,,,,"30.29","52","57","0.00",,,,"83","30.28","CLR:00","29.82","10.00","54","090",,"5",,,,,,,,,,,,,,,,,,,,,,,,,,,,,,,,,,,,,"MET09609/20/19 01:51:02 METAR KRDU 200651Z 09004KT 10SM CLR 14/11 A3029 RMK AO2 SLP255 T01390111 (AWB)","FM-15","7",,,,,,,,,,,,,,,,,,,,,,,,,,,,"2009-07-08"
"72306013722","2019-09-20T02:51:00","FM-15","7",,,,,,,,,,,,,,,,,,,,,,,,,,,,,,,,,,,,,,"30.29","52","54","0.00",,,,"93","30.28","CLR:00","29.82","10.00","53","000",,"0",,,,,,,,,,,,,,,,,,,,,,,,,,,,,,,,,,,,,"MET09609/20/19 02:51:02 METAR KRDU 200751Z 00000KT 10SM CLR 12/11 A3029 RMK AO2 SLP254 T01220111 (AWB)","FM-15","7",,,,,,,,,,,,,,,,,,,,,,,,,,,,"2009-07-08"
"72306013722","2019-09-20T03:51:00","FM-15","7",,,,,,,,,,,,,,,,,,,,,,,,,,,,,,,,,,,,,,"30.30","51","53","0.00",,"-0.00","3","93","30.29","CLR:00","29.83","10.00","52","000",,"0",,,,,,,,,,,,,,,,,,,,,,,,,,,,,,,,,,,,,"MET10209/20/19 03:51:02 METAR KRDU 200851Z 00000KT 10SM CLR 12/11 A3030 RMK AO2 SLP257 T01170106 53001 (AWB)","FM-15","7",,,,,,,,,,,,,,,,,,,,,,,,,,,,"2009-07-08"
"72306013722","2019-09-20T04:51:00","FM-15","7",,,,,,,,,,,,,,,,,,,,,,,,,,,,,,,,,,,,,,"30.31","50","51","0.00",,,,"96","30.30","FEW:02 250","29.84","10.00","50","000",,"0",,,,,,,,,,,,,,,,,,,,,,,,,,,,,,,,,,,,,"MET09909/20/19 04:51:02 METAR KRDU 200951Z 00000KT 10SM FEW250 11/10 A3031 RMK AO2 SLP262 T01060100 (AWB)","FM-15","7",,,,,,,,,,,,,,,,,,,,,,,,,,,,"2009-07-08"
"72306013722","2019-09-20T05:51:00","FM-15","7",,,,,,,,,,,,,,,,,,,,,,,,,,,,,,,,,,,,,,"30.32","49","50","0.00",,,,"96","30.32","CLR:00","29.85","10.00","49","000",,"0",,,,,,,,,,,,,,,,,,,,,,,,,,,,,,,,,,,,,"MET09609/20/19 05:51:02 METAR KRDU 201051Z 00000KT 10SM CLR 10/09 A3032 RMK AO2 SLP267 T01000094 (AWB)","FM-15","7",,,,,,,,,,,,,,,,,,,,,,,,,,,,"2009-07-08"
"72306013722","2019-09-20T06:51:00","FM-15","7",,,,,,,,,,,,,,,,,,,,,,,,,,,,,,,,,,,,,,"30.34","52","53","0.00",,"-0.04","1","96","30.33","FEW:02 250","29.87","10.00","52","050",,"3",,,,,,,,,,,,,,,,,,,,,,,,,,,,,,,,,,,,,"MET11609/20/19 06:51:02 METAR KRDU 201151Z 05003KT 10SM FEW250 12/11 A3034 RMK AO2 SLP272 T01170111 10144 20100 51013 (RP)","FM-15","7",,,,,,,,,,,,,,,,,,,,,,,,,,,,"2009-07-08"
"72306013722","2019-09-20T07:00:00","FM-12","4",,,,,,,,,,,,,,,,,,,,,,,,,,,,,,,,,,,,,,,"52","53",,,"-0.04","1","96","30.33",,"29.88","9.94","52","050",,"3",,,,,,,,,,,,,,,,,,,,,,,,,,,,,,,,,,,,,"SYN08072306 32966 20503 10117 20111 30117 40272 51013 91151 333 10239 20100 555 92012=","FM-12","4",,,,,,,,,,,,,,,,,,,,,,,,,,,,"2009-07-08"
"72306013722","2019-09-20T07:51:00","FM-15","7",,,,,,,,,,,,,,,,,,,,,,,,,,,,,,,,,,,,,,"30.35","55","61","0.00",,,,"81","30.34","FEW:02 250","29.88","10.00","58","000",,"0",,,,,,,,,,,,,,,,,,,,,,,,,,,,,,,,,,,,,"MET09809/20/19 07:51:02 METAR KRDU 201251Z 00000KT 10SM FEW250 16/13 A3035 RMK AO2 SLP275 T01610128 (RP)","FM-15","7",,,,,,,,,,,,,,,,,,,,,,,,,,,,"2009-07-08"
"72306013722","2019-09-20T08:51:00","FM-15","7",,,,,,,,,,,,,,,,,,,,,,,,,,,,,,,,,,,,,,"30.35","54","66","0.00",,,,"65","30.34","FEW:02 250","29.88","10.00","59","VRB",,"3",,,,,,,,,,,,,,,,,,,,,,,,,,,,,,,,,,,,,"MET09809/20/19 08:51:02 METAR KRDU 201351Z VRB03KT 10SM FEW250 19/12 A3035 RMK AO2 SLP274 T01890122 (RP)","FM-15","7",,,,,,,,,,,,,,,,,,,,,,,,,,,,"2009-07-08"
"72306013722","2019-09-20T09:51:00","FM-15","7",,,,,,,,,,,,,,,,,,,,,,,,,,,,,,,,,,,,,,"30.34","49","69","0.00",,"-0.01","0","49","30.34","FEW:02 35 FEW:02 250","29.87","10.00","58","080",,"7",,,,,,,,,,,,,,,,,,,,,,,,,,,,,,,,,,,,,"MET11109/20/19 09:51:02 METAR KRDU 201451Z 08006KT 10SM FEW035 FEW250 21/09 A3034 RMK AO2 SLP273 T02060094 50002 (RP)","FM-15","7",,,,,,,,,,,,,,,,,,,,,,,,,,,,"2009-07-08"
"72306013722","2019-09-20T10:51:00","FM-15","7",,,,,,,,,,,,,,,,,,,,,,,,,,,,,,,,,,,,,,"30.33","48","72","0.00",,,,"43","30.33","FEW:02 35 FEW:02 250","29.85","10.00","59","120",,"7",,,,,,,,,,,,,,,,,,,,,,,,,,,,,,,,,,,,,"MET10509/20/19 10:51:02 METAR KRDU 201551Z 12006KT 10SM FEW035 FEW250 22/09 A3033 RMK AO2 SLP270 T02220089 (RP)","FM-15","7",,,,,,,,,,,,,,,,,,,,,,,,,,,,"2009-07-08"
"72306013722","2019-09-20T11:51:00","FM-15","7",,,,,,,,,,,,,,,,,,,,,,,,,,,,,,,,,,,,,,"30.32","50","74","0.00",,,,"43","30.31","FEW:02 45 FEW:02 250","29.85","10.00","60","000",,"0",,,,,,,,,,,,,,,,,,,,,,,,,,,,,,,,,,,,,"MET10509/20/19 11:51:02 METAR KRDU 201651Z 00000KT 10SM FEW045 FEW250 23/10 A3032 RMK AO2 SLP265 T02330100 (RP)","FM-15","7",,,,,,,,,,,,,,,,,,,,,,,,,,,,"2009-07-08"
"72306013722","2019-09-20T12:51:00","FM-15","7",,,,,,,,,,,,,,,,,,,,,,,,,,,,,,,,,,,,,,"30.30","49","75","0.00",,"+0.05","8","40","30.29","FEW:02 250","29.83","10.00","60","VRB",,"7",,,,,,,,,,,,,,,,,,,,,,,,,,,,,,,,,,,,,"MET11609/20/19 12:51:02 METAR KRDU 201751Z VRB06KT 10SM FEW250 24/09 A3030 RMK AO2 SLP257 T02390094 10244 20117 58016 (RP)","FM-15","7",,,,,,,,,,,,,,,,,,,,,,,,,,,,"2009-07-08"
"72306013722","2019-09-20T13:00:00","FM-12","4",,,,,,,,,,,,,,,,,,,,,,,,,,,,,,,,,,,,,,,"49","75",,,"+0.05","8","40","30.29",,"29.83","9.94","60",,,"7",,,,,,,,,,,,,,,,,,,,,,,,,,,,,,,,,,,,,"SYN08072306 32966 2//06 10239 20094 30103 40257 58016 91751 333 10244 20117 555 92018=","FM-12","4",,,,,,,,,,,,,,,,,,,,,,,,,,,,"2009-07-08"
"72306013722","2019-09-20T13:51:00","FM-15","7",,,,,,,,,,,,,,,,,,,,,,,,,,,,,,,,,,,,,,"30.27","49","76","0.00",,,,"39","30.26","FEW:02 250","29.80","10.00","61","080",,"8",,,,,,,,,,,,,,,,,,,,,,,,,,,,,,,,,,,,,"MET09809/20/19 13:51:02 METAR KRDU 201851Z 08007KT 10SM FEW250 24/09 A3027 RMK AO2 SLP248 T02440094 (RP)","FM-15","7",,,,,,,,,,,,,,,,,,,,,,,,,,,,"2009-07-08"
"72306013722","2019-09-20T14:51:00","FM-15","7",,,,,,,,,,,,,,,,,,,,,,,,,,,,,,,,,,,,,,"30.25","49","78","0.00",,,,"36","30.24","FEW:02 250","29.78","10.00","61","000",,"0",,,,,,,,,,,,,,,,,,,,,,,,,,,,,,,,,,,,,"MET09909/20/19 14:51:02 METAR KRDU 201951Z 00000KT 10SM FEW250 26/09 A3025 RMK AO2 SLP242 T02560094 (JBA)","FM-15","7",,,,,,,,,,,,,,,,,,,,,,,,,,,,"2009-07-08"
"72306013722","2019-09-20T15:51:00","FM-15","7",,,,,,,,,,,,,,,,,,,,,,,,,,,,,,,,,,,,,,"30.24","48","77","0.00",,"+0.05","6","36","30.24","FEW:02 250","29.77","10.00","61","VRB",,"3",,,,,,,,,,,,,,,,,,,,,,,,,,,,,,,,,,,,,"MET10509/20/19 15:51:02 METAR KRDU 202051Z VRB03KT 10SM FEW250 25/09 A3024 RMK AO2 SLP239 T02500089 56017 (JBA)","FM-15","7",,,,,,,,,,,,,,,,,,,,,,,,,,,,"2009-07-08"
"72306013722","2019-09-20T16:51:00","FM-15","7",,,,,,,,,,,,,,,,,,,,,,,,,,,,,,,,,,,,,,"30.25","50","77","0.00",,,,"39","30.24","BKN:07 250","29.78","10.00","61","140",,"8",,,,,,,,,,,,,,,,,,,,,,,,,,,,,,,,,,,,,"MET09909/20/19 16:51:02 METAR KRDU 202151Z 14007KT 10SM BKN250 25/10 A3025 RMK AO2 SLP240 T02500100 (JBA)","FM-15","7",,,,,,,,,,,,,,,,,,,,,,,,,,,,"2009-07-08"
"72306013722","2019-09-20T17:51:00","FM-15","7",,,,,,,,,,,,,,,,,,,,,,,,,,,,,,,,,,,,,,"30.25","52","74","0.00",,,,"46","30.24","BKN:07 250","29.78","10.00","61","150",,"7",,,,,,,,,,,,,,,,,,,,,,,,,,,,,,,,,,,,,"MET09909/20/19 17:51:02 METAR KRDU 202251Z 15006KT 10SM BKN250 23/11 A3025 RMK AO2 SLP242 T02330111 (JBA)","FM-15","7",,,,,,,,,,,,,,,,,,,,,,,,,,,,"2009-07-08"
"72306013722","2019-09-20T18:51:00","FM-15","7",,,,,,,,,,,,,,,,,,,,,,,,,,,,,,,,,,,,,,"30.26","54","69","0.00",,"-0.02","3","59","30.26","BKN:07 250","29.79","10.00","60","160",,"6",,,,,,,,,,,,,,,,,,,,,,,,,,,,,,,,,,,,,"MET11709/20/19 18:51:02 METAR KRDU 202351Z 16005KT 10SM BKN250 21/12 A3026 RMK AO2 SLP247 T02060122 10261 20206 53006 (JBA)","FM-15","7",,,,,,,,,,,,,,,,,,,,,,,,,,,,"2009-07-08"
"72306013722","2019-09-20T19:00:00","FM-12","4",,,,,,,,,,,,,,,,,,,,,,,,,,,,,,,,,,,,,,,"54","69",,,"-0.02","3","59","30.26",,"29.80","9.94","60","160",,"6",,,,,,,,,,,,,,,,,,,,,,,,,,,,,,,,,,,,,"SYN08072306 32966 61605 10206 20122 30090 40247 53006 92351 333 10261 20100 555 92100=","FM-12","4",,,,,,,,,,,,,,,,,,,,,,,,,,,,"2009-07-08"
"72306013722","2019-09-20T19:51:00","FM-15","7",,,,,,,,,,,,,,,,,,,,,,,,,,,,,,,,,,,,,,"30.27","53","67","0.00",,,,"61","30.27","BKN:07 250","29.80","10.00","59","160",,"6",,,,,,,,,,,,,,,,,,,,,,,,,,,,,,,,,,,,,"MET09309/20/19 19:51:01 METAR KRDU 210051Z 16005KT 10SM BKN250 19/12 A3027 RMK AO2 SLP249 T01940117","FM-15","7",,,,,,,,,,,,,,,,,,,,,,,,,,,,"2009-07-08"
"72306013722","2019-09-20T20:51:00","FM-15","7",,,,,,,,,,,,,,,,,,,,,,,,,,,,,,,,,,,,,,"30.28","53","65","0.00",,,,"66","30.27","FEW:02 250","29.81","10.00","58","160",,"5",,,,,,,,,,,,,,,,,,,,,,,,,,,,,,,,,,,,,"MET09309/20/19 20:51:01 METAR KRDU 210151Z 16004KT 10SM FEW250 18/12 A3028 RMK AO2 SLP250 T01830117","FM-15","7",,,,,,,,,,,,,,,,,,,,,,,,,,,,"2009-07-08"
"72306013722","2019-09-20T21:51:00","FM-15","7",,,,,,,,,,,,,,,,,,,,,,,,,,,,,,,,,,,,,,"30.28","53","61","0.00",,"-0.01","1","75","30.27","FEW:02 250","29.81","10.00","57","000",,"0",,,,,,,,,,,,,,,,,,,,,,,,,,,,,,,,,,,,,"MET09909/20/19 21:51:01 METAR KRDU 210251Z 00000KT 10SM FEW250 16/12 A3028 RMK AO2 SLP250 T01610117 51005","FM-15","7",,,,,,,,,,,,,,,,,,,,,,,,,,,,"2009-07-08"
"72306013722","2019-09-20T22:51:00","FM-15","7",,,,,,,,,,,,,,,,,,,,,,,,,,,,,,,,,,,,,,"30.28","53","61","0.00",,,,"75","30.27","CLR:00","29.81","10.00","57","000",,"0",,,,,,,,,,,,,,,,,,,,,,,,,,,,,,,,,,,,,"MET09009/20/19 22:51:02 METAR KRDU 210351Z 00000KT 10SM CLR 16/12 A3028 RMK AO2 SLP252 T01610117","FM-15","7",,,,,,,,,,,,,,,,,,,,,,,,,,,,"2009-07-08"
"72306013722","2019-09-20T23:51:00","FM-15","7",,,,,,,,,,,,,,,,,,,,,,,,,,,,,,,,,,,,,,"30.29","53","60","0.00",,,,"78","30.28","CLR:00","29.82","10.00","56","000",,"0",,,,,,,,,,,,,,,,,,,,,,,,,,,,,,,,,,,,,"MET10009/20/19 23:51:02 METAR KRDU 210451Z 00000KT 10SM CLR 16/12 A3029 RMK AO2 SLP253 T01560117 402610100","FM-15","7",,,,,,,,,,,,,,,,,,,,,,,,,,,,"2009-07-08"
"72306013722","2019-09-20T23:59:00","SOD  ","6",,,,,,,,,,,,,,,"51","65","65","30.29","29.82","57","3.4","0","-5.9","0","79","50","160","16","0.00","0","0.0","150","10",,,,,,,,,,,,,,,,,,,,,,,,,,,,,,,,,,,,,,,,,,,,,,,,,,,,,,,,,"SOD73924 HR PRECIPITATION (IN): 0.00 SNOW DEPTH (IN):0     24 HR SNOWFALL (IN):0.0  24 HR MAX TEMP (F): 7924 HR MIN TEMP (F): 50AVERAGE STATION PRESSURE:29.820 MINIMUM SEA LEVEL PRESSURE:30.23 TIME OF OCCURRENCE:1614 PEAK WIND SPEED (MPH): 16 PEAK WIND DIR (DEG):160 PEAK WIND TIME (LST):      FASTEST 2MIN SPEED (MPH): 10FASTEST 2MIN DIR (DEG):150 FASTEST 2MIN TIME (LST):     AVERAGE WIND SPEED (MPH): 3.4 24 HR AVG TEMP (F): 65DEPART FROM NORMAL: -5  HEATING DEGREE DAYS:  0 COOLING DEGREE DAYS:  0 LATEST DAY MAX TEMP (0700-1900 LST):79  LATEST NIGHT MIN TEMP(1900-0800 LST):50 HOURLY INCREMENTAL PRECIPITATION VALUES (IN):.00 0.00 0.00 0.00 0.00 0.00 0.00 0.00 0.00 0.00 0.00 0.00 0.00 0.00 0.00 0.00 0.00 0.00 0.00 0.00 0.00 0.00 0.00 0.00","SOD  ","6",,,,,,,,,,,,,,,,,,,,,,,,,"0601","1815",,"2009-07-08"
"72306013722","2019-09-21T00:51:00","FM-15","7",,,,,,,,,,,,,,,,,,,,,,,,,,,,,,,,,,,,,,"30.29","53","60","0.00",,"-0.01","1","78","30.28","CLR:00","29.82","10.00","56","000",,"0",,,,,,,,,,,,,,,,,,,,,,,,,,,,,,,,,,,,,"MET11409/21/19 00:51:02 METAR KRDU 210551Z 00000KT 10SM CLR 16/12 A3029 RMK AO2 SLP253 T01560117 10206 20150 51003 (SMK)","FM-15","7",,,,,,,,,,,,,,,,,,,,,,,,,,,,"2009-07-08"
"72306013722","2019-09-21T01:00:00","FM-12","4",,,,,,,,,,,,,,,,,,,,,,,,,,,,,,,,,,,,,,,"53","60",,,"-0.01","1","78","30.28",,"29.83","9.94","56","000",,"0",,,,,,,,,,,,,,,,,,,,,,,,,,,,,,,,,,,,,"SYN08072306 32966 00000 10156 20117 30100 40253 51003 90551 333 10206 20100 555 92106=","FM-12","4",,,,,,,,,,,,,,,,,,,,,,,,,,,,"2009-07-08"
"72306013722","2019-09-21T01:51:00","FM-15","6",,,,,,,,,,,,,,,,,,,,,,,,,,,,,,,,,,,,,,"30.28","54","58","0.00",,,,"87","30.27","CLR:00","29.81","10.00","56","000",,"0",,,,,,,,,,,,,,,,,,,,,,,,,,,,,,,,,,,,,"MET09609/21/19 01:51:02 METAR KRDU 210651Z 00000KT 10SM CLR 14/12 A3028 RMK AO2 SLP252 T01440122 (SMK)","FM-15","6",,,,,,,,,,,,,,,,,,,,,,,,,,,,"2009-07-08"
"72306013722","2019-09-21T02:51:00","FM-15","6",,,,,,,,,,,,,,,,,,,,,,,,,,,,,,,,,,,,,,"30.28","53","56","0.00",,,,"90","30.27","CLR:00","29.81","9.00","54","000",,"0",,,,,,,,,,,,,,,,,,,,,,,,,,,,,,,,,,,,,"MET09509/21/19 02:51:02 METAR KRDU 210751Z 00000KT 9SM CLR 13/12 A3028 RMK AO2 SLP249 T01330117 (SMK)","FM-15","6",,,,,,,,,,,,,,,,,,,,,,,,,,,,"2009-07-08"
"72306013722","2019-09-21T03:51:00","FM-15","6",,,,,,,,,,,,,,,,,,,,,,,,,,,,,,,,,,,,,,"30.28","53","57","0.00",,"+0.00","5","87","30.27","CLR:00","29.81","10.00","55","000",,"0",,,,,,,,,,,,,,,,,,,,,,,,,,,,,,,,,,,,,"MET10209/21/19 03:51:02 METAR KRDU 210851Z 00000KT 10SM CLR 14/12 A3028 RMK AO2 SLP252 T01390117 55001 (SMK)","FM-15","6",,,,,,,,,,,,,,,,,,,,,,,,,,,,"2009-07-08"
"72306013722","2019-09-21T04:51:00","FM-15","6",,,,,,,,,,,,,,,,,,,,,,,,,,,,,,,,,,,,,,"30.28","54","57","0.00",,,,"90","30.27","CLR:00","29.81","10.00","55","240",,"3",,,,,,,,,,,,,,,,,,,,,,,,,,,,,,,,,,,,,"MET09609/21/19 04:51:02 METAR KRDU 210951Z 24003KT 10SM CLR 14/12 A3028 RMK AO2 SLP252 T01390122 (SMK)","FM-15","6",,,,,,,,,,,,,,,,,,,,,,,,,,,,"2009-07-08"
"72306013722","2019-09-21T05:51:00","FM-15","6",,,,,,,,,,,,,,,,,,,,,,,,,,,,,,,,,,,,,,"30.30","54","58","0.00",,,,"87","30.29","CLR:00","29.83","10.00","56","250",,"3",,,,,,,,,,,,,,,,,,,,,,,,,,,,,,,,,,,,,"MET09609/21/19 05:51:02 METAR KRDU 211051Z 25003KT 10SM CLR 14/12 A3030 RMK AO2 SLP257 T01440122 (SMK)","FM-15","6",,,,,,,,,,,,,,,,,,,,,,,,,,,,"2009-07-08"
"72306013722","2019-09-21T06:51:00","FM-15","7",,,,,,,,,,,,,,,,,,,,,,,,,,,,,,,,,,,,,,"30.31","56","59","0.00",,"-0.03","3","90","30.30","FEW:02 100","29.84","10.00","57","230",,"5",,,,,,,,,,,,,,,,,,,,,,,,,,,,,,,,,,,,,"MET11609/21/19 06:51:02 METAR KRDU 211151Z 23004KT 10SM FEW100 15/13 A3031 RMK AO2 SLP262 T01500133 10161 20128 53009 (RP)","FM-15","7",,,,,,,,,,,,,,,,,,,,,,,,,,,,"2009-07-08"
"72306013722","2019-09-21T07:00:00","FM-12","4",,,,,,,,,,,,,,,,,,,,,,,,,,,,,,,,,,,,,,,"56","59",,,"-0.03","3","90","30.30",,"29.85","9.94","57","230",,"5",,,,,,,,,,,,,,,,,,,,,,,,,,,,,,,,,,,,,"SYN08072306 32966 22304 10150 20133 30107 40262 53009 91151 333 10261 20128 555 92112=","FM-12","4",,,,,,,,,,,,,,,,,,,,,,,,,,,,"2009-07-08"
"72306013722","2019-09-21T07:51:00","FM-15","7",,,,,,,,,,,,,,,,,,,,,,,,,,,,,,,,,,,,,,"30.32","60","64","0.00",,,,"87","30.31","FEW:02 70 FEW:02 250","29.85","10.00","62","230",,"7",,,,,,,,,,,,,,,,,,,,,,,,,,,,,,,,,,,,,"MET10509/21/19 07:51:02 METAR KRDU 211251Z 23006KT 10SM FEW070 FEW250 18/16 A3032 RMK AO2 SLP263 T01780156 (RP)","FM-15","7",,,,,,,,,,,,,,,,,,,,,,,,,,,,"2009-07-08"
"72306013722","2019-09-21T08:51:00","FM-15","7",,,,,,,,,,,,,,,,,,,,,,,,,,,,,,,,,,,,,,"30.31","60","72","0.00",,,,"66","30.30","CLR:00","29.84","10.00","65","230",,"7",,,,,,,,,,,,,,,,,,,,,,,,,,,,,,,,,,,,,"MET09509/21/19 08:51:02 METAR KRDU 211351Z 23006KT 10SM CLR 22/16 A3031 RMK AO2 SLP260 T02220156 (RP)","FM-15","7",,,,,,,,,,,,,,,,,,,,,,,,,,,,"2009-07-08"
"72306013722","2019-09-21T09:51:00","FM-15","7",,,,,,,,,,,,,,,,,,,,,,,,,,,,,,,,,,,,,,"30.31","59","77","0.00",,"+0.01","8","54","30.29","CLR:00","29.84","10.00","66","210",,"6",,,,,,,,,,,,,,,,,,,,,,,,,,,,,,,,,,,,,"MET10109/21/19 09:51:02 METAR KRDU 211451Z 21005KT 10SM CLR 25/15 A3031 RMK AO2 SLP259 T02500150 58002 (RP)","FM-15","7",,,,,,,,,,,,,,,,,,,,,,,,,,,,"2009-07-08"
"72306013722","2019-09-21T10:51:00","FM-15","7",,,,,,,,,,,,,,,,,,,,,,,,,,,,,,,,,,,,,,"30.29","60","81","0.00",,,,"49","30.28","CLR:00","29.82","10.00","68","200",,"7",,,,,,,,,,,,,,,,,,,,,,,,,,,,,,,,,,,,,"MET09509/21/19 10:51:02 METAR KRDU 211551Z 20006KT 10SM CLR 27/16 A3029 RMK AO2 SLP254 T02720156 (RP)","FM-15","7",,,,,,,,,,,,,,,,,,,,,,,,,,,,"2009-07-08"
"72306013722","2019-09-21T11:51:00","FM-15","7",,,,,,,,,,,,,,,,,,,,,,,,,,,,,,,,,,,,,,"30.28","59","84","0.00",,,,"43","30.27","CLR:00","29.81","10.00","68","VRB",,"6",,,,,,,,,,,,,,,,,,,,,,,,,,,,,,,,,,,,,"MET09509/21/19 11:51:02 METAR KRDU 211651Z VRB05KT 10SM CLR 29/15 A3028 RMK AO2 SLP249 T02890150 (RP)","FM-15","7",,,,,,,,,,,,,,,,,,,,,,,,,,,,"2009-07-08"
"72306013722","2019-09-21T12:51:00","FM-15","7",,,,,,,,,,,,,,,,,,,,,,,,,,,,,,,,,,,,,,"30.26","56","86","0.00",,"+0.05","8","36","30.24","FEW:02 60 FEW:02 250","29.79","10.00","67","VRB",,"8",,,,,,,,,,,,,,,,,,,,,,,,,,,,,,,,,,,,,"MET12309/21/19 12:51:02 METAR KRDU 211751Z 23007KT 10SM FEW060 FEW250 30/13 A3026 RMK AO2 SLP241 T03000133 10300 20150 58017 (RP)","FM-15","7",,,,,,,,,,,,,,,,,,,,,,,,,,,,"2009-07-08"
"72306013722","2019-09-21T13:00:00","FM-12","4",,,,,,,,,,,,,,,,,,,,,,,,,,,,,,,,,,,,,,,"56","86",,,"+0.05","8","36","30.24","57","29.80","9.94","67","230",,"8",,,,,,,,,,,,,,,,,,,,,,,,,,,,,,,,,,,,,"SYN08072306 32766 22307 10300 20133 30090 40241 58017 91751 333 10300 20150 555 92118=","FM-12","4",,,,,,,,,,,,,,,,,,,,,,,,,,,,"2009-07-08"
"72306013722","2019-09-21T13:51:00","FM-15","7",,,,,,,,,,,,,,,,,,,,,,,,,,,,,,,,,,,,,,"30.23","58","88","0.00",,,,"36","30.22","FEW:02 60 FEW:02 250","29.76","10.00","69","VRB",,"6",,,,,,,,,,,,,,,,,,,,,,,,,,,,,,,,,,,,,"MET10509/21/19 13:51:02 METAR KRDU 211851Z VRB05KT 10SM FEW060 FEW250 31/14 A3023 RMK AO2 SLP234 T03110144 (RP)","FM-15","7",,,,,,,,,,,,,,,,,,,,,,,,,,,,"2009-07-08"
"72306013722","2019-09-21T14:51:00","FM-15","7",,,,,,,,,,,,,,,,,,,,,,,,,,,,,,,,,,,,,,"30.21","59","87","0.00",,,,"39","30.20","FEW:02 60","29.74","10.00","69","220",,"9",,,,,,,,,,,,,,,,,,,,,,,,,,,,,,,,,,,,,"MET09809/21/19 14:51:02 METAR KRDU 211951Z 22008KT 10SM FEW060 31/15 A3021 RMK AO2 SLP227 T03060150 (HA)","FM-15","7",,,,,,,,,,,,,,,,,,,,,,,,,,,,"2009-07-08"
"72306013722","2019-09-21T15:51:00","FM-15","7",,,,,,,,,,,,,,,,,,,,,,,,,,,,,,,,,,,,,,"30.20","58","87","0.00",,"+0.06","6","37","30.18","FEW:02 60 SCT:04 250","29.73","10.00","69","230",,"7",,,,,,,,,,,,,,,,,,,,,,,,,,,,,,,,,,,,,"MET11109/21/19 15:51:02 METAR KRDU 212051Z 23006KT 10SM FEW060 SCT250 31/14 A3020 RMK AO2 SLP221 T03060144 56020 (HA)","FM-15","7",,,,,,,,,,,,,,,,,,,,,,,,,,,,"2009-07-08"
"72306013722","2019-09-21T16:51:00","FM-15","7",,,,,,,,,,,,,,,,,,,,,,,,,,,,,,,,,,,,,,"30.19","61","85","0.00",,,,"45","30.18","FEW:02 60 BKN:07 250","29.72","10.00","70","160",,"9",,,,,,,,,,,,,,,,,,,,,,,,,,,,,,,,,,,,,"MET10509/21/19 16:51:02 METAR KRDU 212151Z 16008KT 10SM FEW060 BKN250 29/16 A3019 RMK AO2 SLP219 T02940161 (HA)","FM-15","7",,,,,,,,,,,,,,,,,,,,,,,,,,,,"2009-07-08"
"72306013722","2019-09-21T17:51:00","FM-15","7",,,,,,,,,,,,,,,,,,,,,,,,,,,,,,,,,,,,,,"30.19","61","81","0.00",,,,"51","30.17","FEW:02 60 BKN:07 250","29.72","10.00","68","160",,"7",,,,,,,,,,,,,,,,,,,,,,,,,,,,,,,,,,,,,"MET10509/21/19 17:51:02 METAR KRDU 212251Z 16006KT 10SM FEW060 BKN250 27/16 A3019 RMK AO2 SLP218 T02720161 (HA)","FM-15","7",,,,,,,,,,,,,,,,,,,,,,,,,,,,"2009-07-08"
"72306013722","2019-09-21T18:51:00","FM-15","7",,,,,,,,,,,,,,,,,,,,,,,,,,,,,,,,,,,,,,"30.19","62","77","0.00",,"+0.00","5","60","30.18","FEW:02 60 BKN:07 250","29.72","10.00","68","160",,"7",,,,,,,,,,,,,,,,,,,,,,,,,,,,,,,,,,,,,"MET12309/21/19 18:51:02 METAR KRDU 212351Z 16006KT 10SM FEW060 BKN250 25/17 A3019 RMK AO2 SLP221 T02500167 10311 20250 55001 (HA)","FM-15","7",,,,,,,,,,,,,,,,,,,,,,,,,,,,"2009-07-08"
"72306013722","2019-09-21T19:00:00","FM-12","4",,,,,,,,,,,,,,,,,,,,,,,,,,,,,,,,,,,,,,,"62","77",,,"+0.00","5","60","30.18","57","29.73","9.94","68","160",,"7",,,,,,,,,,,,,,,,,,,,,,,,,,,,,,,,,,,,,"SYN08072306 32766 61606 10250 20167 30067 40221 55001 92351 333 10311 20128 555 92200=","FM-12","4",,,,,,,,,,,,,,,,,,,,,,,,,,,,"2009-07-08"
"72306013722","2019-09-21T19:51:00","FM-15","7",,,,,,,,,,,,,,,,,,,,,,,,,,,,,,,,,,,,,,"30.21","62","75","0.00",,,,"64","30.20","SCT:04 250","29.74","10.00","67","170",,"5",,,,,,,,,,,,,,,,,,,,,,,,,,,,,,,,,,,,,"MET09309/21/19 19:51:01 METAR KRDU 220051Z 17004KT 10SM SCT250 24/17 A3021 RMK AO2 SLP226 T02390167","FM-15","7",,,,,,,,,,,,,,,,,,,,,,,,,,,,"2009-07-08"
"72306013722","2019-09-21T20:51:00","FM-15","7",,,,,,,,,,,,,,,,,,,,,,,,,,,,,,,,,,,,,,"30.22","62","74","0.00",,,,"67","30.21","SCT:04 250","29.75","10.00","67","180",,"5",,,,,,,,,,,,,,,,,,,,,,,,,,,,,,,,,,,,,"MET09309/21/19 20:51:01 METAR KRDU 220151Z 18004KT 10SM SCT250 23/17 A3022 RMK AO2 SLP229 T02330167","FM-15","7",,,,,,,,,,,,,,,,,,,,,,,,,,,,"2009-07-08"
"72306013722","2019-09-21T21:51:00","FM-15","7",,,,,,,,,,,,,,,,,,,,,,,,,,,,,,,,,,,,,,"30.23","62","73","0.00",,"-0.04","1","69","30.22","CLR:00","29.76","10.00","66","170",,"5",,,,,,,,,,,,,,,,,,,,,,,,,,,,,,,,,,,,,"MET09609/21/19 21:51:01 METAR KRDU 220251Z 17004KT 10SM CLR 23/17 A3023 RMK AO2 SLP233 T02280167 51013","FM-15","7",,,,,,,,,,,,,,,,,,,,,,,,,,,,"2009-07-08"
"72306013722","2019-09-21T22:51:00","FM-15","7",,,,,,,,,,,,,,,,,,,,,,,,,,,,,,,,,,,,,,"30.24","62","72","0.00",,,,"71","30.23","CLR:00","29.77","10.00","66","170",,"6",,,,,,,,,,,,,,,,,,,,,,,,,,,,,,,,,,,,,"MET09009/21/19 22:51:02 METAR KRDU 220351Z 17005KT 10SM CLR 22/17 A3024 RMK AO2 SLP236 T02220167","FM-15","7",,,,,,,,,,,,,,,,,,,,,,,,,,,,"2009-07-08"
"72306013722","2019-09-21T23:51:00","FM-15","7",,,,,,,,,,,,,,,,,,,,,,,,,,,,,,,,,,,,,,"30.24","61","72","0.00",,,,"68","30.22","CLR:00","29.77","10.00","65","210",,"6",,,,,,,,,,,,,,,,,,,,,,,,,,,,,,,,,,,,,"MET10009/21/19 23:51:02 METAR KRDU 220451Z 21005KT 10SM CLR 22/16 A3024 RMK AO2 SLP234 T02220161 403110128","FM-15","7",,,,,,,,,,,,,,,,,,,,,,,,,,,,"2009-07-08"
"72306013722","2019-09-21T23:59:00","SOD  ","6",,,,,,,,,,,,,,,"58","72","64","30.24","29.78","64","5.1","7","1.5","0","88","55","220","15","0.00","0","0.0","170","12",,,,,,,,,,,,,,,,,,,,,,,,,,,,,,,,,,,,,,,,,,,,,,,,,,,,,,,,,"SOD73924 HR PRECIPITATION (IN): 0.00 SNOW DEPTH (IN):0     24 HR SNOWFALL (IN):0.0  24 HR MAX TEMP (F): 8824 HR MIN TEMP (F): 55AVERAGE STATION PRESSURE:29.785 MINIMUM SEA LEVEL PRESSURE:30.17 TIME OF OCCURRENCE:1753 PEAK WIND SPEED (MPH): 15 PEAK WIND DIR (DEG):220 PEAK WIND TIME (LST):      FASTEST 2MIN SPEED (MPH): 12FASTEST 2MIN DIR (DEG):170 FASTEST 2MIN TIME (LST):     AVERAGE WIND SPEED (MPH): 5.1 24 HR AVG TEMP (F): 72DEPART FROM NORMAL:  2  HEATING DEGREE DAYS:  0 COOLING DEGREE DAYS:  7 LATEST DAY MAX TEMP (0700-1900 LST):88  LATEST NIGHT MIN TEMP(1900-0800 LST):55 HOURLY INCREMENTAL PRECIPITATION VALUES (IN):.00 0.00 0.00 0.00 0.00 0.00 0.00 0.00 0.00 0.00 0.00 0.00 0.00 0.00 0.00 0.00 0.00 0.00 0.00 0.00 0.00 0.00 0.00 0.00","SOD  ","6",,,,,,,,,,,,,,,,,,,,,,,,,"0602","1814",,"2009-07-08"
"72306013722","2019-09-22T00:51:00","FM-15","7",,,,,,,,,,,,,,,,,,,,,,,,,,,,,,,,,,,,,,"30.23","61","69","0.00",,"-0.00","0","76","30.22","SCT:04 65","29.76","10.00","64","230",,"5",,,,,,,,,,,,,,,,,,,,,,,,,,,,,,,,,,,,,"MET11709/22/19 00:51:02 METAR KRDU 220551Z 23004KT 10SM SCT065 21/16 A3023 RMK AO2 SLP234 T02060161 10250 20200 50001 (SMK)","FM-15","7",,,,,,,,,,,,,,,,,,,,,,,,,,,,"2009-07-08"
"72306013722","2019-09-22T01:00:00","FM-12","4",,,,,,,,,,,,,,,,,,,,,,,,,,,,,,,,,,,,,,,"61","69",,,"0.00","9","76","30.22","57","29.77","9.94","64","230",,"5",,,,,,,,,,,,,,,,,,,,,,,,,,,,,,,,,,,,,"SYN08072306 32766 42304 10206 20161 30080 40234 50001 90551 333 10250 20128 555 92206=","FM-12","4",,,,,,,,,,,,,,,,,,,,,,,,,,,,"2009-07-08"
"72306013722","2019-09-22T01:51:00","FM-15","7",,,,,,,,,,,,,,,,,,,,,,,,,,,,,,,,,,,,,,"30.22","60","69","0.00",,,,"73","30.20","FEW:02 65","29.75","10.00","64","210",,"7",,,,,,,,,,,,,,,,,,,,,,,,,,,,,,,,,,,,,"MET09909/22/19 01:51:02 METAR KRDU 220651Z 21006KT 10SM FEW065 21/16 A3022 RMK AO2 SLP228 T02060156 (SMK)","FM-15","7",,,,,,,,,,,,,,,,,,,,,,,,,,,,"2009-07-08"
"72306013722","2019-09-22T02:51:00","FM-15","7",,,,,,,,,,,,,,,,,,,,,,,,,,,,,,,,,,,,,,"30.21","60","67","0.00",,,,"79","30.20","FEW:02 65","29.74","10.00","63","190",,"3",,,,,,,,,,,,,,,,,,,,,,,,,,,,,,,,,,,,,"MET09909/22/19 02:51:02 METAR KRDU 220751Z 19003KT 10SM FEW065 19/16 A3021 RMK AO2 SLP226 T01940156 (SMK)","FM-15","7",,,,,,,,,,,,,,,,,,,,,,,,,,,,"2009-07-08"
"72306013722","2019-09-22T03:51:00","FM-15","7",,,,,,,,,,,,,,,,,,,,,,,,,,,,,,,,,,,,,,"30.21","59","65","0.00",,"+0.02","5","81","30.20","FEW:02 65","29.74","10.00","61","220",,"6",,,,,,,,,,,,,,,,,,,,,,,,,,,,,,,,,,,,,"MET10509/22/19 03:51:02 METAR KRDU 220851Z 22005KT 10SM FEW065 18/15 A3021 RMK AO2 SLP227 T01830150 55007 (SMK)","FM-15","7",,,,,,,,,,,,,,,,,,,,,,,,,,,,"2009-07-08"
"72306013722","2019-09-22T04:51:00","FM-15","7",,,,,,,,,,,,,,,,,,,,,,,,,,,,,,,,,,,,,,"30.21","59","64","0.00",,,,"84","30.19","FEW:02 65","29.74","10.00","61","220",,"7",,,,,,,,,,,,,,,,,,,,,,,,,,,,,,,,,,,,,"MET09909/22/19 04:51:02 METAR KRDU 220951Z 22006KT 10SM FEW065 18/15 A3021 RMK AO2 SLP225 T01780150 (SMK)","FM-15","7",,,,,,,,,,,,,,,,,,,,,,,,,,,,"2009-07-08"
"72306013722","2019-09-22T05:51:00","FM-15","7",,,,,,,,,,,,,,,,,,,,,,,,,,,,,,,,,,,,,,"30.21","59","63","0.00",,,,"87","30.20","FEW:02 60","29.74","10.00","61","240",,"6",,,,,,,,,,,,,,,,,,,,,,,,,,,,,,,,,,,,,"MET09909/22/19 05:51:02 METAR KRDU 221051Z 24005KT 10SM FEW060 17/15 A3021 RMK AO2 SLP226 T01720150 (SMK)","FM-15","7",,,,,,,,,,,,,,,,,,,,,,,,,,,,"2009-07-08"
"72306013722","2019-09-22T06:51:00","FM-15","7",,,,,,,,,,,,,,,,,,,,,,,,,,,,,,,,,,,,,,"30.21","60","65","0.00",,"-0.00","3","84","30.20","CLR:00","29.74","10.00","62","240",,"5",,,,,,,,,,,,,,,,,,,,,,,,,,,,,,,,,,,,,"MET11309/22/19 06:51:02 METAR KRDU 221151Z 24004KT 10SM CLR 18/16 A3021 RMK AO2 SLP228 T01830156 10211 20172 53000 (RP)","FM-15","7",,,,,,,,,,,,,,,,,,,,,,,,,,,,"2009-07-08"
"72306013722","2019-09-22T07:00:00","FM-12","4",,,,,,,,,,,,,,,,,,,,,,,,,,,,,,,,,,,,,,,"60","65",,,,,"84","30.20",,"29.75","9.94","62","240",,"5",,,,,,,,,,,,,,,,,,,,,,,,,,,,,,,,,,,,,"SYN08072306 32966 02404 10183 20156 30073 40228 53000 91151 333 10311 20172 555 92212=","FM-12","4",,,,,,,,,,,,,,,,,,,,,,,,,,,,"2009-07-08"
"72306013722","2019-09-22T07:51:00","FM-15","7",,,,,,,,,,,,,,,,,,,,,,,,,,,,,,,,,,,,,,"30.22","60","70","0.00",,,,"71","30.21","CLR:00","29.75","10.00","64","230",,"8",,,,,,,,,,,,,,,,,,,,,,,,,,,,,,,,,,,,,"MET09509/22/19 07:51:02 METAR KRDU 221251Z 23007KT 10SM CLR 21/16 A3022 RMK AO2 SLP230 T02110156 (RP)","FM-15","7",,,,,,,,,,,,,,,,,,,,,,,,,,,,"2009-07-08"
"72306013722","2019-09-22T08:51:00","FM-15","7",,,,,,,,,,,,,,,,,,,,,,,,,,,,,,,,,,,,,,"30.23","60","75","0.00",,,,"60","30.22","CLR:00","29.76","10.00","66","210",,"6",,,,,,,,,,,,,,,,,,,,,,,,,,,,,,,,,,,,,"MET09509/22/19 08:51:02 METAR KRDU 221351Z 21005KT 10SM CLR 24/16 A3023 RMK AO2 SLP232 T02390156 (RP)","FM-15","7",,,,,,,,,,,,,,,,,,,,,,,,,,,,"2009-07-08"
"72306013722","2019-09-22T09:51:00","FM-15","7",,,,,,,,,,,,,,,,,,,,,,,,,,,,,,,,,,,,,,"30.23","60","81","0.00",,"-0.01","0","49","30.21","FEW:02 250","29.76","10.00","68","210",,"7",,,,,,,,,,,,,,,,,,,,,,,,,,,,,,,,,,,,,"MET10409/22/19 09:51:02 METAR KRDU 221451Z 21006KT 10SM FEW250 27/16 A3023 RMK AO2 SLP231 T02720156 50004 (RP)","FM-15","7",,,,,,,,,,,,,,,,,,,,,,,,,,,,"2009-07-08"
"72306013722","2019-09-22T10:51:00","FM-15","7",,,,,,,,,,,,,,,,,,,,,,,,,,,,,,,,,,,,,,"30.21","60","84","0.00",,,,"44","30.19","FEW:02 250","29.74","10.00","69","220",,"6",,,,,,,,,,,,,,,,,,,,,,,,,,,,,,,,,,,,,"MET09809/22/19 10:51:02 METAR KRDU 221551Z 22005KT 10SM FEW250 29/16 A3021 RMK AO2 SLP225 T02890156 (RP)","FM-15","7",,,,,,,,,,,,,,,,,,,,,,,,,,,,"2009-07-08"
"72306013722","2019-09-22T11:51:00","FM-15","7",,,,,,,,,,,,,,,,,,,,,,,,,,,,,,,,,,,,,,"30.19","60","87","0.00",,,,"40","30.17","FEW:02 40 FEW:02 250","29.72","10.00","70","210",,"9",,,,,,,,,,,,,,,,,,,,,,,,,,,,,,,,,,,,,"MET10509/22/19 11:51:02 METAR KRDU 221651Z 21008KT 10SM FEW040 FEW250 31/16 A3019 RMK AO2 SLP218 T03060156 (RP)","FM-15","7",,,,,,,,,,,,,,,,,,,,,,,,,,,,"2009-07-08"
"72306013722","2019-09-22T12:51:00","FM-15","7",,,,,,,,,,,,,,,,,,,,,,,,,,,,,,,,,,,,,,"30.16","59","88","0.00",,"+0.06","8","38","30.14","FEW:02 60","29.69","10.00","69","220",,"7",,,,,,,,,,,,,,,,,,,,,,,,,,,,,,,,,,,,,"MET11609/22/19 12:51:02 METAR KRDU 221751Z 22006KT 10SM FEW060 31/15 A3016 RMK AO2 SLP207 T03110150 10317 20183 58022 (RP)","FM-15","7",,,,,,,,,,,,,,,,,,,,,,,,,,,,"2009-07-08"
"72306013722","2019-09-22T13:00:00","FM-12","4",,,,,,,,,,,,,,,,,,,,,,,,,,,,,,,,,,,,,,,"59","88",,,"+0.06","8","38","30.14","57","29.70","9.94","69","220",,"7",,,,,,,,,,,,,,,,,,,,,,,,,,,,,,,,,,,,,"SYN08072306 32766 22206 10311 20150 30057 40207 58022 91751 333 10317 20183 555 92218=","FM-12","4",,,,,,,,,,,,,,,,,,,,,,,,,,,,"2009-07-08"
"72306013722","2019-09-22T13:51:00","FM-15","7",,,,,,,,,,,,,,,,,,,,,,,,,,,,,,,,,,,,,,"30.13","60","90","0.00",,,,"37","30.12","FEW:02 60 FEW:02 250","29.66","10.00","71","VRB",,"9",,,,,,,,,,,,,,,,,,,,,,,,,,,,,,,,,,,,,"MET10509/22/19 13:51:02 METAR KRDU 221851Z 21008KT 10SM FEW060 FEW250 32/16 A3013 RMK AO2 SLP199 T03220156 (RP)","FM-15","7",,,,,,,,,,,,,,,,,,,,,,,,,,,,"2009-07-08"
"72306013722","2019-09-22T14:51:00","FM-15","7",,,,,,,,,,,,,,,,,,,,,,,,,,,,,,,,,,,,,,"30.12","60","89","0.00",,,,"38","30.10","FEW:02 60 FEW:02 250","29.65","10.00","70","190",,"14",,,,,,,,,,,,,,,,,,,,,,,,,,,,,,,,,,,,,"MET10509/22/19 14:51:02 METAR KRDU 221951Z 19012KT 10SM FEW060 FEW250 32/16 A3012 RMK AO2 SLP193 T03170156 (HA)","FM-15","7",,,,,,,,,,,,,,,,,,,,,,,,,,,,"2009-07-08"
"72306013722","2019-09-22T15:51:00","FM-15","7",,,,,,,,,,,,,,,,,,,,,,,,,,,,,,,,,,,,,,"30.11","60","89","0.00",,"+0.05","6","38","30.10","FEW:02 60 FEW:02 250","29.64","10.00","70","170",,"10",,,,,,,,,,,,,,,,,,,,,,,,,,,,,,,,,,,,,"MET11109/22/19 15:51:02 METAR KRDU 222051Z 17009KT 10SM FEW060 FEW250 32/16 A3011 RMK AO2 SLP192 T03170156 56016 (HA)","FM-15","7",,,,,,,,,,,,,,,,,,,,,,,,,,,,"2009-07-08"
"72306013722","2019-09-22T16:51:00","FM-15","7",,,,,,,,,,,,,,,,,,,,,,,,,,,,,,,,,,,,,,"30.11","60","86","0.00",,,,"42","30.09","FEW:02 60","29.64","10.00","69","180",,"9",,,,,,,,,,,,,,,,,,,,,,,,,,,,,,,,,,,,,"MET09809/22/19 16:51:02 METAR KRDU 222151Z 18008KT 10SM FEW060 30/16 A3011 RMK AO2 SLP191 T03000156 (HA)","FM-15","7",,,,,,,,,,,,,,,,,,,,,,,,,,,,"2009-07-08"
"72306013722","2019-09-22T17:51:00","FM-15","7",,,,,,,,,,,,,,,,,,,,,,,,,,,,,,,,,,,,,,"30.11","62","82","0.00",,,,"51","30.09","FEW:02 250","29.64","10.00","69","160",,"8",,,,,,,,,,,,,,,,,,,,,,,,,,,,,,,,,,,,,"MET09809/22/19 17:51:02 METAR KRDU 222251Z 16007KT 10SM FEW250 28/17 A3011 RMK AO2 SLP190 T02780167 (HA)","FM-15","7",,,,,,,,,,,,,,,,,,,,,,,,,,,,"2009-07-08"
"72306013722","2019-09-22T18:51:00","FM-15","7",,,,,,,,,,,,,,,,,,,,,,,,,,,,,,,,,,,,,,"30.12","63","78","0.00",,"-0.00","3","60","30.10","SCT:04 250","29.65","10.00","68","160",,"7",,,,,,,,,,,,,,,,,,,,,,,,,,,,,,,,,,,,,"MET11609/22/19 18:51:02 METAR KRDU 222351Z 16006KT 10SM SCT250 26/17 A3012 RMK AO2 SLP194 T02560172 10322 20256 53001 (HA)","FM-15","7",,,,,,,,,,,,,,,,,,,,,,,,,,,,"2009-07-08"
"72306013722","2019-09-22T19:00:00","FM-12","4",,,,,,,,,,,,,,,,,,,,,,,,,,,,,,,,,,,,,,,"63","78",,,"-0.00","3","60","30.10",,"29.66","9.94","68","160",,"7",,,,,,,,,,,,,,,,,,,,,,,,,,,,,,,,,,,,,"SYN08072306 32966 41606 10256 20172 30043 40194 53001 92351 333 10322 20172 555 92300=","FM-12","4",,,,,,,,,,,,,,,,,,,,,,,,,,,,"2009-07-08"
"72306013722","2019-09-22T19:51:00","FM-15","7",,,,,,,,,,,,,,,,,,,,,,,,,,,,,,,,,,,,,,"30.13","63","77","0.00",,,,"62","30.11","SCT:04 250","29.66","10.00","68","170",,"7",,,,,,,,,,,,,,,,,,,,,,,,,,,,,,,,,,,,,"MET09309/22/19 19:51:01 METAR KRDU 230051Z 17006KT 10SM SCT250 25/17 A3013 RMK AO2 SLP196 T02500172","FM-15","7",,,,,,,,,,,,,,,,,,,,,,,,,,,,"2009-07-08"
"72306013722","2019-09-22T20:51:00","FM-15","7",,,,,,,,,,,,,,,,,,,,,,,,,,,,,,,,,,,,,,"30.13","63","76","0.00",,,,"64","30.12","FEW:02 250","29.66","10.00","68","190",,"9",,,,,,,,,,,,,,,,,,,,,,,,,,,,,,,,,,,,,"MET09309/22/19 20:51:01 METAR KRDU 230151Z 19008KT 10SM FEW250 24/17 A3013 RMK AO2 SLP199 T02440172","FM-15","7",,,,,,,,,,,,,,,,,,,,,,,,,,,,"2009-07-08"
"72306013722","2019-09-22T21:51:00","FM-15","7",,,,,,,,,,,,,,,,,,,,,,,,,,,,,,,,,,,,,,"30.13","63","74","0.00",,"-0.01","0","69","30.12","FEW:02 250","29.66","10.00","67","190",,"9",,,,,,,,,,,,,,,,,,,,,,,,,,,,,,,,,,,,,"MET09909/22/19 21:51:01 METAR KRDU 230251Z 19008KT 10SM FEW250 23/17 A3013 RMK AO2 SLP199 T02330172 50005","FM-15","7",,,,,,,,,,,,,,,,,,,,,,,,,,,,"2009-07-08"
"72306013722","2019-09-22T22:51:00","FM-15","7",,,,,,,,,,,,,,,,,,,,,,,,,,,,,,,,,,,,,,"30.13","63","73","0.00",,,,"71","30.11","FEW:02 250","29.66","10.00","67","200",,"7",,,,,,,,,,,,,,,,,,,,,,,,,,,,,,,,,,,,,"MET09309/22/19 22:51:01 METAR KRDU 230351Z 20006KT 10SM FEW250 23/17 A3013 RMK AO2 SLP196 T02280172","FM-15","7",,,,,,,,,,,,,,,,,,,,,,,,,,,,"2009-07-08"
"72306013722","2019-09-22T23:51:00","FM-15","7",,,,,,,,,,,,,,,,,,,,,,,,,,,,,,,,,,,,,,"30.12","62","71","0.00",,,,"73","30.10","FEW:02 250","29.65","10.00","65","220",,"14",,,,,,,,,,,,,,,,,,,,,,,,,,,,,,,,,,,,,"MET10309/22/19 23:51:01 METAR KRDU 230451Z 22012KT 10SM FEW250 22/17 A3012 RMK AO2 SLP193 T02170167 403220172","FM-15","7",,,,,,,,,,,,,,,,,,,,,,,,,,,,"2009-07-08"
"72306013722","2019-09-22T23:59:00","SOD  ","6",,,,,,,,,,,,,,,"61","77","61","30.15","29.70","66","7.7","12","6.9","0","90","63","160","18","0.00","0","0.0","190","14",,,,,,,,,,,,,,,,,,,,,,,,,,,,,,,,,,,,,,,,,,,,,,,,,,,,,,,,,"SOD74324 HR PRECIPITATION (IN): 0.00 SNOW DEPTH (IN):0     24 HR SNOWFALL (IN):0.0  24 HR MAX TEMP (F): 9024 HR MIN TEMP (F): 63AVERAGE STATION PRESSURE(D):29.698 MINIMUM SEA LEVEL PRESSURE:30.09 TIME OF OCCURRENCE:1809 PEAK WIND SPEED (MPH): 18 PEAK WIND DIR (DEG):160 PEAK WIND TIME (LST):      FASTEST 2MIN SPEED (MPH): 14FASTEST 2MIN DIR (DEG):190 FASTEST 2MIN TIME (LST):     AVERAGE WIND SPEED (MPH): 7.7 24 HR AVG TEMP (F): 77DEPART FROM NORMAL:  7  HEATING DEGREE DAYS:  0 COOLING DEGREE DAYS: 12 LATEST DAY MAX TEMP (0700-1900 LST): 90 LATEST NIGHT MIN TEMP(1900-0800 LST):63 HOURLY INCREMENTAL PRECIPITATION VALUES (IN):0.00 0.00 0.00 0.00 0.00 0.00 0.00 0.00 0.00 0.00 0.00 0.00 0.00 0.00 0.00 0.00 0.00 0.00 0.00 0.00 0.00 0.00 0.00 0.00","SOD  ","6",,,,,,,,,,,,,,,,,,,,,,,,,"0603","1812",,"2009-07-08"
"72306013722","2019-09-23T00:51:00","FM-15","7",,,,,,,,,,,,,,,,,,,,,,,,,,,,,,,,,,,,,,"30.11","61","69","0.00",,"+0.02","7","76","30.09","FEW:02 250","29.64","10.00","64","230",,"8",,,,,,,,,,,,,,,,,,,,,,,,,,,,,,,,,,,,,"MET11609/23/19 00:51:02 METAR KRDU 230551Z 23007KT 10SM FEW250 21/16 A3011 RMK AO2 SLP191 T02060161 10256 20206 57006 (VD)","FM-15","7",,,,,,,,,,,,,,,,,,,,,,,,,,,,"2009-07-08"
"72306013722","2019-09-23T01:00:00","FM-12","4",,,,,,,,,,,,,,,,,,,,,,,,,,,,,,,,,,,,,,,"61","69",,,"+0.02","7","76","30.09",,"29.65","9.94","64","230",,"8",,,,,,,,,,,,,,,,,,,,,,,,,,,,,,,,,,,,,"SYN08072306 32966 22307 10206 20161 30040 40191 57006 90551 333 10256 20172 555 92306=","FM-12","4",,,,,,,,,,,,,,,,,,,,,,,,,,,,"2009-07-08"
"72306013722","2019-09-23T01:51:00","FM-15","7",,,,,,,,,,,,,,,,,,,,,,,,,,,,,,,,,,,,,,"30.10","60","67","0.00",,,,"79","30.09","CLR:00","29.63","10.00","63","240",,"6",,,,,,,,,,,,,,,,,,,,,,,,,,,,,,,,,,,,,"MET09509/23/19 01:51:02 METAR KRDU 230651Z 24005KT 10SM CLR 19/16 A3010 RMK AO2 SLP188 T01940156 (VD)","FM-15","7",,,,,,,,,,,,,,,,,,,,,,,,,,,,"2009-07-08"
"72306013722","2019-09-23T02:51:00","FM-15","7",,,,,,,,,,,,,,,,,,,,,,,,,,,,,,,,,,,,,,"30.09","60","65","0.00",,,,"84","30.08","CLR:00","29.62","10.00","62","230",,"5",,,,,,,,,,,,,,,,,,,,,,,,,,,,,,,,,,,,,"MET09509/23/19 02:51:02 METAR KRDU 230751Z 23004KT 10SM CLR 18/16 A3009 RMK AO2 SLP185 T01830156 (VD)","FM-15","7",,,,,,,,,,,,,,,,,,,,,,,,,,,,"2009-07-08"
"72306013722","2019-09-23T03:51:00","FM-15","7",,,,,,,,,,,,,,,,,,,,,,,,,,,,,,,,,,,,,,"30.08","60","64","0.00",,"+0.03","8","87","30.07","FEW:02 250","29.61","10.00","62","240",,"6",,,,,,,,,,,,,,,,,,,,,,,,,,,,,,,,,,,,,"MET10409/23/19 03:51:02 METAR KRDU 230851Z 24005KT 10SM FEW250 18/16 A3008 RMK AO2 SLP182 T01780156 58010 (VD)","FM-15","7",,,,,,,,,,,,,,,,,,,,,,,,,,,,"2009-07-08"
"72306013722","2019-09-23T04:51:00","FM-15","7",,,,,,,,,,,,,,,,,,,,,,,,,,,,,,,,,,,,,,"30.08","60","63","0.00",,,,"90","30.06","FEW:02 250","29.61","10.00","61","230",,"6",,,,,,,,,,,,,,,,,,,,,,,,,,,,,,,,,,,,,"MET09809/23/19 04:51:02 METAR KRDU 230951Z 23005KT 10SM FEW250 17/16 A3008 RMK AO2 SLP181 T01720156 (VD)","FM-15","7",,,,,,,,,,,,,,,,,,,,,,,,,,,,"2009-07-08"
"72306013722","2019-09-23T05:51:00","FM-15","7",,,,,,,,,,,,,,,,,,,,,,,,,,,,,,,,,,,,,,"30.08","60","63","0.00",,,,"90","30.07","CLR:00","29.61","10.00","61","230",,"6",,,,,,,,,,,,,,,,,,,,,,,,,,,,,,,,,,,,,"MET09509/23/19 05:51:02 METAR KRDU 231051Z 23005KT 10SM CLR 17/16 A3008 RMK AO2 SLP182 T01720156 (VD)","FM-15","7",,,,,,,,,,,,,,,,,,,,,,,,,,,,"2009-07-08"
"72306013722","2019-09-23T06:51:00","FM-15","7",,,,,,,,,,,,,,,,,,,,,,,,,,,,,,,,,,,,,,"30.09","61","64","0.00",,"-0.01","3","90","30.07","FEW:02 250","29.62","10.00","62","240",,"6",,,,,,,,,,,,,,,,,,,,,,,,,,,,,,,,,,,,,"MET11709/23/19 06:51:02 METAR KRDU 231151Z 24005KT 10SM FEW250 18/16 A3009 RMK AO2 SLP184 T01780161 10206 20167 53002 (KAH)","FM-15","7",,,,,,,,,,,,,,,,,,,,,,,,,,,,"2009-07-08"
"72306013722","2019-09-23T07:00:00","FM-12","4",,,,,,,,,,,,,,,,,,,,,,,,,,,,,,,,,,,,,,,"61","64",,,"-0.01","3","90","30.07",,"29.63","9.94","62","240",,"6",,,,,,,,,,,,,,,,,,,,,,,,,,,,,,,,,,,,,"SYN08072306 32966 22405 10178 20161 30033 40184 53002 91151 333 10322 20167 555 92312=","FM-12","4",,,,,,,,,,,,,,,,,,,,,,,,,,,,"2009-07-08"
"72306013722","2019-09-23T07:51:00","FM-15","7",,,,,,,,,,,,,,,,,,,,,,,,,,,,,,,,,,,,,,"30.09","62","70","0.00",,,,"76","30.08","SCT:04 250","29.62","10.00","65","220",,"9",,,,,,,,,,,,,,,,,,,,,,,,,,,,,,,,,,,,,"MET09909/23/19 07:51:02 METAR KRDU 231251Z 22008KT 10SM SCT250 21/17 A3009 RMK AO2 SLP185 T02110167 (KAH)","FM-15","7",,,,,,,,,,,,,,,,,,,,,,,,,,,,"2009-07-08"
"72306013722","2019-09-23T08:51:00","FM-15","7",,,,,,,,,,,,,,,,,,,,,,,,,,,,,,,,,,,,,,"30.09","62","75","0.00",,,,"64","30.08","SCT:04 250","29.62","10.00","67","220",,"8",,,,,,,,,,,,,,,,,,,,,,,,,,,,,,,,,,,,,"MET09909/23/19 08:51:02 METAR KRDU 231351Z 22007KT 10SM SCT250 24/17 A3009 RMK AO2 SLP185 T02390167 (KAH)","FM-15","7",,,,,,,,,,,,,,,,,,,,,,,,,,,,"2009-07-08"
"72306013722","2019-09-23T09:51:00","FM-15","7",,,,,,,,,,,,,,,,,,,,,,,,,,,,,,,,,,,,,,"30.08","62","79","0.00",,"+0.01","8","56","30.06","SCT:04 250","29.61","10.00","68","230",,"7",,,,,,,,,,,,,,,,,,,,,,,,,,,,,,,,,,,,,"MET10509/23/19 09:51:02 METAR KRDU 231451Z 23006KT 10SM SCT250 26/17 A3008 RMK AO2 SLP181 T02610167 58002 (KAH)","FM-15","7",,,,,,,,,,,,,,,,,,,,,,,,,,,,"2009-07-08"
"72306013722","2019-09-23T10:51:00","FM-15","7",,,,,,,,,,,,,,,,,,,,,,,,,,,,,,,,,,,,,,"30.05","63","83","0.00",,,,"51","30.04","FEW:02 250","29.58","10.00","70","230",,"7",,,,,,,,,,,,,,,,,,,,,,,,,,,,,,,,,,,,,"MET09909/23/19 10:51:02 METAR KRDU 231551Z 23006KT 10SM FEW250 28/17 A3005 RMK AO2 SLP172 T02830172 (KAH)","FM-15","7",,,,,,,,,,,,,,,,,,,,,,,,,,,,"2009-07-08"
"72306013722","2019-09-23T11:51:00","FM-15","7",,,,,,,,,,,,,,,,,,,,,,,,,,,,,,,,,,,,,,"30.02","61","86","0.00",,,,"43","30.01","FEW:02 10 FEW:02 55 FEW:02 250","29.55","10.00","70","000",,"0",,,,,,,,,,,,,,,,,,,,,,,,,,,,,,,,,,,,,"MET12309/23/19 11:51:02 METAR KRDU 231651Z 00000KT 10SM FEW010 FEW055 FEW250 30/16 A3002 RMK AO2 SLP161 FU FEW010 T03000161 (KAH)","FM-15","7",,,,,,,,,,,,,,,,,,,,,,,,,,,,"2009-07-08"
"72306013722","2019-09-23T12:51:00","FM-15","7",,,,,,,,,,,,,,,,,,,,,,,,,,,,,,,,,,,,,,"30.00","60","90","0.00",,"+0.08","8","37","29.98","SCT:04 65 SCT:04 250","29.53","10.00","71","230",,"9",,,,,,,,,,,,,,,,,,,,,,,,,,,,,,,,,,,,,"MET12409/23/19 12:51:02 METAR KRDU 231751Z 23008KT 10SM SCT065 SCT250 32/16 A3000 RMK AO2 SLP151 T03220156 10322 20183 58028 (KAH)","FM-15","7",,,,,,,,,,,,,,,,,,,,,,,,,,,,"2009-07-08"
"72306013722","2019-09-23T13:00:00","FM-12","4",,,,,,,,,,,,,,,,,,,,,,,,,,,,,,,,,,,,,,,"60","90",,,"+0.08","8","37","29.98","57","29.54","9.94","71","230",,"9",,,,,,,,,,,,,,,,,,,,,,,,,,,,,,,,,,,,,"SYN08072306 32766 42308 10322 20156 30003 40151 58028 91751 333 10322 20183 555 92318=","FM-12","4",,,,,,,,,,,,,,,,,,,,,,,,,,,,"2009-07-08"
"72306013722","2019-09-23T13:51:00","FM-15","7",,,,,,,,,,,,,,,,,,,,,,,,,,,,,,,,,,,,,,"29.96","58","91","0.00",,,,"33","29.95","SCT:04 65 SCT:04 250","29.49","10.00","70","VRB",,"9",,,,,,,,,,,,,,,,,,,,,,,,,,,,,,,,,,,,,"MET10609/23/19 13:51:02 METAR KRDU 231851Z 21008KT 10SM SCT065 SCT250 33/14 A2996 RMK AO2 SLP141 T03280144 (KAH)","FM-15","7",,,,,,,,,,,,,,,,,,,,,,,,,,,,"2009-07-08"
"72306013722","2019-09-23T14:51:00","FM-15","7",,,,,,,,,,,,,,,,,,,,,,,,,,,,,,,,,,,,,,"29.94","58","90","0.00",,,,"34","29.93","SCT:04 65 SCT:04 250","29.47","10.00","70","210",,"10",,,,,,,,,,,,,,,,,,,,,,,,,,,,,,,,,,,,,"MET10609/23/19 14:51:02 METAR KRDU 231951Z 21009KT 10SM SCT065 SCT250 32/14 A2994 RMK AO2 SLP134 T03220144 (JBA)","FM-15","7",,,,,,,,,,,,,,,,,,,,,,,,,,,,"2009-07-08"
"72306013722","2019-09-23T15:51:00","FM-15","7",,,,,,,,,,,,,,,,,,,,,,,,,,,,,,,,,,,,,,"29.93","58","90","0.00",,"+0.07","6","34","29.91","FEW:02 65 SCT:04 250","29.46","10.00","70","VRB",,"10",,,,,,,,,,,,,,,,,,,,,,,,,,,,,,,,,,,,,"MET11209/23/19 15:51:02 METAR KRDU 232051Z 20009KT 10SM FEW065 SCT250 32/14 A2993 RMK AO2 SLP129 T03220144 56023 (JBA)","FM-15","7",,,,,,,,,,,,,,,,,,,,,,,,,,,,"2009-07-08"
"72306013722","2019-09-23T16:51:00","FM-15","7",,,,,,,,,,,,,,,,,,,,,,,,,,,,,,,,,,,,,,"29.93","57","88","0.00",,,,"35","29.91","FEW:02 65 FEW:02 250","29.46","10.00","68","230",,"13",,,,,,,,,,,,,,,,,,,,,,,,,,,,,,,,,,,,,"MET10609/23/19 16:51:02 METAR KRDU 232151Z 23011KT 10SM FEW065 FEW250 31/14 A2993 RMK AO2 SLP129 T03110139 (JBA)","FM-15","7",,,,,,,,,,,,,,,,,,,,,,,,,,,,"2009-07-08"
"72306013722","2019-09-23T17:51:00","FM-15","7",,,,,,,,,,,,,,,,,,,,,,,,,,,,,,,,,,,,,,"29.92","56","84","0.00",,,,"38","29.91","FEW:02 65 FEW:02 250","29.45","10.00","67","230",,"9",,,,,,,,,,,,,,,,,,,,,,,,,,,,,,,,,,,,,"MET10609/23/19 17:51:02 METAR KRDU 232251Z 23008KT 10SM FEW065 FEW250 29/13 A2992 RMK AO2 SLP127 T02890133 (JBA)","FM-15","7",,,,,,,,,,,,,,,,,,,,,,,,,,,,"2009-07-08"
"72306013722","2019-09-23T18:51:00","FM-15","7",,,,,,,,,,,,,,,,,,,,,,,,,,,,,,,,,,,,,,"29.92","62","80","0.00",,"+0.00","5","54","29.91","FEW:02 250","29.45","10.00","69","170",,"7",,,,,,,,,,,,,,,,,,,,,,,,,,,,,,,,,,,,,"MET11709/23/19 18:51:02 METAR KRDU 232351Z 17006KT 10SM FEW250 27/17 A2992 RMK AO2 SLP129 T02670167 10328 20267 55001 (JBA)","FM-15","7",,,,,,,,,,,,,,,,,,,,,,,,,,,,"2009-07-08"
"72306013722","2019-09-23T19:00:00","FM-12","4",,,,,,,,,,,,,,,,,,,,,,,,,,,,,,,,,,,,,,,"62","80",,,"+0.00","5","54","29.91",,"29.46","9.94","69","170",,"7",,,,,,,,,,,,,,,,,,,,,,,,,,,,,,,,,,,,,"SYN08072306 32966 21706 10267 20167 39976 40129 55001 92351 333 10328 20167 555 92400=","FM-12","4",,,,,,,,,,,,,,,,,,,,,,,,,,,,"2009-07-08"
"72306013722","2019-09-23T19:51:00","FM-15","7",,,,,,,,,,,,,,,,,,,,,,,,,,,,,,,,,,,,,,"29.93","63","77","0.00",,,,"62","29.91","FEW:02 250","29.46","10.00","68","180",,"6",,,,,,,,,,,,,,,,,,,,,,,,,,,,,,,,,,,,,"MET09309/23/19 19:51:01 METAR KRDU 240051Z 18005KT 10SM FEW250 25/17 A2993 RMK AO2 SLP129 T02500172","FM-15","7",,,,,,,,,,,,,,,,,,,,,,,,,,,,"2009-07-08"
"72306013722","2019-09-23T20:51:00","FM-15","7",,,,,,,,,,,,,,,,,,,,,,,,,,,,,,,,,,,,,,"29.93","63","76","0.00",,,,"64","29.91","FEW:02 250","29.46","10.00","68","210",,"7",,,,,,,,,,,,,,,,,,,,,,,,,,,,,,,,,,,,,"MET09309/23/19 20:51:01 METAR KRDU 240151Z 21006KT 10SM FEW250 24/17 A2993 RMK AO2 SLP129 T02440172","FM-15","7",,,,,,,,,,,,,,,,,,,,,,,,,,,,"2009-07-08"
"72306013722","2019-09-23T21:51:00","FM-15","7",,,,,,,,,,,,,,,,,,,,,,,,,,,,,,,,,,,,,,"29.92","62","75","0.00",,"-0.00","0","64","29.91","FEW:02 250","29.45","10.00","67","220",,"10",,,,,,,,,,,,,,,,,,,,,,,,,,,,,,,,,,,,,"MET09909/23/19 21:51:01 METAR KRDU 240251Z 22009KT 10SM FEW250 24/17 A2992 RMK AO2 SLP128 T02390167 50001","FM-15","7",,,,,,,,,,,,,,,,,,,,,,,,,,,,"2009-07-08"
"72306013722","2019-09-23T22:51:00","FM-15","7",,,,,,,,,,,,,,,,,,,,,,,,,,,,,,,,,,,,,,"29.92","62","74","0.00",,,,"67","29.90","FEW:02 90","29.45","10.00","66","230",,"9",,,,,,,,,,,,,,,,,,,,,,,,,,,,,,,,,,,,,"MET09309/23/19 22:51:01 METAR KRDU 240351Z 23008KT 10SM FEW090 23/17 A2992 RMK AO2 SLP126 T02330167","FM-15","7",,,,,,,,,,,,,,,,,,,,,,,,,,,,"2009-07-08"
"72306013722","2019-09-23T23:51:00","FM-15","7",,,,,,,,,,,,,,,,,,,,,,,,,,,,,,,,,,,,,,"29.91","62","73","0.00",,,,"69","29.90","FEW:02 90 BKN:07 250","29.44","10.00","66","230",,"9",,,,,,,,,,,,,,,,,,,,,,,,,,,,,,,,,,,,,"MET11009/23/19 23:51:01 METAR KRDU 240451Z 23008KT 10SM FEW090 BKN250 23/17 A2991 RMK AO2 SLP124 T02280167 403280167","FM-15","7",,,,,,,,,,,,,,,,,,,,,,,,,,,,"2009-07-08"
"72306013722","2019-09-23T23:59:00","SOD  ","6",,,,,,,,,,,,,,,"61","77","61","29.99","29.55","66","7.6","12","7.2","0","91","62","230","23","0.00","0","0.0","230","16",,,,,,,,,,,,,,,,,,,,,,,,,,,,,,,,,,,,,,,,,,,,,,,,,,,,,,,,,"SOD73924 HR PRECIPITATION (IN): 0.00 SNOW DEPTH (IN):0     24 HR SNOWFALL (IN):0.0  24 HR MAX TEMP (F): 9124 HR MIN TEMP (F): 62AVERAGE STATION PRESSURE:29.555 MINIMUM SEA LEVEL PRESSURE:29.89 TIME OF OCCURRENCE:2359 PEAK WIND SPEED (MPH): 23 PEAK WIND DIR (DEG):230 PEAK WIND TIME (LST):      FASTEST 2MIN SPEED (MPH): 16FASTEST 2MIN DIR (DEG):230 FASTEST 2MIN TIME (LST):     AVERAGE WIND SPEED (MPH): 7.6 24 HR AVG TEMP (F): 77DEPART FROM NORMAL:  8  HEATING DEGREE DAYS:  0 COOLING DEGREE DAYS: 12 LATEST DAY MAX TEMP (0700-1900 LST):91  LATEST NIGHT MIN TEMP(1900-0800 LST):62 HOURLY INCREMENTAL PRECIPITATION VALUES (IN):.00 0.00 0.00 0.00 0.00 0.00 0.00 0.00 0.00 0.00 0.00 0.00 0.00 0.00 0.00 0.00 0.00 0.00 0.00 0.00 0.00 0.00 0.00 0.00","SOD  ","6",,,,,,,,,,,,,,,,,,,,,,,,,"0604","1811",,"2009-07-08"
"72306013722","2019-09-24T00:51:00","FM-15","7",,,,,,,,,,,,,,,,,,,,,,,,,,,,,,,,,,,,,,"29.91","62","73","0.00",,"+0.01","6","69","29.89","SCT:04 75 SCT:04 110 BKN:07 250","29.44","10.00","66","260",,"7",,,,,,,,,,,,,,,,,,,,,,,,,,,,,,,,,,,,,"MET13109/24/19 00:51:02 METAR KRDU 240551Z 26006KT 10SM SCT075 SCT110 BKN250 23/17 A2991 RMK AO2 SLP123 T02280167 10267 20217 56004 (AWB)","FM-15","7",,,,,,,,,,,,,,,,,,,,,,,,,,,,"2009-07-08"
"72306013722","2019-09-24T01:00:00","FM-12","4",,,,,,,,,,,,,,,,,,,,,,,,,,,,,,,,,,,,,,,"62","73",,,"+0.01","6","69","29.89","74","29.45","9.94","66","260",,"7",,,,,,,,,,,,,,,,,,,,,,,,,,,,,,,,,,,,,"SYN08072306 32866 62606 10228 20167 39973 40123 56004 90551 333 10267 20167 555 92406=","FM-12","4",,,,,,,,,,,,,,,,,,,,,,,,,,,,"2009-07-08"
"72306013722","2019-09-24T01:51:00","FM-15","7",,,,,,,,,,,,,,,,,,,,,,,,,,,,,,,,,,,,,,"29.90","63","72","0.00",,,,"73","29.88","SCT:04 75 SCT:04 110 BKN:07 250","29.43","10.00","66","240",,"7",,,,,,,,,,,,,,,,,,,,,,,,,,,,,,,,,,,,,"MET11309/24/19 01:51:02 METAR KRDU 240651Z 24006KT 10SM SCT075 SCT110 BKN250 22/17 A2990 RMK AO2 SLP118 T02220172 (AWB)","FM-15","7",,,,,,,,,,,,,,,,,,,,,,,,,,,,"2009-07-08"
"72306013722","2019-09-24T02:51:00","FM-15","7",,,,,,,,,,,,,,,,,,,,,,,,,,,,,,,,,,,,,,"29.89","62","69","0.00",,,,"78","29.87","FEW:02 70 FEW:02 100 BKN:07 250","29.42","10.00","65","260",,"3",,,,,,,,,,,,,,,,,,,,,,,,,,,,,,,,,,,,,"MET11309/24/19 02:51:02 METAR KRDU 240751Z 26003KT 10SM FEW070 FEW100 BKN250 21/17 A2989 RMK AO2 SLP114 T02060167 (AWB)","FM-15","7",,,,,,,,,,,,,,,,,,,,,,,,,,,,"2009-07-08"
"72306013722","2019-09-24T03:51:00","FM-15","7",,,,,,,,,,,,,,,,,,,,,,,,,,,,,,,,,,,,,,"29.89","62","69","0.00",,"+0.02","5","78","29.87","FEW:02 70 FEW:02 85 FEW:02 250","29.42","10.00","65","000",,"0",,,,,,,,,,,,,,,,,,,,,,,,,,,,,,,,,,,,,"MET11909/24/19 03:51:02 METAR KRDU 240851Z 00000KT 10SM FEW070 FEW085 FEW250 21/17 A2989 RMK AO2 SLP115 T02060167 55008 (AWB)","FM-15","7",,,,,,,,,,,,,,,,,,,,,,,,,,,,"2009-07-08"
"72306013722","2019-09-24T04:51:00","FM-15","7",,,,,,,,,,,,,,,,,,,,,,,,,,,,,,,,,,,,,,"29.90","62","67","0.00",,,,"84","29.88","FEW:02 65 FEW:02 85 FEW:02 250","29.43","10.00","64","000",,"0",,,,,,,,,,,,,,,,,,,,,,,,,,,,,,,,,,,,,"MET11309/24/19 04:51:02 METAR KRDU 240951Z 00000KT 10SM FEW065 FEW085 FEW250 19/17 A2990 RMK AO2 SLP119 T01940167 (AWB)","FM-15","7",,,,,,,,,,,,,,,,,,,,,,,,,,,,"2009-07-08"
"72306013722","2019-09-24T05:51:00","FM-15","7",,,,,,,,,,,,,,,,,,,,,,,,,,,,,,,,,,,,,,"29.91","62","67","0.00",,,,"84","29.89","FEW:02 65 FEW:02 85 FEW:02 250","29.44","10.00","64","000",,"0",,,,,,,,,,,,,,,,,,,,,,,,,,,,,,,,,,,,,"MET11309/24/19 05:51:02 METAR KRDU 241051Z 00000KT 10SM FEW065 FEW085 FEW250 19/17 A2991 RMK AO2 SLP122 T01940167 (AWB)","FM-15","7",,,,,,,,,,,,,,,,,,,,,,,,,,,,"2009-07-08"
"72306013722","2019-09-24T06:51:00","FM-15","7",,,,,,,,,,,,,,,,,,,,,,,,,,,,,,,,,,,,,,"29.91","62","69","0.00",,"-0.02","1","78","29.90","FEW:02 80 FEW:02 250","29.44","10.00","65","000",,"0",,,,,,,,,,,,,,,,,,,,,,,,,,,,,,,,,,,,,"MET12409/24/19 06:51:02 METAR KRDU 241151Z 00000KT 10SM FEW080 FEW250 21/17 A2991 RMK AO2 SLP124 T02060167 10228 20183 51008 (KAH)","FM-15","7",,,,,,,,,,,,,,,,,,,,,,,,,,,,"2009-07-08"
"72306013722","2019-09-24T07:00:00","FM-12","4",,,,,,,,,,,,,,,,,,,,,,,,,,,,,,,,,,,,,,,"62","69",,,"-0.02","1","78","29.90","74","29.45","9.94","65","000",,"0",,,,,,,,,,,,,,,,,,,,,,,,,,,,,,,,,,,,,"SYN08072306 32866 20000 10206 20167 39973 40124 51008 91151 333 10328 20183 555 92412=","FM-12","4",,,,,,,,,,,,,,,,,,,,,,,,,,,,"2009-07-08"
"72306013722","2019-09-24T07:51:00","FM-15","7",,,,,,,,,,,,,,,,,,,,,,,,,,,,,,,,,,,,,,"29.93","63","74","0.00",,,,"69","29.91","FEW:02 250","29.46","10.00","67","VRB",,"6",,,,,,,,,,,,,,,,,,,,,,,,,,,,,,,,,,,,,"MET09909/24/19 07:51:02 METAR KRDU 241251Z VRB05KT 10SM FEW250 23/17 A2993 RMK AO2 SLP129 T02330172 (KAH)","FM-15","7",,,,,,,,,,,,,,,,,,,,,,,,,,,,"2009-07-08"
"72306013722","2019-09-24T08:51:00","FM-15","7",,,,,,,,,,,,,,,,,,,,,,,,,,,,,,,,,,,,,,"29.93","62","79","0.00",,,,"56","29.92","FEW:02 250","29.46","10.00","68","360",,"6",,,,,,,,,,,,,,,,,,,,,,,,,,,,,,,,,,,,,"MET09909/24/19 08:51:02 METAR KRDU 241351Z 36005KT 10SM FEW250 26/17 A2993 RMK AO2 SLP131 T02610167 (KAH)","FM-15","7",,,,,,,,,,,,,,,,,,,,,,,,,,,,"2009-07-08"
"72306013722","2019-09-24T09:51:00","FM-15","7",,,,,,,,,,,,,,,,,,,,,,,,,,,,,,,,,,,,,,"29.94","53","82","0.00",,"-0.02","1","37","29.92","FEW:02 60 FEW:02 250","29.47","10.00","65","VRB","17","9",,,,,,,,,,,,,,,,,,,,,,,,,,,,,,,,,,,,,"MET11509/24/19 09:51:02 METAR KRDU 241451Z 01008G15KT 10SM FEW060 FEW250 28/12 A2994 RMK AO2 SLP132 T02780117 51008 (KAH)","FM-15","7",,,,,,,,,,,,,,,,,,,,,,,,,,,,"2009-07-08"
"72306013722","2019-09-24T10:51:00","FM-15","7",,,,,,,,,,,,,,,,,,,,,,,,,,,,,,,,,,,,,,"29.93","53","85","0.00",,,,"33","29.91","FEW:02 70 FEW:02 250","29.46","10.00","66","VRB","16","5",,,,,,,,,,,,,,,,,,,,,,,,,,,,,,,,,,,,,"MET10909/24/19 10:51:02 METAR KRDU 241551Z VRB04G14KT 10SM FEW070 FEW250 29/12 A2993 RMK AO2 SLP128 T02940117 (KAH)","FM-15","7",,,,,,,,,,,,,,,,,,,,,,,,,,,,"2009-07-08"
"72306013722","2019-09-24T11:51:00","FM-15","7",,,,,,,,,,,,,,,,,,,,,,,,,,,,,,,,,,,,,,"29.91","48","85","0.00",,,,"28","29.89","FEW:02 75 FEW:02 250","29.44","10.00","63","VRB",,"5",,,,,,,,,,,,,,,,,,,,,,,,,,,,,,,,,,,,,"MET10609/24/19 11:51:02 METAR KRDU 241651Z VRB04KT 10SM FEW075 FEW250 29/09 A2991 RMK AO2 SLP121 T02940089 (KAH)","FM-15","7",,,,,,,,,,,,,,,,,,,,,,,,,,,,"2009-07-08"
"72306013722","2019-09-24T12:51:00","FM-15","7",,,,,,,,,,,,,,,,,,,,,,,,,,,,,,,,,,,,,,"29.88","46","88","0.00",,"+0.06","8","23","29.86","FEW:02 80 FEW:02 250","29.41","10.00","64","VRB",,"7",,,,,,,,,,,,,,,,,,,,,,,,,,,,,,,,,,,,,"MET12409/24/19 12:51:02 METAR KRDU 241751Z VRB06KT 10SM FEW080 FEW250 31/08 A2988 RMK AO2 SLP113 T03110078 10311 20206 58019 (KAH)","FM-15","7",,,,,,,,,,,,,,,,,,,,,,,,,,,,"2009-07-08"
"72306013722","2019-09-24T13:00:00","FM-12","4",,,,,,,,,,,,,,,,,,,,,,,,,,,,,,,,,,,,,,,"46","88",,,"+0.06","8","23","29.86","74","29.42","9.94","64",,,"7",,,,,,,,,,,,,,,,,,,,,,,,,,,,,,,,,,,,,"SYN08072306 32866 2//06 10311 20078 39963 40113 58019 91751 333 10311 20206 555 92418=","FM-12","4",,,,,,,,,,,,,,,,,,,,,,,,,,,,"2009-07-08"
"72306013722","2019-09-24T13:51:00","FM-15","7",,,,,,,,,,,,,,,,,,,,,,,,,,,,,,,,,,,,,,"29.86","47","88","0.00",,,,"24","29.85","FEW:02 80 FEW:02 250","29.39","10.00","64","VRB",,"6",,,,,,,,,,,,,,,,,,,,,,,,,,,,,,,,,,,,,"MET10609/24/19 13:51:02 METAR KRDU 241851Z VRB05KT 10SM FEW080 FEW250 31/08 A2986 RMK AO2 SLP107 T03110083 (KAH)","FM-15","7",,,,,,,,,,,,,,,,,,,,,,,,,,,,"2009-07-08"
"72306013722","2019-09-24T14:51:00","FM-15","7",,,,,,,,,,,,,,,,,,,,,,,,,,,,,,,,,,,,,,"29.85","48","87","0.00",,,,"26","29.83","FEW:02 10 FEW:02 80 FEW:02 250","29.38","10.00","64","000",,"0",,,,,,,,,,,,,,,,,,,,,,,,,,,,,,,,,,,,,"MET12309/24/19 14:51:02 METAR KRDU 241951Z 00000KT 10SM FEW010 FEW080 FEW250 31/09 A2985 RMK AO2 SLP102 FU FEW010 T03060089 (JBA)","FM-15","7",,,,,,,,,,,,,,,,,,,,,,,,,,,,"2009-07-08"
"72306013722","2019-09-24T15:51:00","FM-15","7",,,,,,,,,,,,,,,,,,,,,,,,,,,,,,,,,,,,,,"29.84","47","87","0.00",,"+0.04","6","25","29.82","FEW:02 10 FEW:02 80 FEW:02 250","29.37","10.00","64","000",,"0",,,,,,,,,,,,,,,,,,,,,,,,,,,,,,,,,,,,,"MET12909/24/19 15:51:02 METAR KRDU 242051Z 00000KT 10SM FEW010 FEW080 FEW250 31/08 A2984 RMK AO2 SLP099 FU FEW010 T03060083 56015 (JBA)","FM-15","7",,,,,,,,,,,,,,,,,,,,,,,,,,,,"2009-07-08"
"72306013722","2019-09-24T16:51:00","FM-15","7",,,,,,,,,,,,,,,,,,,,,,,,,,,,,,,,,,,,,,"29.85","46","87","0.00",,,,"24","29.83","FEW:02 10 FEW:02 80 FEW:02 250","29.38","10.00","63","320",,"5",,,,,,,,,,,,,,,,,,,,,,,,,,,,,,,,,,,,,"MET12309/24/19 16:51:02 METAR KRDU 242151Z 32004KT 10SM FEW010 FEW080 FEW250 31/08 A2985 RMK AO2 SLP102 FU FEW010 T03060078 (JBA)","FM-15","7",,,,,,,,,,,,,,,,,,,,,,,,,,,,"2009-07-08"
"72306013722","2019-09-24T17:51:00","FM-15","7",,,,,,,,,,,,,,,,,,,,,,,,,,,,,,,,,,,,,,"29.85","47","84","0.00",,,,"27","29.84","FEW:02 10 FEW:02 250","29.38","10.00","63","320",,"3",,,,,,,,,,,,,,,,,,,,,,,,,,,,,,,,,,,,,"MET11609/24/19 17:51:02 METAR KRDU 242251Z 32003KT 10SM FEW010 FEW250 29/08 A2985 RMK AO2 SLP104 FU FEW010 T02890083 (JBA)","FM-15","7",,,,,,,,,,,,,,,,,,,,,,,,,,,,"2009-07-08"
"72306013722","2019-09-24T18:51:00","FM-15","7",,,,,,,,,,,,,,,,,,,,,,,,,,,,,,,,,,,,,,"29.87","47","79","0.00",,"-0.04","3","32","29.85","FEW:02 10 FEW:02 250","29.40","10.00","61","000",,"0",,,,,,,,,,,,,,,,,,,,,,,,,,,,,,,,,,,,,"MET13409/24/19 18:51:02 METAR KRDU 242351Z 00000KT 10SM FEW010 FEW250 26/08 A2987 RMK AO2 SLP110 FU FEW010 T02610083 10317 20261 53012 (JBA)","FM-15","7",,,,,,,,,,,,,,,,,,,,,,,,,,,,"2009-07-08"
"72306013722","2019-09-24T19:00:00","FM-12","4",,,,,,,,,,,,,,,,,,,,,,,,,,,,,,,,,,,,,,,"46","79",,,"-0.04","3","32","29.85","15","29.41","9.94","60","000",,"0",,,,,,,,,,,,,,,,,,,,,,,,,,,,,,,,,,,,,"SYN08072306 32466 20000 10260 20080 39960 40110 53012 92351 333 10317 20183 555 92500=","FM-12","4",,,,,,,,,,,,,,,,,,,,,,,,,,,,"2009-07-08"
"72306013722","2019-09-24T19:51:00","FM-15","7",,,,,,,,,,,,,,,,,,,,,,,,,,,,,,,,,,,,,,"29.89","48","76","0.00",,,,"37","29.88","FEW:02 250","29.42","10.00","60","040",,"6",,,,,,,,,,,,,,,,,,,,,,,,,,,,,,,,,,,,,"MET09309/24/19 19:51:01 METAR KRDU 250051Z 04005KT 10SM FEW250 24/09 A2989 RMK AO2 SLP117 T02440089","FM-15","7",,,,,,,,,,,,,,,,,,,,,,,,,,,,"2009-07-08"
"72306013722","2019-09-24T20:51:00","FM-15","7",,,,,,,,,,,,,,,,,,,,,,,,,,,,,,,,,,,,,,"29.90","50","70","0.00",,,,"49","29.89","FEW:02 250","29.43","7.00","59","000",,"0",,,,,,,,,,,,,,,,,,,,,,,,,,,,,,,,,,,,,"MET10109/24/19 20:51:01 METAR KRDU 250151Z 00000KT 7SM FEW250 21/10 A2990 RMK AO2 SLP121 VIS NE 4 T02110100","FM-15","7",,,,,,,,,,,,,,,,,,,,,,,,,,,,"2009-07-08"
"72306013722","2019-09-24T21:51:00","FM-15","7",,,,,,,,,,,,,,,,,,,,,,,,,,,,,,,,,,,,,,"29.91","53","66","0.00",,"-0.04","1","63","29.89","FEW:02 250","29.44","10.00","59","000",,"0",,,,,,,,,,,,,,,,,,,,,,,,,,,,,,,,,,,,,"MET09909/24/19 21:51:01 METAR KRDU 250251Z 00000KT 10SM FEW250 19/12 A2991 RMK AO2 SLP122 T01890117 51012","FM-15","7",,,,,,,,,,,,,,,,,,,,,,,,,,,,"2009-07-08"
"72306013722","2019-09-24T22:51:00","FM-15","7",,,,,,,,,,,,,,,,,,,,,,,,,,,,,,,,,,,,,,"29.90","51","69","0.00",,,,"53","29.89","FEW:02 250","29.43","10.00","59","050",,"9",,,,,,,,,,,,,,,,,,,,,,,,,,,,,,,,,,,,,"MET09309/24/19 22:51:01 METAR KRDU 250351Z 05008KT 10SM FEW250 21/11 A2990 RMK AO2 SLP121 T02060106","FM-15","7",,,,,,,,,,,,,,,,,,,,,,,,,,,,"2009-07-08"
"72306013722","2019-09-24T23:51:00","FM-15","7",,,,,,,,,,,,,,,,,,,,,,,,,,,,,,,,,,,,,,"29.90","54","68","0.00",,,,"61","29.88","CLR:00","29.43","10.00","60","060",,"7",,,,,,,,,,,,,,,,,,,,,,,,,,,,,,,,,,,,,"MET10009/24/19 23:51:01 METAR KRDU 250451Z 06006KT 10SM CLR 20/12 A2990 RMK AO2 SLP119 T02000122 403170178","FM-15","7",,,,,,,,,,,,,,,,,,,,,,,,,,,,"2009-07-08"
"72306013722","2019-09-24T23:59:00","SOD  ","6",,,,,,,,,,,,,,,"54","77","50","29.88","29.42","64","3.7","12","7.6","0","89","64","040","18","0.00","0","0.0","040","13",,,,,,,,,,,,,,,,,,,,,,,,,,,,,,,,,,,,,,,,,,,,,,,,,,,,,,,,,"SOD73924 HR PRECIPITATION (IN): 0.00 SNOW DEPTH (IN):0     24 HR SNOWFALL (IN):0.0  24 HR MAX TEMP (F): 8924 HR MIN TEMP (F): 64AVERAGE STATION PRESSURE:29.420 MINIMUM SEA LEVEL PRESSURE:29.82 TIME OF OCCURRENCE:1619 PEAK WIND SPEED (MPH): 18 PEAK WIND DIR (DEG): 40 PEAK WIND TIME (LST):      FASTEST 2MIN SPEED (MPH): 13FASTEST 2MIN DIR (DEG): 40 FASTEST 2MIN TIME (LST):     AVERAGE WIND SPEED (MPH): 3.7 24 HR AVG TEMP (F): 77DEPART FROM NORMAL:  8  HEATING DEGREE DAYS:  0 COOLING DEGREE DAYS: 12 LATEST DAY MAX TEMP (0700-1900 LST):89  LATEST NIGHT MIN TEMP(1900-0800 LST):65 HOURLY INCREMENTAL PRECIPITATION VALUES (IN):.00 0.00 0.00 0.00 0.00 0.00 0.00 0.00 0.00 0.00 0.00 0.00 0.00 0.00 0.00 0.00 0.00 0.00 0.00 0.00 0.00 0.00 0.00 0.00","SOD  ","6",,,,,,,,,,,,,,,,,,,,,,,,,"0604","1809",,"2009-07-08"
"72306013722","2019-09-25T00:51:00","FM-15","7",,,,,,,,,,,,,,,,,,,,,,,,,,,,,,,,,,,,,,"29.90","57","65","0.00",,"+0.00","5","76","29.89","FEW:02 75 FEW:02 250","29.43","10.00","60","050",,"3",,,,,,,,,,,,,,,,,,,,,,,,,,,,,,,,,,,,,"MET12409/25/19 00:51:02 METAR KRDU 250551Z 05003KT 10SM FEW075 FEW250 18/14 A2990 RMK AO2 SLP121 T01830139 10261 20178 55001 (AWB)","FM-15","7",,,,,,,,,,,,,,,,,,,,,,,,,,,,"2009-07-08"
"72306013722","2019-09-25T01:00:00","FM-12","4",,,,,,,,,,,,,,,,,,,,,,,,,,,,,,,,,,,,,,,"57","65",,,"+0.00","5","76","29.89","74","29.44","9.94","60","050",,"3",,,,,,,,,,,,,,,,,,,,,,,,,,,,,,,,,,,,,"SYN08072306 32866 20503 10183 20139 39970 40121 55001 90551 333 10261 20178 555 92506=","FM-12","4",,,,,,,,,,,,,,,,,,,,,,,,,,,,"2009-07-08"
"72306013722","2019-09-25T01:37:00","FM-16","7",,,,,,,,,,,,,,,,,,,,,,,,,,,,,,,,,,,,,,"29.90","61","66",,,,,"84",,"BKN:07 7","29.43","10.00","63","100",,"6",,,,,,,,,,,,,,,,,,,,,,,,,,,,,,,,,,,,,"MET09209/25/19 01:37:02 SPECI KRDU 250637Z 10005KT 10SM BKN007 19/16 A2990 RMK AO2 T01890161 (AWB)","FM-16","7",,,,,,,,,,,,,,,,,,,,,,,,,,,,"2009-07-08"
"72306013722","2019-09-25T01:51:00","FM-15","7",,,,,,,,,,,,,,,,,,,,,,,,,,,,,,,,,,,,,,"29.90","63","67","0.00",,,,"87","29.88","OVC:08 7","29.43","10.00","65","110",,"9",,,,,,,,,,,,,,,,,,,,,,,,,,,,,,,,,,,,,"MET09909/25/19 01:51:02 METAR KRDU 250651Z 11008KT 10SM OVC007 19/17 A2990 RMK AO2 SLP119 T01940172 (AWB)","FM-15","7",,,,,,,,,,,,,,,,,,,,,,,,,,,,"2009-07-08"
"72306013722","2019-09-25T02:16:00","FM-16","7",,,,,,,,,,,,,,,,,,,,,,,,,,,,,,,,,,,,,,"29.89","64","67",,,,,"91",,"FEW:02 7 FEW:02 75","29.42","10.00","65","100",,"10",,,,,,,,,,,,,,,,,,,,,,,,,,,,,,,,,,,,,"MET09909/25/19 02:16:02 SPECI KRDU 250716Z 10009KT 10SM FEW007 FEW075 19/18 A2989 RMK AO2 T01940178 (AWB)","FM-16","7",,,,,,,,,,,,,,,,,,,,,,,,,,,,"2009-07-08"
"72306013722","2019-09-25T02:51:00","FM-15","7",,,,,,,,,,,,,,,,,,,,,,,,,,,,,,,,,,,,,,"29.90","63","67","0.00",,,,"87","29.88","FEW:02 7 FEW:02 75","29.43","10.00","65","100",,"8",,,,,,,,,,,,,,,,,,,,,,,,,,,,,,,,,,,,,"MET10609/25/19 02:51:02 METAR KRDU 250751Z 10007KT 10SM FEW007 FEW075 19/17 A2990 RMK AO2 SLP119 T01940172 (AWB)","FM-15","7",,,,,,,,,,,,,,,,,,,,,,,,,,,,"2009-07-08"
"72306013722","2019-09-25T03:51:00","FM-15","7",,,,,,,,,,,,,,,,,,,,,,,,,,,,,,,,,,,,,,"29.92","62","65","0.00",,"-0.01","3","90","29.90","FEW:02 7 FEW:02 75","29.45","10.00","63","VRB",,"3",,,,,,,,,,,,,,,,,,,,,,,,,,,,,,,,,,,,,"MET11209/25/19 03:51:02 METAR KRDU 250851Z VRB03KT 10SM FEW007 FEW075 18/17 A2992 RMK AO2 SLP126 T01830167 53005 (AWB)","FM-15","7",,,,,,,,,,,,,,,,,,,,,,,,,,,,"2009-07-08"
"72306013722","2019-09-25T04:24:00","FM-16","7",,,,,,,,,,,,,,,,,,,,,,,,,,,,,,,,,,,,,,"29.93","63","65",,,,,"93",,"FEW:02 7 BKN:07 25 BKN:07 75","29.46","10.00","64","000",,"0",,,,,,,,,,,,,,,,,,,,,,,,,,,,,,,,,,,,,"MET10609/25/19 04:24:02 SPECI KRDU 250924Z 00000KT 10SM FEW007 BKN025 BKN075 18/17 A2993 RMK AO2 T01830172 (AWB)","FM-16","7",,,,,,,,,,,,,,,,,,,,,,,,,,,,"2009-07-08"
"72306013722","2019-09-25T04:51:00","FM-15","7",,,,,,,,,,,,,,,,,,,,,,,,,,,,,,,,,,,,,,"29.94","62","64","0.00",,,,"93","29.92","FEW:02 7 SCT:04 25 SCT:04 75","29.47","10.00","63","030",,"3",,,,,,,,,,,,,,,,,,,,,,,,,,,,,,,,,,,,,"MET11309/25/19 04:51:02 METAR KRDU 250951Z 03003KT 10SM FEW007 SCT025 SCT075 18/17 A2994 RMK AO2 SLP133 T01780167 (AWB)","FM-15","7",,,,,,,,,,,,,,,,,,,,,,,,,,,,"2009-07-08"
"72306013722","2019-09-25T05:20:00","FM-16","7",,,,,,,,,,,,,,,,,,,,,,,,,,,,,,,,,,,,,,"29.95","62","64",,,,,"93",,"FEW:02 7 BKN:07 29 BKN:07 75","29.48","10.00","63","000",,"0",,,,,,,,,,,,,,,,,,,,,,,,,,,,,,,,,,,,,"MET10609/25/19 05:20:02 SPECI KRDU 251020Z 00000KT 10SM FEW007 BKN029 BKN075 18/17 A2995 RMK AO2 T01780167 (AWB)","FM-16","7",,,,,,,,,,,,,,,,,,,,,,,,,,,,"2009-07-08"
"72306013722","2019-09-25T05:51:00","FM-15","7",,,,,,,,,,,,,,,,,,,,,,,,,,,,,,,,,,,,,,"29.96","62","64","0.00",,,,"93","29.94","FEW:02 7 BKN:07 23 BKN:07 75","29.49","10.00","63","040",,"5",,,,,,,,,,,,,,,,,,,,,,,,,,,,,,,,,,,,,"MET11309/25/19 05:51:02 METAR KRDU 251051Z 04004KT 10SM FEW007 BKN023 BKN075 18/17 A2996 RMK AO2 SLP139 T01780167 (AWB)","FM-15","7",,,,,,,,,,,,,,,,,,,,,,,,,,,,"2009-07-08"
"72306013722","2019-09-25T06:51:00","FM-15","7",,,,,,,,,,,,,,,,,,,,,,,,,,,,,,,,,,,,,,"29.97","63","66","0.00",,"-0.06","1","90","29.96","BKN:07 25 BKN:07 75 BKN:07 250","29.50","10.00","64","000",,"0",,,,,,,,,,,,,,,,,,,,,,,,,,,,,,,,,,,,,"MET13109/25/19 06:51:02 METAR KRDU 251151Z 00000KT 10SM BKN025 BKN075 BKN250 19/17 A2997 RMK AO2 SLP145 T01890172 10194 20172 51019 (KAH)","FM-15","7",,,,,,,,,,,,,,,,,,,,,,,,,,,,"2009-07-08"
"72306013722","2019-09-25T07:00:00","FM-12","4",,,,,,,,,,,,,,,,,,,,,,,,,,,,,,,,,,,,,,,"63","66",,,"-0.06","1","90","29.96","26","29.51","9.94","64","000",,"0",,,,,,,,,,,,,,,,,,,,,,,,,,,,,,,,,,,,,"SYN08072306 32566 60000 10189 20172 39993 40145 51019 91151 333 10317 20172 555 92512=","FM-12","4",,,,,,,,,,,,,,,,,,,,,,,,,,,,"2009-07-08"
"72306013722","2019-09-25T07:35:00","FM-16","7",,,,,,,,,,,,,,,,,,,,,,,,,,,,,,,,,,,,,,"29.98","62","70",,,,,"76",,"SCT:04 25 SCT:04 75","29.51","10.00","65","130",,"5",,,,,,,,,,,,,,,,,,,,,,,,,,,,,,,,,,,,,"MET09909/25/19 07:35:02 SPECI KRDU 251235Z 13004KT 10SM SCT025 SCT075 21/17 A2998 RMK AO2 T02110167 (KAH)","FM-16","7",,,,,,,,,,,,,,,,,,,,,,,,,,,,"2009-07-08"
"72306013722","2019-09-25T07:51:00","FM-15","7",,,,,,,,,,,,,,,,,,,,,,,,,,,,,,,,,,,,,,"29.98","62","71","0.00",,,,"73","29.97","SCT:04 25 SCT:04 75","29.51","10.00","65","110",,"6",,,,,,,,,,,,,,,,,,,,,,,,,,,,,,,,,,,,,"MET10609/25/19 07:51:02 METAR KRDU 251251Z 11005KT 10SM SCT025 SCT075 22/17 A2998 RMK AO2 SLP148 T02170167 (KAH)","FM-15","7",,,,,,,,,,,,,,,,,,,,,,,,,,,,"2009-07-08"
"72306013722","2019-09-25T08:51:00","FM-15","7",,,,,,,,,,,,,,,,,,,,,,,,,,,,,,,,,,,,,,"29.99","59","75","0.00",,,,"58","29.98","SCT:04 30 SCT:04 75","29.52","10.00","65","130",,"6",,,,,,,,,,,,,,,,,,,,,,,,,,,,,,,,,,,,,"MET10609/25/19 08:51:02 METAR KRDU 251351Z 13005KT 10SM SCT030 SCT075 24/15 A2999 RMK AO2 SLP151 T02390150 (KAH)","FM-15","7",,,,,,,,,,,,,,,,,,,,,,,,,,,,"2009-07-08"
"72306013722","2019-09-25T09:51:00","FM-15","7",,,,,,,,,,,,,,,,,,,,,,,,,,,,,,,,,,,,,,"29.99","57","79","0.00",,"-0.01","0","47","29.97","SCT:04 40 SCT:04 250","29.52","10.00","66","120","16","9",,,,,,,,,,,,,,,,,,,,,,,,,,,,,,,,,,,,,"MET11509/25/19 09:51:02 METAR KRDU 251451Z 12008G14KT 10SM SCT040 SCT250 26/14 A2999 RMK AO2 SLP150 T02610139 50005 (KAH)","FM-15","7",,,,,,,,,,,,,,,,,,,,,,,,,,,,"2009-07-08"
"72306013722","2019-09-25T10:51:00","FM-15","7",,,,,,,,,,,,,,,,,,,,,,,,,,,,,,,,,,,,,,"29.97","59","81","0.00",,,,"47","29.96","FEW:02 47 FEW:02 250","29.50","10.00","67","VRB",,"6",,,,,,,,,,,,,,,,,,,,,,,,,,,,,,,,,,,,,"MET10609/25/19 10:51:02 METAR KRDU 251551Z VRB05KT 10SM FEW047 FEW250 27/15 A2997 RMK AO2 SLP144 T02720150 (KAH)","FM-15","7",,,,,,,,,,,,,,,,,,,,,,,,,,,,"2009-07-08"
"72306013722","2019-09-25T11:51:00","FM-15","7",,,,,,,,,,,,,,,,,,,,,,,,,,,,,,,,,,,,,,"29.95","60","83","0.00",,,,"46","29.93","FEW:02 55 FEW:02 250","29.48","10.00","68","VRB",,"8",,,,,,,,,,,,,,,,,,,,,,,,,,,,,,,,,,,,,"MET10609/25/19 11:51:02 METAR KRDU 251651Z 19007KT 10SM FEW055 FEW250 28/16 A2995 RMK AO2 SLP136 T02830156 (KAH)","FM-15","7",,,,,,,,,,,,,,,,,,,,,,,,,,,,"2009-07-08"
"72306013722","2019-09-25T12:51:00","FM-15","7",,,,,,,,,,,,,,,,,,,,,,,,,,,,,,,,,,,,,,"29.92","60","84","0.00",,"+0.07","8","44","29.91","FEW:02 55 FEW:02 250","29.45","10.00","69","140",,"9",,,,,,,,,,,,,,,,,,,,,,,,,,,,,,,,,,,,,"MET12409/25/19 12:51:02 METAR KRDU 251751Z 14008KT 10SM FEW055 FEW250 29/16 A2992 RMK AO2 SLP127 T02890156 10294 20189 58023 (KAH)","FM-15","7",,,,,,,,,,,,,,,,,,,,,,,,,,,,"2009-07-08"
"72306013722","2019-09-25T13:00:00","FM-12","4",,,,,,,,,,,,,,,,,,,,,,,,,,,,,,,,,,,,,,,"60","84",,,"+0.07","8","44","29.91","57","29.46","9.94","69","140",,"9",,,,,,,,,,,,,,,,,,,,,,,,,,,,,,,,,,,,,"SYN08072306 32766 21408 10289 20156 39976 40127 58023 91751 333 10294 20189 555 92518=","FM-12","4",,,,,,,,,,,,,,,,,,,,,,,,,,,,"2009-07-08"
"72306013722","2019-09-25T13:51:00","FM-15","7",,,,,,,,,,,,,,,,,,,,,,,,,,,,,,,,,,,,,,"29.90","59","87","0.00",,,,"39","29.89","SCT:04 60 SCT:04 250","29.43","10.00","69","VRB",,"6",,,,,,,,,,,,,,,,,,,,,,,,,,,,,,,,,,,,,"MET10609/25/19 13:51:02 METAR KRDU 251851Z VRB05KT 10SM SCT060 SCT250 31/15 A2990 RMK AO2 SLP121 T03060150 (KAH)","FM-15","7",,,,,,,,,,,,,,,,,,,,,,,,,,,,"2009-07-08"
"72306013722","2019-09-25T14:51:00","FM-15","7",,,,,,,,,,,,,,,,,,,,,,,,,,,,,,,,,,,,,,"29.88","60","83","0.00",,,,"46","29.87","BKN:07 60 BKN:07 250","29.41","10.00","68","VRB",,"10",,,,,,,,,,,,,,,,,,,,,,,,,,,,,,,,,,,,,"MET10609/25/19 14:51:02 METAR KRDU 251951Z 18009KT 10SM BKN060 BKN250 28/16 A2988 RMK AO2 SLP114 T02830156 (JBA)","FM-15","7",,,,,,,,,,,,,,,,,,,,,,,,,,,,"2009-07-08"
"72306013722","2019-09-25T15:51:00","FM-15","7",,,,,,,,,,,,,,,,,,,,,,,,,,,,,,,,,,,,,,"29.87","62","85","0.00",,"+0.05","6","46","29.85","SCT:04 60 SCT:04 250","29.40","10.00","70","130",,"8",,,,,,,,,,,,,,,,,,,,,,,,,,,,,,,,,,,,,"MET11209/25/19 15:51:02 METAR KRDU 252051Z 13007KT 10SM SCT060 SCT250 29/17 A2987 RMK AO2 SLP110 T02940167 56017 (JBA)","FM-15","7",,,,,,,,,,,,,,,,,,,,,,,,,,,,"2009-07-08"
"72306013722","2019-09-25T16:51:00","FM-15","7",,,,,,,,,,,,,,,,,,,,,,,,,,,,,,,,,,,,,,"29.88","63","84","0.00",,,,"49","29.86","SCT:04 50 SCT:04 250","29.41","10.00","70","160",,"6",,,,,,,,,,,,,,,,,,,,,,,,,,,,,,,,,,,,,"MET10609/25/19 16:51:02 METAR KRDU 252151Z 16005KT 10SM SCT050 SCT250 29/17 A2988 RMK AO2 SLP112 T02890172 (JBA)","FM-15","7",,,,,,,,,,,,,,,,,,,,,,,,,,,,"2009-07-08"
"72306013722","2019-09-25T17:51:00","FM-15","7",,,,,,,,,,,,,,,,,,,,,,,,,,,,,,,,,,,,,,"29.88","65","81","0.00",,,,"58","29.86","SCT:04 50 SCT:04 250","29.41","10.00","71","160",,"7",,,,,,,,,,,,,,,,,,,,,,,,,,,,,,,,,,,,,"MET10609/25/19 17:51:02 METAR KRDU 252251Z 16006KT 10SM SCT050 SCT250 27/18 A2988 RMK AO2 SLP113 T02720183 (JBA)","FM-15","7",,,,,,,,,,,,,,,,,,,,,,,,,,,,"2009-07-08"
"72306013722","2019-09-25T18:51:00","FM-15","7",,,,,,,,,,,,,,,,,,,,,,,,,,,,,,,,,,,,,,"29.89","65","78","0.00",,"-0.01","3","64","29.88","FEW:02 50 FEW:02 250","29.42","10.00","70","130",,"6",,,,,,,,,,,,,,,,,,,,,,,,,,,,,,,,,,,,,"MET12409/25/19 18:51:02 METAR KRDU 252351Z 13005KT 10SM FEW050 FEW250 26/18 A2989 RMK AO2 SLP117 T02560183 10306 20256 53005 (JBA)","FM-15","7",,,,,,,,,,,,,,,,,,,,,,,,,,,,"2009-07-08"
"72306013722","2019-09-25T19:00:00","FM-12","4",,,,,,,,,,,,,,,,,,,,,,,,,,,,,,,,,,,,,,,"65","78",,,"-0.01","3","64","29.88","57","29.43","9.94","70","130",,"6",,,,,,,,,,,,,,,,,,,,,,,,,,,,,,,,,,,,,"SYN08072306 32766 21305 10256 20183 39966 40117 53005 92351 333 10306 20172 555 92600=","FM-12","4",,,,,,,,,,,,,,,,,,,,,,,,,,,,"2009-07-08"
"72306013722","2019-09-25T19:51:00","FM-15","7",,,,,,,,,,,,,,,,,,,,,,,,,,,,,,,,,,,,,,"29.89","65","77","0.00",,,,"66","29.88","FEW:02 50 FEW:02 250","29.42","10.00","69","120",,"5",,,,,,,,,,,,,,,,,,,,,,,,,,,,,,,,,,,,,"MET10009/25/19 19:51:01 METAR KRDU 260051Z 12004KT 10SM FEW050 FEW250 25/18 A2989 RMK AO2 SLP117 T02500183","FM-15","7",,,,,,,,,,,,,,,,,,,,,,,,,,,,"2009-07-08"
"72306013722","2019-09-25T20:51:00","FM-15","7",,,,,,,,,,,,,,,,,,,,,,,,,,,,,,,,,,,,,,"29.90","65","76","0.00",,,,"69","29.89","FEW:02 50 FEW:02 250","29.43","10.00","69","140",,"6",,,,,,,,,,,,,,,,,,,,,,,,,,,,,,,,,,,,,"MET10009/25/19 20:51:01 METAR KRDU 260151Z 14005KT 10SM FEW050 FEW250 24/18 A2990 RMK AO2 SLP121 T02440183","FM-15","7",,,,,,,,,,,,,,,,,,,,,,,,,,,,"2009-07-08"
"72306013722","2019-09-25T21:51:00","FM-15","7",,,,,,,,,,,,,,,,,,,,,,,,,,,,,,,,,,,,,,"29.92","69","75","0.00",,"-0.03","3","82","29.90","FEW:02 50 FEW:02 250","29.45","10.00","71","180",,"7",,,,,,,,,,,,,,,,,,,,,,,,,,,,,,,,,,,,,"MET10609/25/19 21:51:01 METAR KRDU 260251Z 18006KT 10SM FEW050 FEW250 24/21 A2992 RMK AO2 SLP126 T02390206 53010","FM-15","7",,,,,,,,,,,,,,,,,,,,,,,,,,,,"2009-07-08"
"72306013722","2019-09-25T22:51:00","FM-15","7",,,,,,,,,,,,,,,,,,,,,,,,,,,,,,,,,,,,,,"29.92","69","74","0.00",,,,"85","29.90","FEW:02 250","29.45","10.00","71","190",,"7",,,,,,,,,,,,,,,,,,,,,,,,,,,,,,,,,,,,,"MET09309/25/19 22:51:01 METAR KRDU 260351Z 19006KT 10SM FEW250 23/21 A2992 RMK AO2 SLP126 T02330206","FM-15","7",,,,,,,,,,,,,,,,,,,,,,,,,,,,"2009-07-08"
"72306013722","2019-09-25T23:51:00","FM-15","7",,,,,,,,,,,,,,,,,,,,,,,,,,,,,,,,,,,,,,"29.91","70","73","0.00",,,,"90","29.89","FEW:02 250","29.44","10.00","71","190",,"5",,,,,,,,,,,,,,,,,,,,,,,,,,,,,,,,,,,,,"MET10309/25/19 23:51:01 METAR KRDU 260451Z 19004KT 10SM FEW250 23/21 A2991 RMK AO2 SLP123 T02280211 403060172","FM-15","7",,,,,,,,,,,,,,,,,,,,,,,,,,,,"2009-07-08"
"72306013722","2019-09-25T23:59:00","SOD  ","6",,,,,,,,,,,,,,,"63","75","67","29.91","29.44","67","6.0","10","6.0","0","87","63","130","16","0.00","0","0.0","160","13",,,,,,,,,,,,,,,,,,,,,,,,,,,,,,,,,,,,,,,,,,,,,,,,,,,,,,,,,"SOD73924 HR PRECIPITATION (IN): 0.00 SNOW DEPTH (IN):0     24 HR SNOWFALL (IN):0.0  24 HR MAX TEMP (F): 8724 HR MIN TEMP (F): 63AVERAGE STATION PRESSURE:29.445 MINIMUM SEA LEVEL PRESSURE:29.85 TIME OF OCCURRENCE:1550 PEAK WIND SPEED (MPH): 16 PEAK WIND DIR (DEG):130 PEAK WIND TIME (LST):      FASTEST 2MIN SPEED (MPH): 13FASTEST 2MIN DIR (DEG):160 FASTEST 2MIN TIME (LST):     AVERAGE WIND SPEED (MPH): 6.0 24 HR AVG TEMP (F): 75DEPART FROM NORMAL:  6  HEATING DEGREE DAYS:  0 COOLING DEGREE DAYS: 10 LATEST DAY MAX TEMP (0700-1900 LST):87  LATEST NIGHT MIN TEMP(1900-0800 LST):63 HOURLY INCREMENTAL PRECIPITATION VALUES (IN):.00 0.00 0.00 0.00 0.00 0.00 0.00 0.00 0.00 0.00 0.00 0.00 0.00 0.00 0.00 0.00 0.00 0.00 0.00 0.00 0.00 0.00 0.00 0.00","SOD  ","6",,,,,,,,,,,,,,,,,,,,,,,,,"0605","1808",,"2009-07-08"
"72306013722","2019-09-26T00:51:00","FM-15","7",,,,,,,,,,,,,,,,,,,,,,,,,,,,,,,,,,,,,,"29.90","70","72","0.00",,"+0.01","8","94","29.88","FEW:02 250","29.43","10.00","71","170",,"5",,,,,,,,,,,,,,,,,,,,,,,,,,,,,,,,,,,,,"MET11709/26/19 00:51:02 METAR KRDU 260551Z 17004KT 10SM FEW250 22/21 A2990 RMK AO2 SLP120 T02220211 10256 20222 58005 (AWB)","FM-15","7",,,,,,,,,,,,,,,,,,,,,,,,,,,,"2009-07-08"
"72306013722","2019-09-26T01:00:00","FM-12","4",,,,,,,,,,,,,,,,,,,,,,,,,,,,,,,,,,,,,,,"70","72",,,"+0.01","8","94","29.88",,"29.44","9.94","71","170",,"5",,,,,,,,,,,,,,,,,,,,,,,,,,,,,,,,,,,,,"SYN08072306 32966 21704 10222 20211 39970 40120 58005 90551 333 10256 20172 555 92606=","FM-12","4",,,,,,,,,,,,,,,,,,,,,,,,,,,,"2009-07-08"
"72306013722","2019-09-26T01:51:00","FM-15","7",,,,,,,,,,,,,,,,,,,,,,,,,,,,,,,,,,,,,,"29.89","70","72","0.00",,,,"94","29.87","CLR:00","29.42","10.00","71","170",,"3",,,,,,,,,,,,,,,,,,,,,,,,,,,,,,,,,,,,,"MET09609/26/19 01:51:02 METAR KRDU 260651Z 17003KT 10SM CLR 22/21 A2989 RMK AO2 SLP115 T02220211 (AWB)","FM-15","7",,,,,,,,,,,,,,,,,,,,,,,,,,,,"2009-07-08"
"72306013722","2019-09-26T02:51:00","FM-15","7",,,,,,,,,,,,,,,,,,,,,,,,,,,,,,,,,,,,,,"29.88","70","71","0.00",,,,"96","29.86","CLR:00","29.41","7.00","70","170",,"5",,,,,,,,,,,,,,,,,,,,,,,,,,,,,,,,,,,,,"MET09509/26/19 02:51:02 METAR KRDU 260751Z 17004KT 7SM CLR 22/21 A2988 RMK AO2 SLP113 T02170211 (AWB)","FM-15","7",,,,,,,,,,,,,,,,,,,,,,,,,,,,"2009-07-08"
"72306013722","2019-09-26T03:44:00","FM-16","7",,,,,,,,,,,,,,,,,,,,,,,,,,,,,,,,,,,,,,"29.87","70","71",,"BR:1 ||",,,"96",,"FEW:02 8","29.40","6.00","70","170",,"3",,,,,,,,,,,,,,,,,,,,,,,,,,,,,,,,,,,,,"MET09409/26/19 03:44:02 SPECI KRDU 260844Z 17003KT 6SM BR FEW008 22/21 A2987 RMK AO2 T02170211 (AWB)","FM-16","7",,,,,,,,,,,,,,,,,,,,,,,,,,,,"2009-07-08"
"72306013722","2019-09-26T03:51:00","FM-15","7",,,,,,,,,,,,,,,,,,,,,,,,,,,,,,,,,,,,,,"29.87","69","71","0.00","BR:1 ||","+0.03","6","94","29.86","FEW:02 6","29.40","6.00","70","180",,"5",,,,,,,,,,,,,,,,,,,,,,,,,,,,,,,,,,,,,"MET10709/26/19 03:51:02 METAR KRDU 260851Z 18004KT 6SM BR FEW006 22/21 A2987 RMK AO2 SLP111 T02170206 56009 (AWB)","FM-15","7",,,,,,,,,,,,,,,,,,,,,,,,,,,,"2009-07-08"
"72306013722","2019-09-26T04:51:00","FM-15","7",,,,,,,,,,,,,,,,,,,,,,,,,,,,,,,,,,,,,,"29.87","70","71","0.00","BR:1 ||",,,"96","29.86","SCT:04 6","29.40","6.00","70","190",,"6",,,,,,,,,,,,,,,,,,,,,,,,,,,,,,,,,,,,,"MET10109/26/19 04:51:02 METAR KRDU 260951Z 19005KT 6SM BR SCT006 22/21 A2987 RMK AO2 SLP111 T02170211 (AWB)","FM-15","7",,,,,,,,,,,,,,,,,,,,,,,,,,,,"2009-07-08"
"72306013722","2019-09-26T05:03:00","FM-16","7",,,,,,,,,,,,,,,,,,,,,,,,,,,,,,,,,,,,,,"29.88","70","71",,"BR:1 ||",,,"96",,"BKN:07 6","29.41","6.00","70","200",,"5",,,,,,,,,,,,,,,,,,,,,,,,,,,,,,,,,,,,,"MET09409/26/19 05:03:02 SPECI KRDU 261003Z 20004KT 6SM BR BKN006 22/21 A2988 RMK AO2 T02170211 (AWB)","FM-16","7",,,,,,,,,,,,,,,,,,,,,,,,,,,,"2009-07-08"
"72306013722","2019-09-26T05:51:00","FM-15","7",,,,,,,,,,,,,,,,,,,,,,,,,,,,,,,,,,,,,,"29.88","71","72","0.00","BR:1 ||",,,"97","29.86","OVC:08 6","29.41","6.00","71","230",,"8",,,,,,,,,,,,,,,,,,,,,,,,,,,,,,,,,,,,,"MET10109/26/19 05:51:02 METAR KRDU 261051Z 23007KT 6SM BR OVC006 22/22 A2988 RMK AO2 SLP113 T02220217 (AWB)","FM-15","7",,,,,,,,,,,,,,,,,,,,,,,,,,,,"2009-07-08"
"72306013722","2019-09-26T06:51:00","FM-15","7",,,,,,,,,,,,,,,,,,,,,,,,,,,,,,,,,,,,,,"29.89","71","72","0.00","BR:1 ||","-0.02","3","97","29.88","BKN:07 6","29.42","6.00","71","230",,"8",,,,,,,,,,,,,,,,,,,,,,,,,,,,,,,,,,,,,"MET11909/26/19 06:51:02 METAR KRDU 261151Z 23007KT 6SM BR BKN006 22/22 A2989 RMK AO2 SLP118 T02220217 10222 20211 53007 (KAH)","FM-15","7",,,,,,,,,,,,,,,,,,,,,,,,,,,,"2009-07-08"
"72306013722","2019-09-26T07:00:00","FM-12","4",,,,,,,,,,,,,,,,,,,,,,,,,,,,,,,,,,,,,,,"71","72",,,"-0.02","3","97","29.88","5","29.43","5.59","71","230",,"8",,,,,,,,,,,,,,,,,,,,,,,,,,,,,,,,,,,,,"SYN08672306 31259 62307 10222 20217 39966 40118 53007 710// 91151 333 10306 20211 555 92612=","FM-12","4",,,,,,,,,,,,,,,,,,,,,,,,,,,,"2009-07-08"
"72306013722","2019-09-26T07:51:00","FM-15","7",,,,,,,,,,,,,,,,,,,,,,,,,,,,,,,,,,,,,,"29.91","70","74","0.00",,,,"88","29.89","BKN:07 10","29.44","8.00","71","230",,"13",,,,,,,,,,,,,,,,,,,,,,,,,,,,,,,,,,,,,"MET09809/26/19 07:51:02 METAR KRDU 261251Z 23011KT 8SM BKN010 23/21 A2991 RMK AO2 SLP123 T02330211 (KAH)","FM-15","7",,,,,,,,,,,,,,,,,,,,,,,,,,,,"2009-07-08"
"72306013722","2019-09-26T08:51:00","FM-15","7",,,,,,,,,,,,,,,,,,,,,,,,,,,,,,,,,,,,,,"29.91","70","77","0.00",,,,"79","29.90","BKN:07 11","29.44","10.00","72","220",,"9",,,,,,,,,,,,,,,,,,,,,,,,,,,,,,,,,,,,,"MET09909/26/19 08:51:02 METAR KRDU 261351Z 22008KT 10SM BKN011 25/21 A2991 RMK AO2 SLP124 T02500211 (KAH)","FM-15","7",,,,,,,,,,,,,,,,,,,,,,,,,,,,"2009-07-08"
"72306013722","2019-09-26T09:20:00","FM-16","7",,,,,,,,,,,,,,,,,,,,,,,,,,,,,,,,,,,,,,"29.91","70","79",,,,,"74",,"SCT:04 15 SCT:04 120","29.44","10.00","73","210",,"9",,,,,,,,,,,,,,,,,,,,,,,,,,,,,,,,,,,,,"MET09909/26/19 09:20:02 SPECI KRDU 261420Z 21008KT 10SM SCT015 SCT120 26/21 A2991 RMK AO2 T02610211 (KAH)","FM-16","7",,,,,,,,,,,,,,,,,,,,,,,,,,,,"2009-07-08"
"72306013722","2019-09-26T09:51:00","FM-15","7",,,,,,,,,,,,,,,,,,,,,,,,,,,,,,,,,,,,,,"29.91","69","80","0.00",,"-0.01","0","69","29.89","FEW:02 120 FEW:02 250","29.44","10.00","73","220",,"8",,,,,,,,,,,,,,,,,,,,,,,,,,,,,,,,,,,,,"MET11209/26/19 09:51:02 METAR KRDU 261451Z 22007KT 10SM FEW120 FEW250 27/21 A2991 RMK AO2 SLP122 T02670206 50004 (KAH)","FM-15","7",,,,,,,,,,,,,,,,,,,,,,,,,,,,"2009-07-08"
"72306013722","2019-09-26T10:51:00","FM-15","7",,,,,,,,,,,,,,,,,,,,,,,,,,,,,,,,,,,,,,"29.91","67","85","0.00",,,,"55","29.89","FEW:02 150 FEW:02 250","29.44","10.00","73","240",,"7",,,,,,,,,,,,,,,,,,,,,,,,,,,,,,,,,,,,,"MET10809/26/19 10:51:02 METAR KRDU 261551Z 24006KT 10SM FEW150 FEW250 29/19 A2991 RMK AO2 SLP122 T02940194 $ (KAH)","FM-15","7",,,,,,,,,,,,,,,,,,,,,,,,,,,,"2009-07-08"
"72306013722","2019-09-26T11:51:00","FM-15","7",,,,,,,,,,,,,,,,,,,,,,,,,,,,,,,,,,,,,,"29.88","66","89","0.00",,,,"47","29.87","FEW:02 50 SCT:04 160 SCT:04 250","29.41","10.00","73","220",,"11",,,,,,,,,,,,,,,,,,,,,,,,,,,,,,,,,,,,,"MET11509/26/19 11:51:02 METAR KRDU 261651Z 22010KT 10SM FEW050 SCT160 SCT250 32/19 A2988 RMK AO2 SLP114 T03170189 $ (KAH)","FM-15","7",,,,,,,,,,,,,,,,,,,,,,,,,,,,"2009-07-08"
"72306013722","2019-09-26T12:51:00","FM-15","7",,,,,,,,,,,,,,,,,,,,,,,,,,,,,,,,,,,,,,"29.86","62","92","0.00",,"+0.04","8","37","29.84","FEW:02 65 SCT:04 160 SCT:04 250","29.39","10.00","72","230",,"6",,,,,,,,,,,,,,,,,,,,,,,,,,,,,,,,,,,,,"MET13309/26/19 12:51:02 METAR KRDU 261751Z 23005KT 10SM FEW065 SCT160 SCT250 33/17 A2986 RMK AO2 SLP106 T03330167 10344 20222 58015 $ (KAH)","FM-15","7",,,,,,,,,,,,,,,,,,,,,,,,,,,,"2009-07-08"
"72306013722","2019-09-26T13:00:00","FM-12","4",,,,,,,,,,,,,,,,,,,,,,,,,,,,,,,,,,,,,,,"62","92",,,"+0.04","8","37","29.84","57","29.40","9.94","72","230",,"6",,,,,,,,,,,,,,,,,,,,,,,,,,,,,,,,,,,,,"SYN08072306 32766 42305 10333 20167 39956 40106 58015 91751 333 10344 20222 555 92618=","FM-12","4",,,,,,,,,,,,,,,,,,,,,,,,,,,,"2009-07-08"
"72306013722","2019-09-26T13:51:00","FM-15","7",,,,,,,,,,,,,,,,,,,,,,,,,,,,,,,,,,,,,,"29.84","61","93","0.00",,,,"34","29.82","FEW:02 70 FEW:02 150 SCT:04 250","29.37","10.00","72","230",,"9",,,,,,,,,,,,,,,,,,,,,,,,,,,,,,,,,,,,,"MET11509/26/19 13:51:02 METAR KRDU 261851Z 23008KT 10SM FEW070 FEW150 SCT250 34/16 A2984 RMK AO2 SLP098 T03390161 $ (KAH)","FM-15","7",,,,,,,,,,,,,,,,,,,,,,,,,,,,"2009-07-08"
"72306013722","2019-09-26T14:51:00","FM-15","7",,,,,,,,,,,,,,,,,,,,,,,,,,,,,,,,,,,,,,"29.83","60","92","0.00",,,,"34","29.81","BKN:07 80 BKN:07 250","29.36","10.00","71","220",,"13",,,,,,,,,,,,,,,,,,,,,,,,,,,,,,,,,,,,,"MET10809/26/19 14:51:02 METAR KRDU 261951Z 22011KT 10SM BKN080 BKN250 33/16 A2983 RMK AO2 SLP094 T03330156 $ (JBA)","FM-15","7",,,,,,,,,,,,,,,,,,,,,,,,,,,,"2009-07-08"
"72306013722","2019-09-26T15:51:00","FM-15","7",,,,,,,,,,,,,,,,,,,,,,,,,,,,,,,,,,,,,,"29.82","62","93","0.00",,"+0.04","6","36","29.80","SCT:04 80 BKN:07 150 BKN:07 250","29.35","10.00","72","230",,"13",,,,,,,,,,,,,,,,,,,,,,,,,,,,,,,,,,,,,"MET12109/26/19 15:51:02 METAR KRDU 262051Z 23011KT 10SM SCT080 BKN150 BKN250 34/17 A2982 RMK AO2 SLP091 T03390167 56015 $ (JBA)","FM-15","7",,,,,,,,,,,,,,,,,,,,,,,,,,,,"2009-07-08"
"72306013722","2019-09-26T16:51:00","FM-15","7",,,,,,,,,,,,,,,,,,,,,,,,,,,,,,,,,,,,,,"29.83","62","91","0.00",,,,"38","29.81","FEW:02 80 SCT:04 150 SCT:04 250","29.36","10.00","72","280",,"7",,,,,,,,,,,,,,,,,,,,,,,,,,,,,,,,,,,,,"MET11509/26/19 16:51:02 METAR KRDU 262151Z 28006KT 10SM FEW080 SCT150 SCT250 33/17 A2983 RMK AO2 SLP094 T03280167 $ (JBA)","FM-15","7",,,,,,,,,,,,,,,,,,,,,,,,,,,,"2009-07-08"
"72306013722","2019-09-26T17:51:00","FM-15","7",,,,,,,,,,,,,,,,,,,,,,,,,,,,,,,,,,,,,,"29.84","66","87","0.00",,,,"50","29.82","BKN:07 80 BKN:07 250","29.37","10.00","73","160",,"5",,,,,,,,,,,,,,,,,,,,,,,,,,,,,,,,,,,,,"MET10809/26/19 17:51:02 METAR KRDU 262251Z 16004KT 10SM BKN080 BKN250 31/19 A2984 RMK AO2 SLP099 T03060189 $ (JBA)","FM-15","7",,,,,,,,,,,,,,,,,,,,,,,,,,,,"2009-07-08"
"72306013722","2019-09-26T18:51:00","FM-15","7",,,,,,,,,,,,,,,,,,,,,,,,,,,,,,,,,,,,,,"29.86","68","83","0.00",,"-0.04","3","61","29.84","SCT:04 80 SCT:04 250","29.39","10.00","73","000",,"0",,,,,,,,,,,,,,,,,,,,,,,,,,,,,,,,,,,,,"MET12609/26/19 18:51:02 METAR KRDU 262351Z 00000KT 10SM SCT080 SCT250 28/20 A2986 RMK AO2 SLP105 T02830200 10344 20283 53013 $ (JBA)","FM-15","7",,,,,,,,,,,,,,,,,,,,,,,,,,,,"2009-07-08"
"72306013722","2019-09-26T19:00:00","FM-12","4",,,,,,,,,,,,,,,,,,,,,,,,,,,,,,,,,,,,,,,"68","83",,,"-0.04","3","61","29.84","74","29.40","9.94","73","000",,"0",,,,,,,,,,,,,,,,,,,,,,,,,,,,,,,,,,,,,"SYN08072306 32866 40000 10283 20200 39956 40105 53013 92351 333 10344 20211 555 92700=","FM-12","4",,,,,,,,,,,,,,,,,,,,,,,,,,,,"2009-07-08"
"72306013722","2019-09-26T19:51:00","FM-15","7",,,,,,,,,,,,,,,,,,,,,,,,,,,,,,,,,,,,,,"29.88","68","80","0.00",,,,"67","29.86","SCT:04 100 SCT:04 250","29.41","10.00","72","000",,"0",,,,,,,,,,,,,,,,,,,,,,,,,,,,,,,,,,,,,"MET10209/26/19 19:51:01 METAR KRDU 270051Z 00000KT 10SM SCT100 SCT250 27/20 A2988 RMK AO2 SLP113 T02670200 $","FM-15","7",,,,,,,,,,,,,,,,,,,,,,,,,,,,"2009-07-08"
"72306013722","2019-09-26T20:51:00","FM-15","7",,,,,,,,,,,,,,,,,,,,,,,,,,,,,,,,,,,,,,"29.91","68","78","0.00",,,,"71","29.89","BKN:07 85 BKN:07 250","29.44","10.00","71","000",,"0",,,,,,,,,,,,,,,,,,,,,,,,,,,,,,,,,,,,,"MET10209/26/19 20:51:01 METAR KRDU 270151Z 00000KT 10SM BKN085 BKN250 26/20 A2991 RMK AO2 SLP123 T02560200 $","FM-15","7",,,,,,,,,,,,,,,,,,,,,,,,,,,,"2009-07-08"
"72306013722","2019-09-26T21:51:00","FM-15","6",,,,,,,,,,,,,,,,,,,,,,,,,,,,,,,,,,,,,,"29.93","68","78","0.00",,"-0.07","1","71","29.91","FEW:02 85 SCT:04 250","29.46","10.00","71","000",,"0",,,,,,,,,,,,,,,,,,,,,,,,,,,,,,,,,,,,,"MET10809/26/19 21:51:01 METAR KRDU 270251Z 00000KT 10SM FEW085 SCT250 26/20 A2993 RMK AO2 SLP128 T02560200 51024 $","FM-15","6",,,,,,,,,,,,,,,,,,,,,,,,,,,,"2009-07-08"
"72306013722","2019-09-26T22:51:00","FM-15","7",,,,,,,,,,,,,,,,,,,,,,,,,,,,,,,,,,,,,,"29.93","68","75","0.00",,,,"79","29.91","FEW:02 85","29.46","10.00","70","010",,"3",,,,,,,,,,,,,,,,,,,,,,,,,,,,,,,,,,,,,"MET09509/26/19 22:51:01 METAR KRDU 270351Z 01003KT 10SM FEW085 24/20 A2993 RMK AO2 SLP129 T02390200 $","FM-15","7",,,,,,,,,,,,,,,,,,,,,,,,,,,,"2009-07-08"
"72306013722","2019-09-26T23:51:00","FM-15","7",,,,,,,,,,,,,,,,,,,,,,,,,,,,,,,,,,,,,,"29.94","66","73","0.00",,,,"79","29.92","FEW:02 85","29.47","10.00","68","020",,"3",,,,,,,,,,,,,,,,,,,,,,,,,,,,,,,,,,,,,"MET10509/26/19 23:51:01 METAR KRDU 270451Z 02003KT 10SM FEW085 23/19 A2994 RMK AO2 SLP131 T02280189 403440211 $","FM-15","7",,,,,,,,,,,,,,,,,,,,,,,,,,,,"2009-07-08"
"72306013722","2019-09-26T23:59:00","SOD  ","6",,,,,,,,,,,,,,,"67","82","68","29.86","29.41","71","6.1","17","13.4","0","94","70","240","20","0.00","0","0.0","240","17","BR",,,,,,,,,,,,,,,,,,,,,,,,,,,,,,,,,,,,,,,,,,,,,,,,,,,,,,,,"SOD75624 HR PRECIPITATION (IN): 0.00 SNOW DEPTH (IN):0     24 HR SNOWFALL (IN):0.0  WEATHER(CODE):1  24 HR MAX TEMP (F): 9424 HR MIN TEMP (F): 70AVERAGE STATION PRESSURE:29.405 MINIMUM SEA LEVEL PRESSURE:29.80 TIME OF OCCURRENCE:1645 PEAK WIND SPEED (MPH): 20 PEAK WIND DIR (DEG):240 PEAK WIND TIME (LST):      FASTEST 2MIN SPEED (MPH): 17FASTEST 2MIN DIR (DEG):240 FASTEST 2MIN TIME (LST):     AVERAGE WIND SPEED (MPH): 6.1 24 HR AVG TEMP (F): 82DEPART FROM NORMAL: 14  HEATING DEGREE DAYS:  0 COOLING DEGREE DAYS: 17 LATEST DAY MAX TEMP (0700-1900 LST):94  LATEST NIGHT MIN TEMP(1900-0800 LST):70 HOURLY INCREMENTAL PRECIPITATION VALUES (IN):.00 0.00 0.00 0.00 0.00 0.00 0.00 0.00 0.00 0.00 0.00 0.00 0.00 0.00 0.00 0.00 0.00 0.00 0.00 0.00 0.00 0.00 0.00 0.00","SOD  ","6",,,,,,,,,,,,,,,,,,,,,,,,,"0606","1806",,"2009-07-08"
"72306013722","2019-09-27T00:51:00","FM-15","7",,,,,,,,,,,,,,,,,,,,,,,,,,,,,,,,,,,,,,"29.94","65","76","0.00",,"-0.01","1","69","29.92","FEW:02 85","29.47","10.00","69","060","21","13",,,,,,,,,,,,,,,,,,,,,,,,,,,,,,,,,,,,,"MET12209/27/19 00:51:02 METAR KRDU 270551Z 06011G18KT 10SM FEW085 24/18 A2994 RMK AO2 SLP131 T02440183 10283 20228 51003 $ (AWB)","FM-15","7",,,,,,,,,,,,,,,,,,,,,,,,,,,,"2009-07-08"
"72306013722","2019-09-27T01:00:00","FM-12","4",,,,,,,,,,,,,,,,,,,,,,,,,,,,,,,,,,,,,,,"65","76",,,"-0.01","1","69","29.92",,"29.48","9.94","69","060",,"13",,,,,,,,,,,,,,,,,,,,,,,,,,,,,,,,,,,,,"SYN08672306 32966 20611 10244 20183 39983 40131 51003 90551 333 10283 20211 91018 555 92706=","FM-12","4",,,,,,,,,,,,,,,,,,,,,,,,,,,,"2009-07-08"
"72306013722","2019-09-27T01:51:00","FM-15","7",,,,,,,,,,,,,,,,,,,,,,,,,,,,,,,,,,,,,,"29.94","63","74","0.00",,,,"69","29.93","FEW:02 85","29.47","10.00","67","060",,"7",,,,,,,,,,,,,,,,,,,,,,,,,,,,,,,,,,,,,"MET10109/27/19 01:51:02 METAR KRDU 270651Z 06006KT 10SM FEW085 23/17 A2994 RMK AO2 SLP134 T02330172 $ (AWB)","FM-15","7",,,,,,,,,,,,,,,,,,,,,,,,,,,,"2009-07-08"
"72306013722","2019-09-27T02:51:00","FM-15","7",,,,,,,,,,,,,,,,,,,,,,,,,,,,,,,,,,,,,,"29.95","63","73","0.00",,,,"71","29.93","FEW:02 85","29.48","10.00","67","050",,"8",,,,,,,,,,,,,,,,,,,,,,,,,,,,,,,,,,,,,"MET10109/27/19 02:51:02 METAR KRDU 270751Z 05007KT 10SM FEW085 23/17 A2995 RMK AO2 SLP135 T02280172 $ (AWB)","FM-15","7",,,,,,,,,,,,,,,,,,,,,,,,,,,,"2009-07-08"
"72306013722","2019-09-27T03:51:00","FM-15","7",,,,,,,,,,,,,,,,,,,,,,,,,,,,,,,,,,,,,,"29.97","63","72","0.00",,"-0.03","3","73","29.95","FEW:02 85","29.50","10.00","66","030",,"6",,,,,,,,,,,,,,,,,,,,,,,,,,,,,,,,,,,,,"MET10709/27/19 03:51:02 METAR KRDU 270851Z 03005KT 10SM FEW085 22/17 A2997 RMK AO2 SLP143 T02220172 53011 $ (AWB)","FM-15","7",,,,,,,,,,,,,,,,,,,,,,,,,,,,"2009-07-08"
"72306013722","2019-09-27T04:51:00","FM-15","7",,,,,,,,,,,,,,,,,,,,,,,,,,,,,,,,,,,,,,"29.99","64","71","0.00",,,,"79","29.97","FEW:02 85","29.52","10.00","67","010",,"5",,,,,,,,,,,,,,,,,,,,,,,,,,,,,,,,,,,,,"MET10109/27/19 04:51:02 METAR KRDU 270951Z 01004KT 10SM FEW085 22/18 A2999 RMK AO2 SLP149 T02170178 $ (AWB)","FM-15","7",,,,,,,,,,,,,,,,,,,,,,,,,,,,"2009-07-08"
"72306013722","2019-09-27T05:51:00","FM-15","7",,,,,,,,,,,,,,,,,,,,,,,,,,,,,,,,,,,,,,"30.01","63","69","0.00",,,,"81","30.00","FEW:02 70","29.54","10.00","65","040",,"6",,,,,,,,,,,,,,,,,,,,,,,,,,,,,,,,,,,,,"MET09909/27/19 05:51:02 METAR KRDU 271051Z 04005KT 10SM FEW070 21/17 A3001 RMK AO2 SLP158 T02060172 (AWB)","FM-15","7",,,,,,,,,,,,,,,,,,,,,,,,,,,,"2009-07-08"
"72306013722","2019-09-27T06:51:00","FM-15","7",,,,,,,,,,,,,,,,,,,,,,,,,,,,,,,,,,,,,,"30.04","64","71","0.00",,"-0.06","3","79","30.02","FEW:02 70 FEW:02 250","29.57","10.00","67","060",,"7",,,,,,,,,,,,,,,,,,,,,,,,,,,,,,,,,,,,,"MET12409/27/19 06:51:02 METAR KRDU 271151Z 06006KT 10SM FEW070 FEW250 22/18 A3004 RMK AO2 SLP166 T02170178 10244 20200 53022 (KAH)","FM-15","7",,,,,,,,,,,,,,,,,,,,,,,,,,,,"2009-07-08"
"72306013722","2019-09-27T07:00:00","FM-12","4",,,,,,,,,,,,,,,,,,,,,,,,,,,,,,,,,,,,,,,"64","71",,,"-0.06","3","79","30.02","74","29.58","9.94","67","060",,"7",,,,,,,,,,,,,,,,,,,,,,,,,,,,,,,,,,,,,"SYN08072306 32866 20606 10217 20178 30017 40166 53022 91151 333 10344 20200 555 92712=","FM-12","4",,,,,,,,,,,,,,,,,,,,,,,,,,,,"2009-07-08"
"72306013722","2019-09-27T07:51:00","FM-15","7",,,,,,,,,,,,,,,,,,,,,,,,,,,,,,,,,,,,,,"30.06","62","74","0.00",,,,"67","30.04","FEW:02 70 FEW:02 250","29.59","10.00","66","070",,"13",,,,,,,,,,,,,,,,,,,,,,,,,,,,,,,,,,,,,"MET10609/27/19 07:51:02 METAR KRDU 271251Z 07011KT 10SM FEW070 FEW250 23/17 A3006 RMK AO2 SLP173 T02330167 (KAH)","FM-15","7",,,,,,,,,,,,,,,,,,,,,,,,,,,,"2009-07-08"
"72306013722","2019-09-27T08:51:00","FM-15","7",,,,,,,,,,,,,,,,,,,,,,,,,,,,,,,,,,,,,,"30.08","61","77","0.00",,,,"58","30.06","BKN:07 75 BKN:07 250","29.61","10.00","67","100",,"11",,,,,,,,,,,,,,,,,,,,,,,,,,,,,,,,,,,,,"MET10609/27/19 08:51:02 METAR KRDU 271351Z 10010KT 10SM BKN075 BKN250 25/16 A3008 RMK AO2 SLP180 T02500161 (KAH)","FM-15","7",,,,,,,,,,,,,,,,,,,,,,,,,,,,"2009-07-08"
"72306013722","2019-09-27T09:51:00","FM-15","7",,,,,,,,,,,,,,,,,,,,,,,,,,,,,,,,,,,,,,"30.09","61","78","0.00",,"-0.05","1","56","30.07","FEW:02 38 SCT:04 75 SCT:04 250","29.62","10.00","67","090",,"16",,,,,,,,,,,,,,,,,,,,,,,,,,,,,,,,,,,,,"MET11909/27/19 09:51:02 METAR KRDU 271451Z 09014KT 10SM FEW038 SCT075 SCT250 26/16 A3009 RMK AO2 SLP184 T02560161 51017 (KAH)","FM-15","7",,,,,,,,,,,,,,,,,,,,,,,,,,,,"2009-07-08"
"72306013722","2019-09-27T10:51:00","FM-15","7",,,,,,,,,,,,,,,,,,,,,,,,,,,,,,,,,,,,,,"30.09","61","80","0.00",,,,"52","30.07","FEW:02 40 BKN:07 90 BKN:07 250","29.62","10.00","68","080",,"9",,,,,,,,,,,,,,,,,,,,,,,,,,,,,,,,,,,,,"MET11309/27/19 10:51:02 METAR KRDU 271551Z 08008KT 10SM FEW040 BKN090 BKN250 27/16 A3009 RMK AO2 SLP184 T02670161 (KAH)","FM-15","7",,,,,,,,,,,,,,,,,,,,,,,,,,,,"2009-07-08"
"72306013722","2019-09-27T11:51:00","FM-15","7",,,,,,,,,,,,,,,,,,,,,,,,,,,,,,,,,,,,,,"30.08","63","82","0.00",,,,"53","30.06","FEW:02 42 SCT:04 95 SCT:04 250","29.61","10.00","70","070",,"9",,,,,,,,,,,,,,,,,,,,,,,,,,,,,,,,,,,,,"MET11309/27/19 11:51:02 METAR KRDU 271651Z 07008KT 10SM FEW042 SCT095 SCT250 28/17 A3008 RMK AO2 SLP180 T02780172 (KAH)","FM-15","7",,,,,,,,,,,,,,,,,,,,,,,,,,,,"2009-07-08"
"72306013722","2019-09-27T12:51:00","FM-15","7",,,,,,,,,,,,,,,,,,,,,,,,,,,,,,,,,,,,,,"30.05","66","84","0.00",,"+0.03","8","55","30.04","FEW:02 45 FEW:02 100 FEW:02 250","29.58","10.00","72","VRB",,"3",,,,,,,,,,,,,,,,,,,,,,,,,,,,,,,,,,,,,"MET13109/27/19 12:51:02 METAR KRDU 271751Z VRB03KT 10SM FEW045 FEW100 FEW250 29/19 A3005 RMK AO2 SLP172 T02890189 10300 20217 58011 (KAH)","FM-15","7",,,,,,,,,,,,,,,,,,,,,,,,,,,,"2009-07-08"
"72306013722","2019-09-27T13:00:00","FM-12","4",,,,,,,,,,,,,,,,,,,,,,,,,,,,,,,,,,,,,,,"66","84",,,"+0.03","8","55","30.04","41","29.59","9.94","72",,,"3",,,,,,,,,,,,,,,,,,,,,,,,,,,,,,,,,,,,,"SYN08072306 32666 2//03 10289 20189 30020 40172 58011 91751 333 10300 20217 555 92718=","FM-12","4",,,,,,,,,,,,,,,,,,,,,,,,,,,,"2009-07-08"
"72306013722","2019-09-27T13:51:00","FM-15","7",,,,,,,,,,,,,,,,,,,,,,,,,,,,,,,,,,,,,,"30.03","68","87","0.00",,,,"53","30.01","FEW:02 45 FEW:02 100 FEW:02 250","29.56","10.00","74","090",,"11",,,,,,,,,,,,,,,,,,,,,,,,,,,,,,,,,,,,,"MET11309/27/19 13:51:02 METAR KRDU 271851Z 09010KT 10SM FEW045 FEW100 FEW250 31/20 A3003 RMK AO2 SLP164 T03060200 (KAH)","FM-15","7",,,,,,,,,,,,,,,,,,,,,,,,,,,,"2009-07-08"
"72306013722","2019-09-27T14:51:00","FM-15","7",,,,,,,,,,,,,,,,,,,,,,,,,,,,,,,,,,,,,,"30.02","69","86","0.00",,,,"57","30.00","SCT:04 41 BKN:07 250","29.55","10.00","74","120",,"6",,,,,,,,,,,,,,,,,,,,,,,,,,,,,,,,,,,,,"MET10609/27/19 14:51:02 METAR KRDU 271951Z 12005KT 10SM SCT041 BKN250 30/21 A3002 RMK AO2 SLP159 T03000206 (JBA)","FM-15","7",,,,,,,,,,,,,,,,,,,,,,,,,,,,"2009-07-08"
"72306013722","2019-09-27T15:51:00","FM-15","7",,,,,,,,,,,,,,,,,,,,,,,,,,,,,,,,,,,,,,"30.01","70","85","0.00",,"+0.04","6","61","30.00","SCT:04 35 SCT:04 70 BKN:07 250","29.54","10.00","75","130",,"6",,,,,,,,,,,,,,,,,,,,,,,,,,,,,,,,,,,,,"MET11909/27/19 15:51:02 METAR KRDU 272051Z 13005KT 10SM SCT035 SCT070 BKN250 29/21 A3001 RMK AO2 SLP158 T02940211 56014 (JBA)","FM-15","7",,,,,,,,,,,,,,,,,,,,,,,,,,,,"2009-07-08"
"72306013722","2019-09-27T16:51:00","FM-15","7",,,,,,,,,,,,,,,,,,,,,,,,,,,,,,,,,,,,,,"30.03","71","83","0.00",,,,"67","30.02","SCT:04 30 BKN:07 250","29.56","10.00","75","140",,"9",,,,,,,,,,,,,,,,,,,,,,,,,,,,,,,,,,,,,"MET10609/27/19 16:51:02 METAR KRDU 272151Z 14008KT 10SM SCT030 BKN250 28/22 A3003 RMK AO2 SLP165 T02830217 (JBA)","FM-15","7",,,,,,,,,,,,,,,,,,,,,,,,,,,,"2009-07-08"
"72306013722","2019-09-27T17:51:00","FM-15","7",,,,,,,,,,,,,,,,,,,,,,,,,,,,,,,,,,,,,,"30.04","71","82","0.00",,,,"69","30.03","SCT:04 42 OVC:08 250","29.57","10.00","74","120",,"6",,,,,,,,,,,,,,,,,,,,,,,,,,,,,,,,,,,,,"MET10609/27/19 17:51:02 METAR KRDU 272251Z 12005KT 10SM SCT042 OVC250 28/22 A3004 RMK AO2 SLP169 T02780217 (JBA)","FM-15","7",,,,,,,,,,,,,,,,,,,,,,,,,,,,"2009-07-08"
"72306013722","2019-09-27T18:51:00","FM-15","7",,,,,,,,,,,,,,,,,,,,,,,,,,,,,,,,,,,,,,"30.06","71","79","0.00",,"-0.04","1","77","30.04","FEW:02 45 OVC:08 250","29.59","10.00","74","080",,"9",,,,,,,,,,,,,,,,,,,,,,,,,,,,,,,,,,,,,"MET14009/27/19 18:51:02 METAR KRDU 272351Z 08008KT 10SM FEW045 OVC250 26/22 A3006 RMK AO2 SLP174 OCNL LTG DSNT S T02610217 10311 20261 51015 (JBA)","FM-15","7",,,,,,,,,,,,,,,,,,,,,,,,,,,,"2009-07-08"
"72306013722","2019-09-27T19:00:00","FM-12","4",,,,,,,,,,,,,,,,,,,,,,,,,,,,,,,,,,,,,,,"71","79",,,"-0.04","1","77","30.04","41","29.60","9.94","74","080",,"9",,,,,,,,,,,,,,,,,,,,,,,,,,,,,,,,,,,,,"SYN08072306 32666 80808 10261 20217 30023 40174 51015 92351 333 10311 20200 555 92800=","FM-12","4",,,,,,,,,,,,,,,,,,,,,,,,,,,,"2009-07-08"
"72306013722","2019-09-27T19:51:00","FM-15","7",,,,,,,,,,,,,,,,,,,,,,,,,,,,,,,,,,,,,,"30.07","71","78","0.00",,,,"79","30.05","FEW:02 45 OVC:08 250","29.60","10.00","73","120",,"11",,,,,,,,,,,,,,,,,,,,,,,,,,,,,,,,,,,,,"MET11909/27/19 19:51:01 METAR KRDU 280051Z 12010KT 10SM FEW045 OVC250 26/22 A3007 RMK AO2 SLP177 OCNL LTG DSNT SE-S T02560217","FM-15","7",,,,,,,,,,,,,,,,,,,,,,,,,,,,"2009-07-08"
"72306013722","2019-09-27T20:51:00","FM-15","7",,,,,,,,,,,,,,,,,,,,,,,,,,,,,,,,,,,,,,"30.08","71","78","0.00",,,,"79","30.07","SCT:04 43 BKN:07 70 OVC:08 250","29.61","10.00","73","120",,"9",,,,,,,,,,,,,,,,,,,,,,,,,,,,,,,,,,,,,"MET12609/27/19 20:51:01 METAR KRDU 280151Z 12008KT 10SM SCT043 BKN070 OVC250 26/22 A3008 RMK AO2 SLP182 OCNL LTG DSNT S-SW T02560217","FM-15","7",,,,,,,,,,,,,,,,,,,,,,,,,,,,"2009-07-08"
"72306013722","2019-09-27T21:51:00","FM-15","7",,,,,,,,,,,,,,,,,,,,,,,,,,,,,,,,,,,,,,"30.10","71","77","0.00",,"-0.04","3","82","30.09","SCT:04 15 SCT:04 43 BKN:07 70","29.63","10.00","73","130",,"6",,,,,,,,,,,,,,,,,,,,,,,,,,,,,,,,,,,,,"MET11309/27/19 21:51:01 METAR KRDU 280251Z 13005KT 10SM SCT015 SCT043 BKN070 25/22 A3010 RMK AO2 SLP188 T02500217 53014","FM-15","7",,,,,,,,,,,,,,,,,,,,,,,,,,,,"2009-07-08"
"72306013722","2019-09-27T22:51:00","FM-15","7",,,,,,,,,,,,,,,,,,,,,,,,,,,,,,,,,,,,,,"30.11","71","76","0.00",,,,"85","30.09","FEW:02 15 SCT:04 50 SCT:04 70","29.64","10.00","73","160",,"3",,,,,,,,,,,,,,,,,,,,,,,,,,,,,,,,,,,,,"MET10709/27/19 22:51:02 METAR KRDU 280351Z 16003KT 10SM FEW015 SCT050 SCT070 24/22 A3011 RMK AO2 SLP190 T02440217","FM-15","7",,,,,,,,,,,,,,,,,,,,,,,,,,,,"2009-07-08"
"72306013722","2019-09-27T23:51:00","FM-15","7",,,,,,,,,,,,,,,,,,,,,,,,,,,,,,,,,,,,,,"30.09","71","75","T","-RA:02 |RA |RA",,,"88","30.08","FEW:02 50 SCT:04 75 OVC:08 170","29.62","10.00","72","150",,"5",,,,,,,,,,,,,,,,,,,,,,,,,,,,,,,,,,,,,"MET13909/27/19 23:51:02 METAR KRDU 280451Z 15004KT 10SM -RA FEW050 SCT075 OVC170 24/22 A3009 RMK AO2 RAB08E33B49 SLP185 P0000 T02390217 403110200","FM-15","7",,,,,,,,,,,,,,,,,,,,,,,,,,,,"2009-07-08"
"72306013722","2019-09-27T23:59:00","SOD  ","6",,,,,,,,,,,,,,,"66","78","69","30.02","29.54","70","8.1","13","9.8","0","88","68","090","23","T","0","0.0","090","17","RA",,,,,,,,,,,,,,,,,,,,,,,,,,,,,,,,,,,,,,,,,,,,,,,,,,,,,,,,"SOD73624 HR PRECIPITATION (IN):    T SNOW DEPTH (IN):0     24 HR SNOWFALL (IN):0.0  24 HR MAX TEMP (F): 8824 HR MIN TEMP (F): 68AVERAGE STATION PRESSURE:29.545 MINIMUM SEA LEVEL PRESSURE:29.92 TIME OF OCCURRENCE:0249 PEAK WIND SPEED (MPH): 23 PEAK WIND DIR (DEG): 90 PEAK WIND TIME (LST):      FASTEST 2MIN SPEED (MPH): 17FASTEST 2MIN DIR (DEG): 90 FASTEST 2MIN TIME (LST):     AVERAGE WIND SPEED (MPH): 8.1 24 HR AVG TEMP (F): 78DEPART FROM NORMAL: 10  HEATING DEGREE DAYS:  0 COOLING DEGREE DAYS: 13 LATEST DAY MAX TEMP (0700-1900 LST):88  LATEST NIGHT MIN TEMP(1900-0800 LST):68 HOURLY INCREMENTAL PRECIPITATION VALUES (IN):.00 0.00 0.00 0.00 0.00 0.00 0.00 0.00 0.00 0.00 0.00 0.00 0.00 0.00 0.00 0.00 0.00 0.00 0.00 0.00 0.00 0.00 0.00 T","SOD  ","6",,,,,,,,,,,,,,,,,,,,,,,,,"0607","1805",,"2009-07-08"
"72306013722","2019-09-28T00:51:00","FM-15","7",,,,,,,,,,,,,,,,,,,,,,,,,,,,,,,,,,,,,,"30.08","71","73","T",,"+0.02","8","94","30.06","FEW:02 50 FEW:02 85 BKN:07 170","29.61","10.00","72","170",,"5",,,,,,,,,,,,,,,,,,,,,,,,,,,,,,,,,,,,,"MET14909/28/19 00:51:02 METAR KRDU 280551Z 17004KT 10SM FEW050 FEW085 BKN170 23/22 A3008 RMK AO2 RAE20 SLP180 P0000 60000 T02280217 10261 20228 58007 (SMK)","FM-15","7",,,,,,,,,,,,,,,,,,,,,,,,,,,,"2009-07-08"
"72306013722","2019-09-28T01:00:00","FM-12","4",,,,,,,,,,,,,,,,,,,,,,,,,,,,,,,,,,,,,,,"71","73",,,"+0.02","8","94","30.06","57","29.62","9.94","72","170",,"5",,,,,,,,,,,,,,,,,,,,,,,,,,,,,,,,,,,,,"SYN08672306 12766 61704 10228 20217 30030 40180 58007 69901 90551 333 10261 20200 555 92806=","FM-12","4",,,,,,,,,,,,,,,,,,,,,,,,,,,,"2009-07-08"
"72306013722","2019-09-28T01:51:00","FM-15","7",,,,,,,,,,,,,,,,,,,,,,,,,,,,,,,,,,,,,,"30.08","71","73","0.00",,,,"94","30.06","FEW:02 15 FEW:02 85 SCT:04 170","29.61","10.00","72","210",,"3",,,,,,,,,,,,,,,,,,,,,,,,,,,,,,,,,,,,,"MET11309/28/19 01:51:02 METAR KRDU 280651Z 21003KT 10SM FEW015 FEW085 SCT170 23/22 A3008 RMK AO2 SLP180 T02280217 (SMK)","FM-15","7",,,,,,,,,,,,,,,,,,,,,,,,,,,,"2009-07-08"
"72306013722","2019-09-28T02:32:00","FM-16","7",,,,,,,,,,,,,,,,,,,,,,,,,,,,,,,,,,,,,,"30.08","71","73",,,,,"94",,"FEW:02 8 FEW:02 85 SCT:04 170","29.61","9.00","72","000",,"0",,,,,,,,,,,,,,,,,,,,,,,,,,,,,,,,,,,,,"MET10509/28/19 02:32:02 SPECI KRDU 280732Z 00000KT 9SM FEW008 FEW085 SCT170 23/22 A3008 RMK AO2 T02280217 (SMK)","FM-16","7",,,,,,,,,,,,,,,,,,,,,,,,,,,,"2009-07-08"
"72306013722","2019-09-28T02:51:00","FM-15","7",,,,,,,,,,,,,,,,,,,,,,,,,,,,,,,,,,,,,,"30.08","72","73","0.00",,,,"96","30.06","FEW:02 8 FEW:02 85 SCT:04 170","29.61","9.00","72","000",,"0",,,,,,,,,,,,,,,,,,,,,,,,,,,,,,,,,,,,,"MET11209/28/19 02:51:02 METAR KRDU 280751Z 00000KT 9SM FEW008 FEW085 SCT170 23/22 A3008 RMK AO2 SLP181 T02280222 (SMK)","FM-15","7",,,,,,,,,,,,,,,,,,,,,,,,,,,,"2009-07-08"
"72306013722","2019-09-28T03:51:00","FM-15","7",,,,,,,,,,,,,,,,,,,,,,,,,,,,,,,,,,,,,,"30.11","71","72","0.00",,"-0.03","3","97","30.09","FEW:02 8 FEW:02 85 SCT:04 250","29.64","8.00","71","280",,"3",,,,,,,,,,,,,,,,,,,,,,,,,,,,,,,,,,,,,"MET11809/28/19 03:51:02 METAR KRDU 280851Z 28003KT 8SM FEW008 FEW085 SCT250 22/22 A3011 RMK AO2 SLP191 T02220217 53011 (SMK)","FM-15","7",,,,,,,,,,,,,,,,,,,,,,,,,,,,"2009-07-08"
"72306013722","2019-09-28T04:51:00","FM-15","7",,,,,,,,,,,,,,,,,,,,,,,,,,,,,,,,,,,,,,"30.13","71","72","0.00",,,,"97","30.11","FEW:02 8 SCT:04 38 BKN:07 80","29.66","8.00","71","230",,"6",,,,,,,,,,,,,,,,,,,,,,,,,,,,,,,,,,,,,"MET11209/28/19 04:51:02 METAR KRDU 280951Z 23005KT 8SM FEW008 SCT038 BKN080 22/22 A3013 RMK AO2 SLP197 T02220217 (SMK)","FM-15","7",,,,,,,,,,,,,,,,,,,,,,,,,,,,"2009-07-08"
"72306013722","2019-09-28T05:51:00","FM-15","7",,,,,,,,,,,,,,,,,,,,,,,,,,,,,,,,,,,,,,"30.13","71","72","0.00",,,,"97","30.12","FEW:02 38 SCT:04 110 SCT:04 250","29.66","8.00","71","220",,"10",,,,,,,,,,,,,,,,,,,,,,,,,,,,,,,,,,,,,"MET11209/28/19 05:51:02 METAR KRDU 281051Z 22009KT 8SM FEW038 SCT110 SCT250 22/22 A3013 RMK AO2 SLP199 T02220217 (SMK)","FM-15","7",,,,,,,,,,,,,,,,,,,,,,,,,,,,"2009-07-08"
"72306013722","2019-09-28T06:51:00","FM-15","7",,,,,,,,,,,,,,,,,,,,,,,,,,,,,,,,,,,,,,"30.15","71","72","0.00",,"-0.04","1","97","30.13","FEW:02 100 FEW:02 200","29.68","8.00","71","230",,"5",,,,,,,,,,,,,,,,,,,,,,,,,,,,,,,,,,,,,"MET12209/28/19 06:51:02 METAR KRDU 281151Z 23004KT 8SM FEW100 FEW200 22/22 A3015 RMK AO2 SLP204 T02220217 10228 20217 51012 (RP)","FM-15","7",,,,,,,,,,,,,,,,,,,,,,,,,,,,"2009-07-08"
"72306013722","2019-09-28T07:00:00","FM-12","4",,,,,,,,,,,,,,,,,,,,,,,,,,,,,,,,,,,,,,,"71","72",,,"-0.04","1","97","30.13",,"29.69","7.46","71","230",,"5",,,,,,,,,,,,,,,,,,,,,,,,,,,,,,,,,,,,,"SYN08072306 32962 22304 10222 20217 30053 40204 51012 91151 333 10311 20217 555 92812=","FM-12","4",,,,,,,,,,,,,,,,,,,,,,,,,,,,"2009-07-08"
"72306013722","2019-09-28T07:51:00","FM-15","7",,,,,,,,,,,,,,,,,,,,,,,,,,,,,,,,,,,,,,"30.16","72","75","0.00",,,,"90","30.15","FEW:02 10 FEW:02 120 FEW:02 200","29.69","10.00","73","230",,"13",,,,,,,,,,,,,,,,,,,,,,,,,,,,,,,,,,,,,"MET11209/28/19 07:51:02 METAR KRDU 281251Z 23011KT 10SM FEW010 FEW120 FEW200 24/22 A3016 RMK AO2 SLP209 T02390222 (RP)","FM-15","7",,,,,,,,,,,,,,,,,,,,,,,,,,,,"2009-07-08"
"72306013722","2019-09-28T08:51:00","FM-15","7",,,,,,,,,,,,,,,,,,,,,,,,,,,,,,,,,,,,,,"30.17","71","79","0.00",,,,"77","30.15","FEW:02 15 FEW:02 120 FEW:02 250","29.70","10.00","74","230","21","15",,,,,,,,,,,,,,,,,,,,,,,,,,,,,,,,,,,,,"MET11509/28/19 08:51:02 METAR KRDU 281351Z 23013G18KT 10SM FEW015 FEW120 FEW250 26/22 A3017 RMK AO2 SLP210 T02610217 (RP)","FM-15","7",,,,,,,,,,,,,,,,,,,,,,,,,,,,"2009-07-08"
"72306013722","2019-09-28T09:51:00","FM-15","7",,,,,,,,,,,,,,,,,,,,,,,,,,,,,,,,,,,,,,"30.18","69","84","0.00",,"-0.03","1","61","30.16","FEW:02 22 FEW:02 120 FEW:02 250","29.71","10.00","74","240",,"10",,,,,,,,,,,,,,,,,,,,,,,,,,,,,,,,,,,,,"MET11809/28/19 09:51:02 METAR KRDU 281451Z 24009KT 10SM FEW022 FEW120 FEW250 29/21 A3018 RMK AO2 SLP213 T02890206 51010 (RP)","FM-15","7",,,,,,,,,,,,,,,,,,,,,,,,,,,,"2009-07-08"
"72306013722","2019-09-28T10:51:00","FM-15","7",,,,,,,,,,,,,,,,,,,,,,,,,,,,,,,,,,,,,,"30.17","66","86","0.00",,,,"51","30.16","FEW:02 30 FEW:02 100 FEW:02 250","29.70","10.00","73","220","23","14",,,,,,,,,,,,,,,,,,,,,,,,,,,,,,,,,,,,,"MET11509/28/19 10:51:02 METAR KRDU 281551Z 22012G20KT 10SM FEW030 FEW100 FEW250 30/19 A3017 RMK AO2 SLP212 T03000189 (RP)","FM-15","7",,,,,,,,,,,,,,,,,,,,,,,,,,,,"2009-07-08"
"72306013722","2019-09-28T11:51:00","FM-15","7",,,,,,,,,,,,,,,,,,,,,,,,,,,,,,,,,,,,,,"30.16","64","89","0.00",,,,"43","30.14","FEW:02 30 FEW:02 120 FEW:02 250","29.69","10.00","72","260",,"14",,,,,,,,,,,,,,,,,,,,,,,,,,,,,,,,,,,,,"MET11209/28/19 11:51:02 METAR KRDU 281651Z 26012KT 10SM FEW030 FEW120 FEW250 32/18 A3016 RMK AO2 SLP207 T03170178 (RP)","FM-15","7",,,,,,,,,,,,,,,,,,,,,,,,,,,,"2009-07-08"
"72306013722","2019-09-28T12:51:00","FM-15","7",,,,,,,,,,,,,,,,,,,,,,,,,,,,,,,,,,,,,,"30.13","65","92","0.00",,"+0.05","8","41","30.11","FEW:02 40 FEW:02 100","29.66","10.00","74","220",,"11",,,,,,,,,,,,,,,,,,,,,,,,,,,,,,,,,,,,,"MET12309/28/19 12:51:02 METAR KRDU 281751Z 22010KT 10SM FEW040 FEW100 33/18 A3013 RMK AO2 SLP198 T03330183 10333 20222 58016 (RP)","FM-15","7",,,,,,,,,,,,,,,,,,,,,,,,,,,,"2009-07-08"
"72306013722","2019-09-28T13:00:00","FM-12","4",,,,,,,,,,,,,,,,,,,,,,,,,,,,,,,,,,,,,,,"65","92",,,"+0.05","8","41","30.11","41","29.67","9.94","74","220",,"11",,,,,,,,,,,,,,,,,,,,,,,,,,,,,,,,,,,,,"SYN08072306 32666 22210 10333 20183 30047 40198 58016 91751 333 10333 20222 555 92818=","FM-12","4",,,,,,,,,,,,,,,,,,,,,,,,,,,,"2009-07-08"
"72306013722","2019-09-28T13:51:00","FM-15","7",,,,,,,,,,,,,,,,,,,,,,,,,,,,,,,,,,,,,,"30.11","64","93","0.00",,,,"38","30.09","FEW:02 40 FEW:02 100 FEW:02 250","29.64","10.00","74","VRB",,"6",,,,,,,,,,,,,,,,,,,,,,,,,,,,,,,,,,,,,"MET11209/28/19 13:51:02 METAR KRDU 281851Z VRB05KT 10SM FEW040 FEW100 FEW250 34/18 A3011 RMK AO2 SLP191 T03390178 (RP)","FM-15","7",,,,,,,,,,,,,,,,,,,,,,,,,,,,"2009-07-08"
"72306013722","2019-09-28T14:51:00","FM-15","7",,,,,,,,,,,,,,,,,,,,,,,,,,,,,,,,,,,,,,"30.10","65","93","0.00",,,,"40","30.08","FEW:02 40 FEW:02 150 SCT:04 250","29.63","10.00","74","230",,"14",,,,,,,,,,,,,,,,,,,,,,,,,,,,,,,,,,,,,"MET11209/28/19 14:51:02 METAR KRDU 281951Z 23012KT 10SM FEW040 FEW150 SCT250 34/18 A3010 RMK AO2 SLP187 T03390183 (HA)","FM-15","7",,,,,,,,,,,,,,,,,,,,,,,,,,,,"2009-07-08"
"72306013722","2019-09-28T15:51:00","FM-15","7",,,,,,,,,,,,,,,,,,,,,,,,,,,,,,,,,,,,,,"30.10","64","92","0.00",,"+0.04","6","40","30.08","SCT:04 150 BKN:07 250","29.63","10.00","73","230",,"10",,,,,,,,,,,,,,,,,,,,,,,,,,,,,,,,,,,,,"MET11109/28/19 15:51:02 METAR KRDU 282051Z 23009KT 10SM SCT150 BKN250 33/18 A3010 RMK AO2 SLP186 T03330178 56012 (HA)","FM-15","7",,,,,,,,,,,,,,,,,,,,,,,,,,,,"2009-07-08"
"72306013722","2019-09-28T16:51:00","FM-15","7",,,,,,,,,,,,,,,,,,,,,,,,,,,,,,,,,,,,,,"30.10","63","90","0.00",,,,"41","30.09","SCT:04 150 BKN:07 250","29.63","10.00","72","230",,"10",,,,,,,,,,,,,,,,,,,,,,,,,,,,,,,,,,,,,"MET10509/28/19 16:51:02 METAR KRDU 282151Z 23009KT 10SM SCT150 BKN250 32/17 A3010 RMK AO2 SLP188 T03220172 (HA)","FM-15","7",,,,,,,,,,,,,,,,,,,,,,,,,,,,"2009-07-08"
"72306013722","2019-09-28T17:51:00","FM-15","7",,,,,,,,,,,,,,,,,,,,,,,,,,,,,,,,,,,,,,"30.11","69","86","0.00",,,,"57","30.09","SCT:04 150 SCT:04 250","29.64","10.00","74","170",,"8",,,,,,,,,,,,,,,,,,,,,,,,,,,,,,,,,,,,,"MET10509/28/19 17:51:02 METAR KRDU 282251Z 17007KT 10SM SCT150 SCT250 30/21 A3011 RMK AO2 SLP190 T03000206 (HA)","FM-15","7",,,,,,,,,,,,,,,,,,,,,,,,,,,,"2009-07-08"
"72306013722","2019-09-28T18:51:00","FM-15","7",,,,,,,,,,,,,,,,,,,,,,,,,,,,,,,,,,,,,,"30.12","69","83","0.00",,"-0.02","3","63","30.10","SCT:04 150 SCT:04 250","29.65","10.00","74","170",,"3",,,,,,,,,,,,,,,,,,,,,,,,,,,,,,,,,,,,,"MET12309/28/19 18:51:02 METAR KRDU 282351Z 17003KT 10SM SCT150 SCT250 28/21 A3012 RMK AO2 SLP194 T02830206 10344 20283 53007 (HA)","FM-15","7",,,,,,,,,,,,,,,,,,,,,,,,,,,,"2009-07-08"
"72306013722","2019-09-28T19:00:00","FM-12","4",,,,,,,,,,,,,,,,,,,,,,,,,,,,,,,,,,,,,,,"69","83",,,"-0.02","3","63","30.10",,"29.66","9.94","74","170",,"3",,,,,,,,,,,,,,,,,,,,,,,,,,,,,,,,,,,,,"SYN08072306 32966 41703 10283 20206 30043 40194 53007 92351 333 10344 20217 555 92900=","FM-12","4",,,,,,,,,,,,,,,,,,,,,,,,,,,,"2009-07-08"
"72306013722","2019-09-28T19:51:00","FM-15","7",,,,,,,,,,,,,,,,,,,,,,,,,,,,,,,,,,,,,,"30.12","68","81","0.00",,,,"65","30.11","SCT:04 250","29.65","10.00","72","200",,"7",,,,,,,,,,,,,,,,,,,,,,,,,,,,,,,,,,,,,"MET09309/28/19 19:51:01 METAR KRDU 290051Z 20006KT 10SM SCT250 27/20 A3012 RMK AO2 SLP195 T02720200","FM-15","7",,,,,,,,,,,,,,,,,,,,,,,,,,,,"2009-07-08"
"72306013722","2019-09-28T20:51:00","FM-15","7",,,,,,,,,,,,,,,,,,,,,,,,,,,,,,,,,,,,,,"30.13","68","79","0.00",,,,"69","30.11","SCT:04 250","29.66","10.00","72","180",,"5",,,,,,,,,,,,,,,,,,,,,,,,,,,,,,,,,,,,,"MET09309/28/19 20:51:01 METAR KRDU 290151Z 18004KT 10SM SCT250 26/20 A3013 RMK AO2 SLP198 T02610200","FM-15","7",,,,,,,,,,,,,,,,,,,,,,,,,,,,"2009-07-08"
"72306013722","2019-09-28T21:51:00","FM-15","7",,,,,,,,,,,,,,,,,,,,,,,,,,,,,,,,,,,,,,"30.14","68","77","0.00",,"-0.02","3","74","30.12","SCT:04 250","29.67","10.00","71","230",,"6",,,,,,,,,,,,,,,,,,,,,,,,,,,,,,,,,,,,,"MET09909/28/19 21:51:01 METAR KRDU 290251Z 23005KT 10SM SCT250 25/20 A3014 RMK AO2 SLP200 T02500200 53007","FM-15","7",,,,,,,,,,,,,,,,,,,,,,,,,,,,"2009-07-08"
"72306013722","2019-09-28T22:51:00","FM-15","7",,,,,,,,,,,,,,,,,,,,,,,,,,,,,,,,,,,,,,"30.15","67","75","0.00",,,,"76","30.13","SCT:04 250","29.68","10.00","70","230",,"6",,,,,,,,,,,,,,,,,,,,,,,,,,,,,,,,,,,,,"MET09309/28/19 22:51:01 METAR KRDU 290351Z 23005KT 10SM SCT250 24/19 A3015 RMK AO2 SLP204 T02390194","FM-15","7",,,,,,,,,,,,,,,,,,,,,,,,,,,,"2009-07-08"
"72306013722","2019-09-28T23:51:00","FM-15","7",,,,,,,,,,,,,,,,,,,,,,,,,,,,,,,,,,,,,,"30.15","67","76","0.00",,,,"74","30.14","SCT:04 250","29.68","10.00","70","000",,"0",,,,,,,,,,,,,,,,,,,,,,,,,,,,,,,,,,,,,"MET10309/28/19 23:51:01 METAR KRDU 290451Z 00000KT 10SM SCT250 24/19 A3015 RMK AO2 SLP206 T02440194 403440217","FM-15","7",,,,,,,,,,,,,,,,,,,,,,,,,,,,"2009-07-08"
"72306013722","2019-09-28T23:59:00","SOD  ","6",,,,,,,,,,,,,,,"68","83","69","30.11","29.64","72","7.7","18","15.1","0","94","71","230","23","T","0","0.0","230","16",,,,,,,,,,,,,,,,,,,,,,,,,,,,,,,,,,,,,,,,,,,,,,,,,,,,,,,,,"SOD75624 HR PRECIPITATION (IN):    T SNOW DEPTH (IN):0     24 HR SNOWFALL (IN):0.0  WEATHER(CODE):1  24 HR MAX TEMP (F): 9424 HR MIN TEMP (F): 71AVERAGE STATION PRESSURE:29.640 MINIMUM SEA LEVEL PRESSURE:30.05 TIME OF OCCURRENCE:0209 PEAK WIND SPEED (MPH): 23 PEAK WIND DIR (DEG):230 PEAK WIND TIME (LST):      FASTEST 2MIN SPEED (MPH): 16FASTEST 2MIN DIR (DEG):230 FASTEST 2MIN TIME (LST):     AVERAGE WIND SPEED (MPH): 7.7 24 HR AVG TEMP (F): 83DEPART FROM NORMAL: 15  HEATING DEGREE DAYS:  0 COOLING DEGREE DAYS: 18 LATEST DAY MAX TEMP (0700-1900 LST):94  LATEST NIGHT MIN TEMP(1900-0800 LST):71 HOURLY INCREMENTAL PRECIPITATION VALUES (IN):    0.00 0.00 0.00 0.00 0.00 0.00 0.00 0.00 0.00 0.00 0.00 0.00 0.00 0.00 0.00 0.00 0.00 0.00 0.00 0.00 0.00 0.00 0.00","SOD  ","6",,,,,,,,,,,,,,,,,,,,,,,,,"0608","1804",,"2009-07-08"
"72306013722","2019-09-29T00:51:00","FM-15","7",,,,,,,,,,,,,,,,,,,,,,,,,,,,,,,,,,,,,,"30.16","68","75","0.00",,"-0.02","1","79","30.14","SCT:04 250","29.69","10.00","70","000",,"0",,,,,,,,,,,,,,,,,,,,,,,,,,,,,,,,,,,,,"MET11709/29/19 00:51:02 METAR KRDU 290551Z 00000KT 10SM SCT250 24/20 A3016 RMK AO2 SLP207 T02390200 10283 20228 51007 (SMK)","FM-15","7",,,,,,,,,,,,,,,,,,,,,,,,,,,,"2009-07-08"
"72306013722","2019-09-29T01:00:00","FM-12","4",,,,,,,,,,,,,,,,,,,,,,,,,,,,,,,,,,,,,,,"68","75",,,"-0.02","1","79","30.14",,"29.70","9.94","70","000",,"0",,,,,,,,,,,,,,,,,,,,,,,,,,,,,,,,,,,,,"SYN08072306 32966 40000 10239 20200 30057 40207 51007 90551 333 10283 20217 555 92906=","FM-12","4",,,,,,,,,,,,,,,,,,,,,,,,,,,,"2009-07-08"
"72306013722","2019-09-29T01:51:00","FM-15","7",,,,,,,,,,,,,,,,,,,,,,,,,,,,,,,,,,,,,,"30.16","67","73","0.00",,,,"81","30.14","SCT:04 250","29.69","10.00","69","240",,"5",,,,,,,,,,,,,,,,,,,,,,,,,,,,,,,,,,,,,"MET09909/29/19 01:51:02 METAR KRDU 290651Z 24004KT 10SM SCT250 23/19 A3016 RMK AO2 SLP206 T02280194 (SMK)","FM-15","7",,,,,,,,,,,,,,,,,,,,,,,,,,,,"2009-07-08"
"72306013722","2019-09-29T02:51:00","FM-15","7",,,,,,,,,,,,,,,,,,,,,,,,,,,,,,,,,,,,,,"30.15","67","73","0.00",,,,"81","30.14","SCT:04 250","29.68","10.00","69","260",,"3",,,,,,,,,,,,,,,,,,,,,,,,,,,,,,,,,,,,,"MET09909/29/19 02:51:02 METAR KRDU 290751Z 26003KT 10SM SCT250 23/19 A3015 RMK AO2 SLP205 T02280194 (SMK)","FM-15","7",,,,,,,,,,,,,,,,,,,,,,,,,,,,"2009-07-08"
"72306013722","2019-09-29T03:51:00","FM-15","7",,,,,,,,,,,,,,,,,,,,,,,,,,,,,,,,,,,,,,"30.16","68","72","0.00",,"+0.00","5","87","30.14","FEW:02 250","29.69","10.00","69","250",,"3",,,,,,,,,,,,,,,,,,,,,,,,,,,,,,,,,,,,,"MET10509/29/19 03:51:02 METAR KRDU 290851Z 25003KT 10SM FEW250 22/20 A3016 RMK AO2 SLP206 T02220200 55001 (SMK)","FM-15","7",,,,,,,,,,,,,,,,,,,,,,,,,,,,"2009-07-08"
"72306013722","2019-09-29T04:51:00","FM-15","7",,,,,,,,,,,,,,,,,,,,,,,,,,,,,,,,,,,,,,"30.16","67","70","0.00",,,,"90","30.14","FEW:02 250","29.69","10.00","68","000",,"0",,,,,,,,,,,,,,,,,,,,,,,,,,,,,,,,,,,,,"MET09909/29/19 04:51:02 METAR KRDU 290951Z 00000KT 10SM FEW250 21/19 A3016 RMK AO2 SLP207 T02110194 (SMK)","FM-15","7",,,,,,,,,,,,,,,,,,,,,,,,,,,,"2009-07-08"
"72306013722","2019-09-29T05:51:00","FM-15","7",,,,,,,,,,,,,,,,,,,,,,,,,,,,,,,,,,,,,,"30.17","67","70","0.00",,,,"90","30.16","FEW:02 250","29.70","10.00","68","240",,"3",,,,,,,,,,,,,,,,,,,,,,,,,,,,,,,,,,,,,"MET09909/29/19 05:51:02 METAR KRDU 291051Z 24003KT 10SM FEW250 21/19 A3017 RMK AO2 SLP212 T02110194 (SMK)","FM-15","7",,,,,,,,,,,,,,,,,,,,,,,,,,,,"2009-07-08"
"72306013722","2019-09-29T06:51:00","FM-15","7",,,,,,,,,,,,,,,,,,,,,,,,,,,,,,,,,,,,,,"30.18","68","71","0.00",,"-0.03","3","90","30.17","CLR:00","29.71","10.00","69","000",,"0",,,,,,,,,,,,,,,,,,,,,,,,,,,,,,,,,,,,,"MET11309/29/19 06:51:02 METAR KRDU 291151Z 00000KT 10SM CLR 22/20 A3018 RMK AO2 SLP216 T02170200 10239 20206 53009 (RP)","FM-15","7",,,,,,,,,,,,,,,,,,,,,,,,,,,,"2009-07-08"
"72306013722","2019-09-29T07:00:00","FM-12","4",,,,,,,,,,,,,,,,,,,,,,,,,,,,,,,,,,,,,,,"68","71",,,"-0.03","3","90","30.17",,"29.72","9.94","69","000",,"0",,,,,,,,,,,,,,,,,,,,,,,,,,,,,,,,,,,,,"SYN08072306 32966 00000 10217 20200 30063 40216 53009 91151 333 10344 20206 555 92912=","FM-12","4",,,,,,,,,,,,,,,,,,,,,,,,,,,,"2009-07-08"
"72306013722","2019-09-29T07:51:00","FM-15","7",,,,,,,,,,,,,,,,,,,,,,,,,,,,,,,,,,,,,,"30.20","69","76","0.00",,,,"79","30.18","CLR:00","29.73","10.00","71","000",,"0",,,,,,,,,,,,,,,,,,,,,,,,,,,,,,,,,,,,,"MET09509/29/19 07:51:02 METAR KRDU 291251Z 00000KT 10SM CLR 24/21 A3020 RMK AO2 SLP220 T02440206 (RP)","FM-15","7",,,,,,,,,,,,,,,,,,,,,,,,,,,,"2009-07-08"
"72306013722","2019-09-29T08:51:00","FM-15","7",,,,,,,,,,,,,,,,,,,,,,,,,,,,,,,,,,,,,,"30.20","71","83","0.00",,,,"67","30.18","CLR:00","29.73","10.00","75","VRB",,"3",,,,,,,,,,,,,,,,,,,,,,,,,,,,,,,,,,,,,"MET09509/29/19 08:51:02 METAR KRDU 291351Z VRB03KT 10SM CLR 28/22 A3020 RMK AO2 SLP220 T02830217 (RP)","FM-15","7",,,,,,,,,,,,,,,,,,,,,,,,,,,,"2009-07-08"
"72306013722","2019-09-29T09:51:00","FM-15","7",,,,,,,,,,,,,,,,,,,,,,,,,,,,,,,,,,,,,,"30.21","71","87","0.00",,"-0.02","1","59","30.19","CLR:00","29.74","10.00","76","030",,"9",,,,,,,,,,,,,,,,,,,,,,,,,,,,,,,,,,,,,"MET10109/29/19 09:51:02 METAR KRDU 291451Z 03008KT 10SM CLR 31/22 A3021 RMK AO2 SLP223 T03060217 51007 (RP)","FM-15","7",,,,,,,,,,,,,,,,,,,,,,,,,,,,"2009-07-08"
"72306013722","2019-09-29T10:51:00","FM-15","7",,,,,,,,,,,,,,,,,,,,,,,,,,,,,,,,,,,,,,"30.20","71","90","0.00",,,,"54","30.18","CLR:00","29.73","10.00","77","070",,"7",,,,,,,,,,,,,,,,,,,,,,,,,,,,,,,,,,,,,"MET09509/29/19 10:51:02 METAR KRDU 291551Z 07006KT 10SM CLR 32/22 A3020 RMK AO2 SLP220 T03220217 (RP)","FM-15","7",,,,,,,,,,,,,,,,,,,,,,,,,,,,"2009-07-08"
"72306013722","2019-09-29T11:51:00","FM-15","7",,,,,,,,,,,,,,,,,,,,,,,,,,,,,,,,,,,,,,"30.18","71","92","0.00",,,,"51","30.16","FEW:02 45","29.71","10.00","77","VRB",,"3",,,,,,,,,,,,,,,,,,,,,,,,,,,,,,,,,,,,,"MET09809/29/19 11:51:02 METAR KRDU 291651Z VRB03KT 10SM FEW045 33/22 A3018 RMK AO2 SLP214 T03330217 (RP)","FM-15","7",,,,,,,,,,,,,,,,,,,,,,,,,,,,"2009-07-08"
"72306013722","2019-09-29T12:51:00","FM-15","7",,,,,,,,,,,,,,,,,,,,,,,,,,,,,,,,,,,,,,"30.16","68","94","0.00",,"+0.04","8","43","30.14","SCT:04 55","29.69","10.00","76","090",,"11",,,,,,,,,,,,,,,,,,,,,,,,,,,,,,,,,,,,,"MET11609/29/19 12:51:02 METAR KRDU 291751Z 09010KT 10SM SCT055 34/20 A3016 RMK AO2 SLP207 T03440200 10344 20217 58015 (RP)","FM-15","7",,,,,,,,,,,,,,,,,,,,,,,,,,,,"2009-07-08"
"72306013722","2019-09-29T13:00:00","FM-12","4",,,,,,,,,,,,,,,,,,,,,,,,,,,,,,,,,,,,,,,"68","94",,,"+0.04","8","43","30.14","57","29.70","9.94","76","090",,"11",,,,,,,,,,,,,,,,,,,,,,,,,,,,,,,,,,,,,"SYN08072306 32766 40910 10344 20200 30057 40207 58015 91751 333 10344 20217 555 92918=","FM-12","4",,,,,,,,,,,,,,,,,,,,,,,,,,,,"2009-07-08"
"72306013722","2019-09-29T13:51:00","FM-15","7",,,,,,,,,,,,,,,,,,,,,,,,,,,,,,,,,,,,,,"30.14","66","93","0.00",,,,"41","30.12","SCT:04 70","29.67","10.00","75","030",,"10",,,,,,,,,,,,,,,,,,,,,,,,,,,,,,,,,,,,,"MET09809/29/19 13:51:02 METAR KRDU 291851Z 03009KT 10SM SCT070 34/19 A3014 RMK AO2 SLP201 T03390189 (RP)","FM-15","7",,,,,,,,,,,,,,,,,,,,,,,,,,,,"2009-07-08"
"72306013722","2019-09-29T14:51:00","FM-15","7",,,,,,,,,,,,,,,,,,,,,,,,,,,,,,,,,,,,,,"30.13","66","94","0.00",,,,"40","30.11","SCT:04 65","29.66","10.00","75","VRB",,"5",,,,,,,,,,,,,,,,,,,,,,,,,,,,,,,,,,,,,"MET09809/29/19 14:51:02 METAR KRDU 291951Z VRB04KT 10SM SCT065 34/19 A3013 RMK AO2 SLP196 T03440189 (HA)","FM-15","7",,,,,,,,,,,,,,,,,,,,,,,,,,,,"2009-07-08"
"72306013722","2019-09-29T15:51:00","FM-15","7",,,,,,,,,,,,,,,,,,,,,,,,,,,,,,,,,,,,,,"30.12","64","93","0.00",,"+0.04","6","38","30.10","SCT:04 65 SCT:04 250","29.65","10.00","74","040",,"10",,,,,,,,,,,,,,,,,,,,,,,,,,,,,,,,,,,,,"MET11109/29/19 15:51:02 METAR KRDU 292051Z 04009KT 10SM SCT065 SCT250 34/18 A3012 RMK AO2 SLP192 T03390178 56015 (HA)","FM-15","7",,,,,,,,,,,,,,,,,,,,,,,,,,,,"2009-07-08"
"72306013722","2019-09-29T16:51:00","FM-15","7",,,,,,,,,,,,,,,,,,,,,,,,,,,,,,,,,,,,,,"30.12","63","90","0.00",,,,"41","30.10","SCT:04 60 SCT:04 250","29.65","10.00","72","050",,"7",,,,,,,,,,,,,,,,,,,,,,,,,,,,,,,,,,,,,"MET10509/29/19 16:51:02 METAR KRDU 292151Z 05006KT 10SM SCT060 SCT250 32/17 A3012 RMK AO2 SLP192 T03220172 (HA)","FM-15","7",,,,,,,,,,,,,,,,,,,,,,,,,,,,"2009-07-08"
"72306013722","2019-09-29T17:51:00","FM-15","7",,,,,,,,,,,,,,,,,,,,,,,,,,,,,,,,,,,,,,"30.12","65","89","0.00",,,,"45","30.11","FEW:02 60 SCT:04 250","29.65","10.00","73","070",,"3",,,,,,,,,,,,,,,,,,,,,,,,,,,,,,,,,,,,,"MET11709/29/19 17:51:02 METAR KRDU 292251Z 07003KT 10SM FEW060 SCT250 32/18 A3012 RMK AO2 SLP195 TCU DSNT SE T03170183 (HA)","FM-15","7",,,,,,,,,,,,,,,,,,,,,,,,,,,,"2009-07-08"
"72306013722","2019-09-29T18:51:00","FM-15","7",,,,,,,,,,,,,,,,,,,,,,,,,,,,,,,,,,,,,,"30.14","66","82","0.00",,"-0.02","3","58","30.12","FEW:02 60 SCT:04 250","29.67","10.00","71","060",,"5",,,,,,,,,,,,,,,,,,,,,,,,,,,,,,,,,,,,,"MET12309/29/19 18:51:02 METAR KRDU 292351Z 06004KT 10SM FEW060 SCT250 28/19 A3014 RMK AO2 SLP200 T02780189 10350 20278 53007 (HA)","FM-15","7",,,,,,,,,,,,,,,,,,,,,,,,,,,,"2009-07-08"
"72306013722","2019-09-29T19:00:00","FM-12","4",,,,,,,,,,,,,,,,,,,,,,,,,,,,,,,,,,,,,,,"66","82",,,"-0.02","3","58","30.12","57","29.68","9.94","71","060",,"5",,,,,,,,,,,,,,,,,,,,,,,,,,,,,,,,,,,,,"SYN08072306 32766 40604 10278 20189 30050 40200 53007 92351 333 10350 20206 555 93000=","FM-12","4",,,,,,,,,,,,,,,,,,,,,,,,,,,,"2009-07-08"
"72306013722","2019-09-29T19:51:00","FM-15","7",,,,,,,,,,,,,,,,,,,,,,,,,,,,,,,,,,,,,,"30.16","67","82","0.00",,,,"60","30.14","FEW:02 65 FEW:02 110 SCT:04 250","29.69","10.00","72","100",,"5",,,,,,,,,,,,,,,,,,,,,,,,,,,,,,,,,,,,,"MET11209/29/19 19:51:03 METAR KRDU 300051Z 10004KT 10SM FEW065 FEW110 SCT250 28/19 A3016 RMK AO2 SLP208 T02780194 (HA)","FM-15","7",,,,,,,,,,,,,,,,,,,,,,,,,,,,"2009-07-08"
"72306013722","2019-09-29T20:51:00","FM-15","7",,,,,,,,,,,,,,,,,,,,,,,,,,,,,,,,,,,,,,"30.18","68","83","0.00",,,,"61","30.16","FEW:02 65 SCT:04 95 BKN:07 250","29.71","10.00","73","100",,"13",,,,,,,,,,,,,,,,,,,,,,,,,,,,,,,,,,,,,"MET11209/29/19 20:51:03 METAR KRDU 300151Z 10011KT 10SM FEW065 SCT095 BKN250 28/20 A3018 RMK AO2 SLP215 T02830200 (HA)","FM-15","7",,,,,,,,,,,,,,,,,,,,,,,,,,,,"2009-07-08"
"72306013722","2019-09-29T21:51:00","FM-15","7",,,,,,,,,,,,,,,,,,,,,,,,,,,,,,,,,,,,,,"30.19","70","81","0.00",,"-0.05","1","69","30.17","FEW:02 100 BKN:07 250","29.72","10.00","74","110",,"9",,,,,,,,,,,,,,,,,,,,,,,,,,,,,,,,,,,,,"MET11109/29/19 21:51:03 METAR KRDU 300251Z 11008KT 10SM FEW100 BKN250 27/21 A3019 RMK AO2 SLP217 T02720211 51018 (HA)","FM-15","7",,,,,,,,,,,,,,,,,,,,,,,,,,,,"2009-07-08"
"72306013722","2019-09-29T22:51:00","FM-15","7",,,,,,,,,,,,,,,,,,,,,,,,,,,,,,,,,,,,,,"30.20","72","79","0.00",,,,"79","30.18","FEW:02 100 BKN:07 250","29.73","9.00","74","100",,"9",,,,,,,,,,,,,,,,,,,,,,,,,,,,,,,,,,,,,"MET11609/29/19 22:51:03 METAR KRDU 300351Z 10008KT 9SM FEW100 BKN250 26/22 A3020 RMK AO2 LTG DSNT W SLP220 T02610222 (SMK)","FM-15","7",,,,,,,,,,,,,,,,,,,,,,,,,,,,"2009-07-08"
"72306013722","2019-09-29T23:51:00","FM-15","7",,,,,,,,,,,,,,,,,,,,,,,,,,,,,,,,,,,,,,"30.20","72","78","0.00",,,,"82","30.18","FEW:02 100 BKN:07 250","29.73","9.00","74","090",,"6",,,,,,,,,,,,,,,,,,,,,,,,,,,,,,,,,,,,,"MET11509/29/19 23:51:03 METAR KRDU 300451Z 09005KT 9SM FEW100 BKN250 26/22 A3020 RMK AO2 SLP220 T02560222 403500206 (SMK)","FM-15","7",,,,,,,,,,,,,,,,,,,,,,,,,,,,"2009-07-08"
"72306013722","2019-09-29T23:59:00","SOD  ","6",,,,,,,,,,,,,,,"68","82","65","30.15","29.68","73","5.3","17","14.5","0","95","69","110","19","0.00","0","0.0","100","14",,,,,,,,,,,,,,,,,,,,,,,,,,,,,,,,,,,,,,,,,,,,,,,,,,,,,,,,,"SOD73924 HR PRECIPITATION (IN): 0.00 SNOW DEPTH (IN):0     24 HR SNOWFALL (IN):0.0  24 HR MAX TEMP (F): 9524 HR MIN TEMP (F): 69AVERAGE STATION PRESSURE:29.685 MINIMUM SEA LEVEL PRESSURE:30.10 TIME OF OCCURRENCE:1747 PEAK WIND SPEED (MPH): 19 PEAK WIND DIR (DEG):110 PEAK WIND TIME (LST):      FASTEST 2MIN SPEED (MPH): 14FASTEST 2MIN DIR (DEG):100 FASTEST 2MIN TIME (LST):     AVERAGE WIND SPEED (MPH): 5.3 24 HR AVG TEMP (F): 82DEPART FROM NORMAL: 15  HEATING DEGREE DAYS:  0 COOLING DEGREE DAYS: 17 LATEST DAY MAX TEMP (0700-1900 LST):95  LATEST NIGHT MIN TEMP(1900-0800 LST):69 HOURLY INCREMENTAL PRECIPITATION VALUES (IN):.00 0.00 0.00 0.00 0.00 0.00 0.00 0.00 0.00 0.00 0.00 0.00 0.00 0.00 0.00 0.00 0.00 0.00 0.00 0.00 0.00 0.00 0.00 0.00","SOD  ","6",,,,,,,,,,,,,,,,,,,,,,,,,"0608","1802",,"2009-07-08"
"72306013722","2019-09-30T00:51:00","FM-15","7",,,,,,,,,,,,,,,,,,,,,,,,,,,,,,,,,,,,,,"30.21","71","76","0.00",,"-0.02","3","85","30.19","FEW:02 100 BKN:07 230","29.74","10.00","73","VRB",,"3",,,,,,,,,,,,,,,,,,,,,,,,,,,,,,,,,,,,,"MET12409/30/19 00:51:02 METAR KRDU 300551Z VRB03KT 10SM FEW100 BKN230 24/22 A3021 RMK AO2 SLP223 T02440217 10289 20244 53006 (SMK)","FM-15","7",,,,,,,,,,,,,,,,,,,,,,,,,,,,"2009-07-08"
"72306013722","2019-09-30T01:00:00","FM-12","4",,,,,,,,,,,,,,,,,,,,,,,,,,,,,,,,,,,,,,,"71","76",,,"-0.02","3","85","30.19",,"29.75","9.94","73",,,"3",,,,,,,,,,,,,,,,,,,,,,,,,,,,,,,,,,,,,"SYN08072306 32966 6//03 10244 20217 30073 40223 53006 90551 333 10289 20206 555 93006=","FM-12","4",,,,,,,,,,,,,,,,,,,,,,,,,,,,"2009-07-08"
"72306013722","2019-09-30T01:51:00","FM-15","7",,,,,,,,,,,,,,,,,,,,,,,,,,,,,,,,,,,,,,"30.19","71","75","0.00",,,,"88","30.17","BKN:07 220","29.72","10.00","72","080",,"7",,,,,,,,,,,,,,,,,,,,,,,,,,,,,,,,,,,,,"MET09909/30/19 01:51:02 METAR KRDU 300651Z 08006KT 10SM BKN220 24/22 A3019 RMK AO2 SLP217 T02390217 (SMK)","FM-15","7",,,,,,,,,,,,,,,,,,,,,,,,,,,,"2009-07-08"
"72306013722","2019-09-30T02:51:00","FM-15","7",,,,,,,,,,,,,,,,,,,,,,,,,,,,,,,,,,,,,,"30.18","71","73","0.00",,,,"94","30.16","SCT:04 10 BKN:07 220","29.71","9.00","72","060",,"6",,,,,,,,,,,,,,,,,,,,,,,,,,,,,,,,,,,,,"MET10509/30/19 02:51:02 METAR KRDU 300751Z 06005KT 9SM SCT010 BKN220 23/22 A3018 RMK AO2 SLP215 T02280217 (SMK)","FM-15","7",,,,,,,,,,,,,,,,,,,,,,,,,,,,"2009-07-08"
"72306013722","2019-09-30T03:31:00","FM-16","7",,,,,,,,,,,,,,,,,,,,,,,,,,,,,,,,,,,,,,"30.18","70","73",,,,,"90",,"BKN:07 10 BKN:07 220","29.71","9.00","71","090",,"7",,,,,,,,,,,,,,,,,,,,,,,,,,,,,,,,,,,,,"MET09809/30/19 03:31:02 SPECI KRDU 300831Z 09006KT 9SM BKN010 BKN220 23/21 A3018 RMK AO2 T02280211 (SMK)","FM-16","7",,,,,,,,,,,,,,,,,,,,,,,,,,,,"2009-07-08"
"72306013722","2019-09-30T03:51:00","FM-15","7",,,,,,,,,,,,,,,,,,,,,,,,,,,,,,,,,,,,,,"30.19","70","74","0.00",,"+0.02","5","88","30.17","BKN:07 10 BKN:07 220","29.72","9.00","71","090",,"7",,,,,,,,,,,,,,,,,,,,,,,,,,,,,,,,,,,,,"MET11109/30/19 03:51:02 METAR KRDU 300851Z 09006KT 9SM BKN010 BKN220 23/21 A3019 RMK AO2 SLP216 T02330211 55007 (SMK)","FM-15","7",,,,,,,,,,,,,,,,,,,,,,,,,,,,"2009-07-08"
"72306013722","2019-09-30T04:51:00","FM-15","7",,,,,,,,,,,,,,,,,,,,,,,,,,,,,,,,,,,,,,"30.20","69","73","0.00",,,,"87","30.18","OVC:08 11","29.73","9.00","70","080",,"7",,,,,,,,,,,,,,,,,,,,,,,,,,,,,,,,,,,,,"MET09809/30/19 04:51:02 METAR KRDU 300951Z 08006KT 9SM OVC011 23/21 A3020 RMK AO2 SLP221 T02280206 (SMK)","FM-15","7",,,,,,,,,,,,,,,,,,,,,,,,,,,,"2009-07-08"
"72306013722","2019-09-30T05:51:00","FM-15","7",,,,,,,,,,,,,,,,,,,,,,,,,,,,,,,,,,,,,,"30.20","68","73","0.00",,,,"84","30.18","OVC:08 11","29.73","10.00","70","090",,"9",,,,,,,,,,,,,,,,,,,,,,,,,,,,,,,,,,,,,"MET09909/30/19 05:51:02 METAR KRDU 301051Z 09008KT 10SM OVC011 23/20 A3020 RMK AO2 SLP220 T02280200 (SMK)","FM-15","7",,,,,,,,,,,,,,,,,,,,,,,,,,,,"2009-07-08"
"72306013722","2019-09-30T06:51:00","FM-15","7",,,,,,,,,,,,,,,,,,,,,,,,,,,,,,,,,,,,,,"30.22","68","73","0.00",,"-0.03","3","84","30.20","OVC:08 12","29.75","10.00","70","080",,"8",,,,,,,,,,,,,,,,,,,,,,,,,,,,,,,,,,,,,"MET11609/30/19 06:51:02 METAR KRDU 301151Z 08007KT 10SM OVC012 23/20 A3022 RMK AO2 SLP227 T02280200 10244 20228 53010 (RP)","FM-15","7",,,,,,,,,,,,,,,,,,,,,,,,,,,,"2009-07-08"
"72306013722","2019-09-30T07:00:00","FM-12","4",,,,,,,,,,,,,,,,,,,,,,,,,,,,,,,,,,,,,,,"68","73",,,"-0.03","3","84","30.20","15","29.76","9.94","70","080",,"8",,,,,,,,,,,,,,,,,,,,,,,,,,,,,,,,,,,,,"SYN08072306 32466 80807 10228 20200 30077 40227 53010 91151 333 10350 20228 555 93012=","FM-12","4",,,,,,,,,,,,,,,,,,,,,,,,,,,,"2009-07-08"
"72306013722","2019-09-30T07:51:00","FM-15","7",,,,,,,,,,,,,,,,,,,,,,,,,,,,,,,,,,,,,,"30.23","68","73","0.00",,,,"84","30.21","OVC:08 12","29.76","10.00","70","080",,"8",,,,,,,,,,,,,,,,,,,,,,,,,,,,,,,,,,,,,"MET09809/30/19 07:51:02 METAR KRDU 301251Z 08007KT 10SM OVC012 23/20 A3023 RMK AO2 SLP231 T02280200 (RP)","FM-15","7",,,,,,,,,,,,,,,,,,,,,,,,,,,,"2009-07-08"
"72306013722","2019-09-30T08:51:00","FM-15","7",,,,,,,,,,,,,,,,,,,,,,,,,,,,,,,,,,,,,,"30.23","68","74","0.00",,,,"82","30.22","BKN:07 14 OVC:08 45","29.76","10.00","70","060",,"5",,,,,,,,,,,,,,,,,,,,,,,,,,,,,,,,,,,,,"MET10509/30/19 08:51:02 METAR KRDU 301351Z 06004KT 10SM BKN014 OVC045 23/20 A3023 RMK AO2 SLP232 T02330200 (RP)","FM-15","7",,,,,,,,,,,,,,,,,,,,,,,,,,,,"2009-07-08"
"72306013722","2019-09-30T09:51:00","FM-15","7",,,,,,,,,,,,,,,,,,,,,,,,,,,,,,,,,,,,,,"30.23","68","77","0.00",,"-0.02","1","74","30.22","BKN:07 17 BKN:07 120","29.76","10.00","71","080",,"7",,,,,,,,,,,,,,,,,,,,,,,,,,,,,,,,,,,,,"MET11109/30/19 09:51:02 METAR KRDU 301451Z 08006KT 10SM BKN017 BKN120 25/20 A3023 RMK AO2 SLP232 T02500200 51006 (RP)","FM-15","7",,,,,,,,,,,,,,,,,,,,,,,,,,,,"2009-07-08"
"72306013722","2019-09-30T10:08:00","FM-16","7",,,,,,,,,,,,,,,,,,,,,,,,,,,,,,,,,,,,,,"30.23","68","79",,,,,"69",,"SCT:04 20 BKN:07 120","29.76","10.00","72","090",,"6",,,,,,,,,,,,,,,,,,,,,,,,,,,,,,,,,,,,,"MET09809/30/19 10:08:02 SPECI KRDU 301508Z 09005KT 10SM SCT020 BKN120 26/20 A3023 RMK AO2 T02610200 (RP)","FM-16","7",,,,,,,,,,,,,,,,,,,,,,,,,,,,"2009-07-08"
"72306013722","2019-09-30T10:51:00","FM-15","7",,,,,,,,,,,,,,,,,,,,,,,,,,,,,,,,,,,,,,"30.22","68","80","0.00",,,,"67","30.20","FEW:02 25 FEW:02 70 SCT:04 120","29.75","10.00","72","VRB",,"3",,,,,,,,,,,,,,,,,,,,,,,,,,,,,,,,,,,,,"MET11209/30/19 10:51:02 METAR KRDU 301551Z VRB03KT 10SM FEW025 FEW070 SCT120 27/20 A3022 RMK AO2 SLP228 T02670200 (RP)","FM-15","7",,,,,,,,,,,,,,,,,,,,,,,,,,,,"2009-07-08"
"72306013722","2019-09-30T11:51:00","FM-15","7",,,,,,,,,,,,,,,,,,,,,,,,,,,,,,,,,,,,,,"30.21","68","83","0.00",,,,"61","30.19","SCT:04 100 SCT:04 250","29.74","10.00","73","000",,"0",,,,,,,,,,,,,,,,,,,,,,,,,,,,,,,,,,,,,"MET10509/30/19 11:51:02 METAR KRDU 301651Z 00000KT 10SM SCT100 SCT250 28/20 A3021 RMK AO2 SLP223 T02830200 (RP)","FM-15","7",,,,,,,,,,,,,,,,,,,,,,,,,,,,"2009-07-08"
"72306013722","2019-09-30T12:51:00","FM-15","7",,,,,,,,,,,,,,,,,,,,,,,,,,,,,,,,,,,,,,"30.18","67","85","0.00",,"+0.06","8","55","30.16","FEW:02 40 FEW:02 100 FEW:02 250","29.71","10.00","73","000",,"0",,,,,,,,,,,,,,,,,,,,,,,,,,,,,,,,,,,,,"MET13009/30/19 12:51:02 METAR KRDU 301751Z 00000KT 10SM FEW040 FEW100 FEW250 29/19 A3018 RMK AO2 SLP213 T02940194 10300 20222 58019 (RP)","FM-15","7",,,,,,,,,,,,,,,,,,,,,,,,,,,,"2009-07-08"
"72306013722","2019-09-30T13:00:00","FM-12","4",,,,,,,,,,,,,,,,,,,,,,,,,,,,,,,,,,,,,,,"67","85",,,"+0.06","8","55","30.16","41","29.72","9.94","73","000",,"0",,,,,,,,,,,,,,,,,,,,,,,,,,,,,,,,,,,,,"SYN08072306 32666 20000 10294 20194 30063 40213 58019 91751 333 10300 20222 555 93018=","FM-12","4",,,,,,,,,,,,,,,,,,,,,,,,,,,,"2009-07-08"
"72306013722","2019-09-30T13:51:00","FM-15","7",,,,,,,,,,,,,,,,,,,,,,,,,,,,,,,,,,,,,,"30.16","66","86","0.00",,,,"51","30.14","FEW:02 43 SCT:04 100 SCT:04 250","29.69","10.00","73","170",,"5",,,,,,,,,,,,,,,,,,,,,,,,,,,,,,,,,,,,,"MET11209/30/19 13:51:02 METAR KRDU 301851Z 17004KT 10SM FEW043 SCT100 SCT250 30/19 A3016 RMK AO2 SLP206 T03000189 (RP)","FM-15","7",,,,,,,,,,,,,,,,,,,,,,,,,,,,"2009-07-08"
"72306013722","2019-09-30T14:51:00","FM-15","7",,,,,,,,,,,,,,,,,,,,,,,,,,,,,,,,,,,,,,"30.14","68","86","0.00",,,,"55","30.12","BKN:07 40 OVC:08 250","29.67","10.00","74","080",,"9",,,,,,,,,,,,,,,,,,,,,,,,,,,,,,,,,,,,,"MET10609/30/19 14:51:02 METAR KRDU 301951Z 08008KT 10SM BKN040 OVC250 30/20 A3014 RMK AO2 SLP200 T03000200 (JBA)","FM-15","7",,,,,,,,,,,,,,,,,,,,,,,,,,,,"2009-07-08"
"72306013722","2019-09-30T15:51:00","FM-15","7",,,,,,,,,,,,,,,,,,,,,,,,,,,,,,,,,,,,,,"30.14","68","85","0.00",,"+0.04","6","57","30.12","FEW:02 40 BKN:07 48 OVC:08 250","29.67","10.00","74","060",,"8",,,,,,,,,,,,,,,,,,,,,,,,,,,,,,,,,,,,,"MET11909/30/19 15:51:02 METAR KRDU 302051Z 06007KT 10SM FEW040 BKN048 OVC250 29/20 A3014 RMK AO2 SLP199 T02940200 56014 (JBA)","FM-15","7",,,,,,,,,,,,,,,,,,,,,,,,,,,,"2009-07-08"
"72306013722","2019-09-30T16:51:00","FM-15","7",,,,,,,,,,,,,,,,,,,,,,,,,,,,,,,,,,,,,,"30.14","68","83","0.00",,,,"61","30.12","FEW:02 48 BKN:07 250","29.67","10.00","73","090",,"9",,,,,,,,,,,,,,,,,,,,,,,,,,,,,,,,,,,,,"MET11709/30/19 16:51:02 METAR KRDU 302151Z 09008KT 10SM FEW048 BKN250 28/20 A3014 RMK AO2 SLP201 CB DSNT SE T02830200 (JBA)","FM-15","7",,,,,,,,,,,,,,,,,,,,,,,,,,,,"2009-07-08"
"72306013722","2019-09-30T17:51:00","FM-15","7",,,,,,,,,,,,,,,,,,,,,,,,,,,,,,,,,,,,,,"30.14","69","79","0.00",,,,"72","30.13","SCT:04 44 OVC:08 250","29.67","10.00","72","090",,"10",,,,,,,,,,,,,,,,,,,,,,,,,,,,,,,,,,,,,"MET10609/30/19 17:51:02 METAR KRDU 302251Z 09009KT 10SM SCT044 OVC250 26/21 A3014 RMK AO2 SLP203 T02610206 (JBA)","FM-15","7",,,,,,,,,,,,,,,,,,,,,,,,,,,,"2009-07-08"
"72306013722","2019-09-30T18:51:00","FM-15","7",,,,,,,,,,,,,,,,,,,,,,,,,,,,,,,,,,,,,,"30.14","68","77","0.00",,"-0.00","0","74","30.12","SCT:04 44 OVC:08 250","29.67","10.00","71","100",,"6",,,,,,,,,,,,,,,,,,,,,,,,,,,,,,,,,,,,,"MET14309/30/19 18:51:02 METAR KRDU 302351Z 10005KT 10SM SCT044 OVC250 25/20 A3014 RMK AO2 SLP201 CB DSNT SW TCU W T02500200 10311 20250 50000 $ (JBA)","FM-15","7",,,,,,,,,,,,,,,,,,,,,,,,,,,,"2009-07-08"
"72306013722","2019-09-30T19:00:00","FM-12","4",,,,,,,,,,,,,,,,,,,,,,,,,,,,,,,,,,,,,,,"68","77",,,"0.00","9","74","30.12","41","29.68","9.94","71","100",,"6",,,,,,,,,,,,,,,,,,,,,,,,,,,,,,,,,,,,,"SYN08072306 32666 81005 10250 20200 30050 40201 50000 92351 333 10311 20222 555 90100=","FM-12","4",,,,,,,,,,,,,,,,,,,,,,,,,,,,"2009-07-08"
"72306013722","2019-09-30T19:51:00","FM-15","7",,,,,,,,,,,,,,,,,,,,,,,,,,,,,,,,,,,,,,"30.15","68","76","0.00",,,,"77","30.14","FEW:02 44 SCT:04 250","29.68","10.00","71","090",,"5",,,,,,,,,,,,,,,,,,,,,,,,,,,,,,,,,,,,,"MET10809/30/19 19:51:03 METAR KRDU 010051Z 09004KT 10SM FEW044 SCT250 24/20 A3015 RMK AO2 SLP205 T02440200 $ (JBA)","FM-15","7",,,,,,,,,,,,,,,,,,,,,,,,,,,,"2009-07-08"
"72306013722","2019-09-30T20:51:00","FM-15","7",,,,,,,,,,,,,,,,,,,,,,,,,,,,,,,,,,,,,,"30.15","69","75","0.00",,,,"82","30.14","FEW:02 250","29.68","10.00","71","090",,"6",,,,,,,,,,,,,,,,,,,,,,,,,,,,,,,,,,,,,"MET10109/30/19 20:51:03 METAR KRDU 010151Z 09005KT 10SM FEW250 24/21 A3015 RMK AO2 SLP205 T02390206 $ (JBA)","FM-15","7",,,,,,,,,,,,,,,,,,,,,,,,,,,,"2009-07-08"
"72306013722","2019-09-30T21:51:00","FM-15","7",,,,,,,,,,,,,,,,,,,,,,,,,,,,,,,,,,,,,,"30.16","68","74","0.00",,"-0.03","3","82","30.15","FEW:02 250","29.69","10.00","70","090",,"6",,,,,,,,,,,,,,,,,,,,,,,,,,,,,,,,,,,,,"MET10709/30/19 21:51:03 METAR KRDU 010251Z 09005KT 10SM FEW250 23/20 A3016 RMK AO2 SLP210 T02330200 53009 $ (JBA)","FM-15","7",,,,,,,,,,,,,,,,,,,,,,,,,,,,"2009-07-08"
"72306013722","2019-09-30T22:51:00","FM-15","7",,,,,,,,,,,,,,,,,,,,,,,,,,,,,,,,,,,,,,"30.16","67","73","0.00",,,,"81","30.15","FEW:02 40 FEW:02 110","29.69","10.00","69","110",,"8",,,,,,,,,,,,,,,,,,,,,,,,,,,,,,,,,,,,,"MET10809/30/19 22:51:03 METAR KRDU 010351Z 11007KT 10SM FEW040 FEW110 23/19 A3016 RMK AO2 SLP209 T02280194 $ (AWB)","FM-15","7",,,,,,,,,,,,,,,,,,,,,,,,,,,,"2009-07-08"
"72306013722","2019-09-30T23:51:00","FM-15","7",,,,,,,,,,,,,,,,,,,,,,,,,,,,,,,,,,,,,,"30.16","66","72","0.00",,,,"82","30.15","FEW:02 40 FEW:02 100","29.69","10.00","68","120",,"6",,,,,,,,,,,,,,,,,,,,,,,,,,,,,,,,,,,,,"MET11809/30/19 23:51:03 METAR KRDU 010451Z 12005KT 10SM FEW040 FEW100 22/19 A3016 RMK AO2 SLP209 T02220189 403110222 $ (AWB)","FM-15","7",,,,,,,,,,,,,,,,,,,,,,,,,,,,"2009-07-08"
"72306013722","2019-09-30T23:59:00","SOD  ","6",,,,,,,,,,,,,,,"68","80","74","30.16","29.70","71","6.1","15","12.9","0","88","71","100","19","0.00","0","0.0","090","15",,,,,,,,,,,,,,,,,,,,,,,,,,,,,,,,,,,,,,,,,,,,,,,,,,,,,,,,,"SOD73924 HR PRECIPITATION (IN): 0.00 SNOW DEPTH (IN):0     24 HR SNOWFALL (IN):0.0  24 HR MAX TEMP (F): 8824 HR MIN TEMP (F): 71AVERAGE STATION PRESSURE:29.705 MINIMUM SEA LEVEL PRESSURE:30.11 TIME OF OCCURRENCE:1537 PEAK WIND SPEED (MPH): 19 PEAK WIND DIR (DEG):100 PEAK WIND TIME (LST):      FASTEST 2MIN SPEED (MPH): 15FASTEST 2MIN DIR (DEG): 90 FASTEST 2MIN TIME (LST):     AVERAGE WIND SPEED (MPH): 6.1 24 HR AVG TEMP (F): 80DEPART FROM NORMAL: 13  HEATING DEGREE DAYS:  0 COOLING DEGREE DAYS: 15 LATEST DAY MAX TEMP (0700-1900 LST):88  LATEST NIGHT MIN TEMP(1900-0800 LST):72 HOURLY INCREMENTAL PRECIPITATION VALUES (IN):.00 0.00 0.00 0.00 0.00 0.00 0.00 0.00 0.00 0.00 0.00 0.00 0.00 0.00 0.00 0.00 0.00 0.00 0.00 0.00 0.00 0.00 0.00 0.00","SOD  ","6",,,,,,,,,,,,,,,,,,,,,,,,,"0609","1801",,"2009-07-08"
"72306013722","2019-09-30T23:59:00","SOM  ","6","5.6",,,,,,,,,,,"1943","356","0",,,,,,,,,,,,,,,,,,,,,"1","1",,,,,,,,,,,,,,,,,,,"4","2","0","11","0","0","4.9","129","-19","5.5","4.3","-3.25",,"1.03","05-06","0",,"0.0",,"30.34","20","1019","87.6","76.8","29.64","06","0251","66.0","30.07","29.61","1.11",,,"227","20","SOM791PCP MTOT:1.11 PCP GT 24HRS:1.03 DATE(S):5-6 DAYS W/PCP >=.01:4  DAYS W/PCP >=.10:2  DAYS W/ PCP >=.50:1 DAYS W/PCP >=1.00:0 MSDP AMTS W/DATE-TIME TAGS:MIN:5 0.05  17/1736 MIN:10 0.08  05/1608 MIN:15 0.10  05/1611 MIN:20 0.13  05/1608 MIN:30 0.17  05/1611 MIN:45 0.21  05/1626 MIN:60 0.25  05/1641 MIN:80 0.28  05/1645 MIN:100 0.30  05/1701 MIN:120 0.33  05/1645 MIN:150 0.36  05/1757 MIN:180 0.39  05/1807 AVG DLY MIN:66.0  AVG DLY MAX:87.6  AVG MLY TMP:76.8  MIN TMP:50 DATE(S):20 MAX TMP:96  DATE(S):12 DAYS MAX <=32:0 DAYS MAX >=90:11 DAYS MIN <=32:0  DAYS MIN  <=0:0  AVG STP:29.610 LWST SLP:29.63 DATE/TIME:060241 HGST SLP:30.34 DATE/TIME:201019 HDD MTH TOT:0 DEP NORM:-2553 SEASON(JUL 1-JUN 30):0 DEP NORM:-25536 CDD MTH TOT:365 DEP NORM:-2553 SEASON(JAN 1-DEC 31):1985 DEP NORM:-25536","SOM  ","6","2019-09-17 17:36","2019-09-05 16:08","2019-09-05 16:11","2019-09-05 16:08","2019-09-05 16:11","2019-09-05 16:26","2019-09-05 16:41","2019-09-05 16:45","2019-09-05 17:01","2019-09-05 16:45","2019-09-05 17:57","2019-09-05 18:07","0.05","0.08","0.10","0.13","0.17","0.21","0.25","0.28","0.30","0.33","0.36","0.39",,,,"2009-07-08"
